{"type":"FeatureCollection","features":[{"type":"Feature","geometry":{"type":"MultiPolygon","coordinates":[[[[121.4983289583714,25.033053621751993],[121.49855443485198,25.033418380153336],[121.49935584330412,25.0338767364518],[121.50118149003774,25.03399520026206],[121.50180355106642,25.033413040477136],[121.50144918054382,25.032679769323366],[121.49933585660463,25.03217266360193],[121.49853949949001,25.032389040845228],[121.4983289583714,25.033053621751993]]],[[[121.52876477879649,25.0455954243687],[121.5280793435402,25.043565535470975],[121.52697240568345,25.041696461899136],[121.52548651661321,25.040060022210124],[121.52367878215001,25.038719093587975],[121.52161866740668,25.03772519707233],[121.51938532806231,25.037116519169025],[121.51706457048978,25.036916445638035],[121.51474555724756,25.037132663611025],[121.51251738408888,25.037756866419528],[121.51046565950313,25.038765072440523],[121.50866921771357,25.04011854576336],[121.50719709101006,25.041765283438817],[121.5061058574814,25.04364201236117],[121.50543746597994,25.045676619281398],[121.50521762201987,25.047790920801347],[121.50545479694686,25.049903667093723],[121.5061398989087,25.051933664042938],[121.50724661880129,25.053802893862226],[121.50873243842068,25.05543951420739],[121.51054026251967,25.05678062039112],[121.51260061233918,25.05777466434166],[121.51483429641188,25.05838343710752],[121.51715545588317,25.058583538486772],[121.51947486700908,25.058367277108104],[121.52170337346224,25.057742966248103],[121.52375531601214,25.056734603979645],[121.52555182725249,25.055380950000654],[121.52702386432021,25.053734034763615],[121.52811486277268,25.05185715840639],[121.52878290954581,25.049822456623602],[121.52900235160716,25.047708127255405],[121.52876477879649,25.0455954243687]]],[[[121.5676715964182,25.048228529046032],[121.56781535772959,25.04951144435427],[121.56810375451767,25.050170936121717],[121.56918395363303,25.05086765878439],[121.56933164829353,25.05172414221635],[121.5699830724409,25.052372432103056],[121.57023633788917,25.05341238292659],[121.57091414062815,25.053736805355463],[121.57199036274858,25.053663981969834],[121.57300169864797,25.055025866819317],[121.57369505490963,25.05533250778748],[121.57466990197118,25.055261010272496],[121.57551426150158,25.055854897714422],[121.57898370742944,25.055663968124158],[121.58012009682548,25.056277374741338],[121.58111596973094,25.055762278150326],[121.58226511725005,25.055791876980543],[121.58327904547107,25.055385731470317],[121.5840316763027,25.054282171947452],[121.58550298166654,25.054016894345075],[121.58595259783183,25.052979496295972],[121.58729855753971,25.052040878137827],[121.58780631242873,25.05201614164236],[121.58834459116319,25.052477572680193],[121.58892721730508,25.052576196486807],[121.59069465278459,25.051659917301873],[121.59103134456424,25.051186268573062],[121.59024679743239,25.049606099339435],[121.58934624980326,25.0491142329091],[121.5890167254418,25.04816123936918],[121.58828322364248,25.0474786369814],[121.58682806174288,25.04695187977986],[121.58574731136132,25.04727773724197],[121.58483199798425,25.046908646620146],[121.58474065526819,25.046443849463657],[121.58537390090666,25.045761853198666],[121.58553167864157,25.044714780354823],[121.58498276146629,25.043764264969543],[121.58332117785837,25.043216882711967],[121.58245886256151,25.043206671870937],[121.58201118731043,25.042399435564242],[121.58155471862885,25.042049309787348],[121.57971472391547,25.04165121256725],[121.5783334086571,25.040604398996802],[121.57652509350139,25.04074457916128],[121.5759503016723,25.04171546918648],[121.57495979677374,25.041943574661403],[121.57444381466156,25.042578483401076],[121.57356004721325,25.04290673138515],[121.57305954363349,25.043834185499],[121.57168779323395,25.043911716537306],[121.57098322411449,25.044718911679148],[121.56962708766169,25.04519167753751],[121.56938736534603,25.045698501881628],[121.56947731720487,25.046958087513897],[121.56789152566742,25.047727264647662],[121.5676715964182,25.048228529046032]],[[121.58243345824935,25.047632771248708],[121.58306561474912,25.04699750808955],[121.58360357631278,25.046820120623742],[121.58404645902144,25.046874343737375],[121.58432282212156,25.04719423889417],[121.58403806591329,25.048546819343354],[121.58329875062829,25.048913446911335],[121.58264308290535,25.04866905210096],[121.58243345824935,25.047632771248708]]],[[[121.59529828210731,25.051234987562296],[121.59665272321315,25.052745743192112],[121.59602927388556,25.054048881608963],[121.59614670053467,25.05460292945726],[121.59855201637252,25.055815111435226],[121.59882691661261,25.05635504807559],[121.59997252034756,25.057382159373084],[121.60071422221901,25.058960545887675],[121.60254661444371,25.059327919506384],[121.60360766151021,25.059241123171336],[121.60807343362485,25.060218428274897],[121.61073016170144,25.061650741118633],[121.61234299255966,25.06141464932984],[121.61300165290096,25.060225914916263],[121.61371076943952,25.059726747235757],[121.61508349181315,25.059233207957703],[121.6154965084476,25.058410033956214],[121.61623627932131,25.05784390063749],[121.61637572609955,25.056784197702328],[121.61761628861188,25.056354098608047],[121.61823227335147,25.055645047226594],[121.61841252481302,25.05501763838914],[121.61832177576237,25.05439577101729],[121.61756815396568,25.053446242157598],[121.61754416711446,25.052579774907116],[121.61629947478676,25.051397108650768],[121.61448751456464,25.05085952991647],[121.61405882719437,25.05107054644444],[121.61340943375721,25.051982298407978],[121.61192021997263,25.052038153290688],[121.61151467310333,25.051874674924726],[121.61137122281286,25.05129832376344],[121.6124791592868,25.049779772194864],[121.61225508624553,25.049267041358462],[121.61173347103254,25.049018716871142],[121.61056187717041,25.04942594446084],[121.60688156209,25.049649473868914],[121.60572473346609,25.050067270276454],[121.60526087868925,25.050902853271356],[121.60486029571622,25.051099867213868],[121.60226690069295,25.05032562804475],[121.60027517098654,25.050102963797116],[121.59921632596975,25.049766115477016],[121.59786648707185,25.050531401227207],[121.59563152356507,25.050492899139247],[121.59529828210731,25.051234987562296]]]]},"properties":{"city":"taipei","minutes":15,"minutes_label":"15分鐘"}},{"type":"Feature","geometry":{"type":"MultiPolygon","coordinates":[[[[121.49831035292485,25.032913288760785],[121.49854362350666,25.0334095185309],[121.49934145014423,25.03387484069284],[121.50118149003774,25.03399520026206],[121.5018014705314,25.033426153694812],[121.50144918054382,25.032679769323366],[121.49935024956538,25.032174559364947],[121.4986475065952,25.032306831497607],[121.49831035292485,25.032913288760785]]],[[[121.52487989970139,25.046313717177714],[121.52442297987956,25.04496044589494],[121.52368504550495,25.043714379481404],[121.52269446048925,25.042623399618588],[121.52148929421098,25.041729427483187],[121.52011585826502,25.041066813434888],[121.5186269270797,25.040661017634104],[121.51707971073016,25.040527632188958],[121.51553365771339,25.040671782323805],[121.51404817192173,25.0410879295267],[121.51268033131475,25.041760084224443],[121.51148269572775,25.042662419837704],[121.5105012878656,25.043760264681328],[121.50977382494447,25.04501143368307],[121.50932826889672,25.046367848849034],[121.50918175090615,25.047777386306212],[121.5093399117401,25.049185879027807],[121.50979668343106,25.050539198333464],[121.5105345209327,25.051785334190313],[121.5115250750814,25.052876394344754],[121.51273028119778,25.053770445396417],[121.51410382162204,25.054433124971332],[121.51559290601996,25.054838962933253],[121.51714030099117,25.0549723607554],[121.5186865308451,25.054828191329143],[121.52017216476766,25.05441199610336],[121.52154010224758,25.053739771962302],[121.52273776870163,25.05283735605742],[121.52371913672563,25.05173943229753],[121.52444649516846,25.05048819776918],[121.52489189800359,25.049131740442075],[121.52503823737253,25.047722190607896],[121.52487989970139,25.046313717177714]]],[[[121.5710681187965,25.04973091212262],[121.5730286107925,25.05153796695751],[121.57505793651495,25.052230824521164],[121.5755702973321,25.05348052693964],[121.57675157671932,25.053782875413894],[121.57737391305889,25.05354805454992],[121.57770358541009,25.052791270096296],[121.57813860602633,25.052551446516706],[121.58028719190592,25.052927657450837],[121.58100319929409,25.05331991462407],[121.58186578194892,25.053162561011515],[121.58264456946011,25.052445504835568],[121.583609396881,25.05212237061141],[121.58410846457554,25.051395120017027],[121.58522152213358,25.051354571453842],[121.5859033350736,25.050794808589657],[121.58658382912027,25.050583930081302],[121.58696281173414,25.049897072121958],[121.58681869367878,25.04948610662647],[121.5863359908555,25.049195044011068],[121.58498949829963,25.04922307574591],[121.58417757913,25.048857982339303],[121.58275436326687,25.048791495120998],[121.58237729791381,25.048071890976047],[121.58243345824935,25.047632771248708],[121.58306561474912,25.04699750808955],[121.58392389586491,25.04654569850381],[121.58405471170653,25.04613105761024],[121.58384485197062,25.045643440788698],[121.5798348722231,25.044171655219852],[121.5788340855156,25.043421286597905],[121.57847168423599,25.04267658893689],[121.57787121833881,25.04244162369784],[121.5771555682988,25.042648805679576],[121.57613064503319,25.044105984902973],[121.57476345116558,25.044990287596175],[121.5745660244202,25.045927829612975],[121.57360232999093,25.046963858103112],[121.5733140807027,25.04784242393216],[121.5728508828046,25.04800932634174],[121.57197996212496,25.047816183982597],[121.5715512097585,25.048027079050424],[121.57079983361784,25.049011248887478],[121.5710681187965,25.04973091212262]]],[[[121.59937023991175,25.052906628409325],[121.59955520820137,25.05372518977211],[121.60045682935008,25.05498515502741],[121.60141978358293,25.05536924758181],[121.60185584740506,25.05581215188052],[121.60189685372009,25.056638160182892],[121.60234555648194,25.057374601131936],[121.60372511981227,25.057945704547926],[121.6045952396166,25.059488256951802],[121.6066815402224,25.059923437562958],[121.60805048540065,25.05936015685654],[121.60927883693346,25.05951809470012],[121.6104894745315,25.058944955396733],[121.61125974473238,25.05819017351725],[121.61156874026788,25.057423321513998],[121.61358972407402,25.056598505483187],[121.61444223057946,25.05585423713112],[121.61473282234401,25.05520625770858],[121.6145585613118,25.054030040592192],[121.61328399496826,25.05215153744976],[121.61258674398638,25.05191521937117],[121.61055372838783,25.05197914364903],[121.61032858313983,25.051628731178504],[121.61033931105457,25.05031251598467],[121.60975493267844,25.049870859111063],[121.60823838250163,25.050373061423144],[121.60718748657753,25.050301194100577],[121.60620132551855,25.051168286387934],[121.60468866842996,25.05111238294715],[121.6038327921575,25.050707626497022],[121.6018089876584,25.050360863451022],[121.599168782877,25.051744588038375],[121.59896487959287,25.052386606757132],[121.59937023991175,25.052906628409325]]]]},"properties":{"city":"taipei","minutes":10,"minutes_label":"10分鐘"}},{"type":"Feature","geometry":{"type":"MultiPolygon","coordinates":[[[[121.49836390998748,25.032636207594003],[121.49844468415742,25.033300502163378],[121.49932733024635,25.033871668744037],[121.50118149003774,25.03399520026206],[121.50179798923973,25.033439017975088],[121.50168100713462,25.032884886565935],[121.50118985929811,25.032582929470866],[121.4991484803715,25.032160713338726],[121.49836390998748,25.032636207594003]]],[[[121.52099497342974,25.047031909058155],[121.52039757694538,25.045732225521707],[121.51929970016835,25.04473972962498],[121.5178684843963,25.044205511245114],[121.51632180529327,25.044210894454196],[121.51489511147307,25.044755060082117],[121.51380559086088,25.045755170208356],[121.5132191135764,25.04705897575839],[121.51322497943062,25.048467989993224],[121.513822314664,25.049767702896226],[121.51492019368384,25.05076023859493],[121.5163514738786,25.051294483896726],[121.51789824184632,25.051289098959046],[121.5193249969175,25.050744903964574],[121.52041451528692,25.049744754036357],[121.52100092814868,25.048440921564385],[121.52099497342974,25.047031909058155]]],[[[121.57723527092148,25.046065682044656],[121.57466992818594,25.049191069162987],[121.5747872540802,25.049745136076844],[121.57560618653329,25.05018335094418],[121.57635050985482,25.051018829266777],[121.5777548822136,25.051814811761858],[121.5784578734088,25.05162349021285],[121.57956816510816,25.05032564986797],[121.58073488005599,25.050107643289152],[121.58140916262377,25.050640553503932],[121.58199177509375,25.05073920479788],[121.58314095593761,25.049709124503938],[121.58220649984027,25.047601126541146],[121.57985950095896,25.046063686083567],[121.57889990172309,25.046298396995727],[121.57802931135261,25.045916587747097],[121.57723527092148,25.046065682044656]]],[[[121.60327179620963,25.05382208595749],[121.60343979242315,25.054503827493544],[121.6039996993768,25.054939841486732],[121.60511077082539,25.05678611129067],[121.60700845445506,25.0574759711008],[121.60766552784165,25.057152589886066],[121.60830431234689,25.05567341241946],[121.61018745404283,25.055368427488737],[121.6108542331181,25.053763844256856],[121.61071003110868,25.053352903724843],[121.6101116505043,25.052866159209753],[121.60984719128793,25.051725173422103],[121.60876423589384,25.05143246825262],[121.60773704222532,25.05077232841629],[121.6066628916465,25.051383487869266],[121.60575166042672,25.05107867744042],[121.60488773322962,25.051169867802546],[121.60354618516752,25.052352288437717],[121.60327179620963,25.05382208595749]]]]},"properties":{"city":"taipei","minutes":5,"minutes_label":"5分鐘"}}]}