{"type":"FeatureCollection","features":[{"type":"Feature","geometry":{"type":"MultiPolygon","coordinates":[[[[121.44433953351859,24.958823061134414],[121.4434005368332,24.958192518277034],[121.44134240189429,24.957197470061292],[121.43911089882768,24.956587553336966],[121.43795675553238,24.956434948892237],[121.43562713952993,24.956441780345024],[121.43447409645682,24.95660115054831],[121.4322469415825,24.957224142697974],[121.43119427371164,24.957681766423196],[121.4292613393212,24.958867280969688],[121.42839968589378,24.95958375709284],[121.42692741650286,24.96122971971237],[121.4263309805575,24.962143357238727],[121.42544617798914,24.9641080409537],[121.42516633671657,24.965140167949688],[121.42494523632848,24.967254391075972],[121.42500611228738,24.96831612650089],[121.42546780525919,24.970397817213424],[121.42586418127216,24.971397723591895],[121.42696895358215,24.973267598589203],[121.4276667134664,24.974119557057755],[121.42931945029834,24.975616564512794],[121.43025851036506,24.97624719387719],[121.43231687807076,24.977242389666934],[121.43360508331597,24.97763987432933],[121.43458886004295,24.979278099895456],[121.4352867064204,24.980130020798818],[121.43762969501206,24.98209028746215],[121.43721441582774,24.983471143456445],[121.4369934939821,24.98558537695481],[121.43722936516713,24.987698268224392],[121.4375164534872,24.988728747910052],[121.43841515081846,24.990688247255797],[121.43901810893426,24.991598393942674],[121.44050227249993,24.993235733837178],[121.44178232254419,24.994224504923583],[121.4409831228392,24.99651146052966],[121.44076224591345,24.99862569536701],[121.44099820999234,25.00073857574947],[121.44168196971118,25.002768902468205],[121.44278726753842,25.00463864512311],[121.44427163994706,25.006275941712236],[121.4460780473659,25.007617861593946],[121.44736560639738,25.008283167277543],[121.44756736051872,25.011079099486103],[121.4482512878087,25.01310939090292],[121.44875362885506,25.014068980185485],[121.45005493225241,25.015830922844472],[121.45140158077956,25.01707587862],[121.45191094231225,25.01847966286349],[121.45301653838386,25.020349321433912],[121.4545012371153,25.021986507927735],[121.45557084644871,25.022833663562494],[121.4551602785966,25.024202621014247],[121.454975519673,25.025601732169733],[121.45228028329642,25.0253163246255],[121.44996135620318,25.025531530516613],[121.44773304653013,25.026154764748334],[121.44589064862119,25.027046717780685],[121.44419066554735,25.025084530312547],[121.44332351482365,25.024373130821203],[121.44138122658019,25.0231989906671],[121.43922488789688,25.02239263414566],[121.4369373489243,25.021985042020283],[121.43460649690861,25.021991874210254],[121.43221715466123,25.022447354895363],[121.43021418743297,25.02052378033976],[121.42827208229117,25.019349465808254],[121.42611589383638,25.01854291667845],[121.42351502979143,25.018121984727358],[121.42252565448514,25.016473328616513],[121.42182768583453,25.015621353559975],[121.42104144215187,25.01483581499273],[121.41923519506322,25.01349359006652],[121.41823258554224,25.012949827511093],[121.41607657280997,25.012143129785937],[121.41378929507653,25.01173517745267],[121.41262378810465,25.011686247904652],[121.4103050376637,25.01190083318513],[121.40917411930545,25.01216228204113],[121.40702353551507,25.012980930232633],[121.40508950787991,25.014166136225594],[121.40344635155759,25.01567236293702],[121.40215721257857,25.01744173729297],[121.40127164111257,25.019406272680264],[121.40082368587359,25.021490480195435],[121.40083058310748,25.0236142685609],[121.40129209092959,25.025696021430782],[121.40219049509248,25.0276557339128],[121.40349128649906,25.029418087763986],[121.40427751423202,25.030203717854427],[121.40608384880973,25.031546120463997],[121.40814295562853,25.03254163400731],[121.41037569110424,25.033151993015775],[121.41184399697869,25.03331796025631],[121.41283336860138,25.034966685614933],[121.41431771960103,25.03660427504857],[121.41612425636502,25.037946551877738],[121.41712706165153,25.038490324318413],[121.41928354408152,25.039296997893913],[121.42157135100526,25.03970485730501],[121.42390254167258,25.03969822510482],[121.42629225176377,25.03924287278493],[121.4274282902756,25.040455003224665],[121.42923502428634,25.041797117348214],[121.43129448536891,25.04279230403905],[121.4335275162962,25.043402310396704],[121.4358482833794,25.04360368875752],[121.4381675779891,25.04338869860809],[121.4403962482747,25.042765604301493],[121.44223892083068,25.04187371508897],[121.44315254288429,25.043050505804366],[121.44480640109265,25.044547312213584],[121.44674906075213,25.04572139915246],[121.44860145525882,25.046429452067258],[121.44806073276789,25.048754287160172],[121.44806845238983,25.05087805470446],[121.44853086463426,25.052959641253377],[121.44958097894428,25.055225803538338],[121.44857650120602,25.05696774671757],[121.44790708708746,25.059002106027183],[121.44768623490013,25.061116333339555],[121.44792245473961,25.063229181729678],[121.44860669148682,25.065259453206295],[121.45006264966197,25.06759914263613],[121.45154788935965,25.069236340845283],[121.4524154067044,25.069947682994616],[121.4543585417618,25.071121659793523],[121.45651583360413,25.0719277781059],[121.457649111936,25.07218261843897],[121.45880436192145,25.072335052178435],[121.46113615818747,25.072327827082784],[121.46229024211522,25.0721682379309],[121.46451930239954,25.07154477841648],[121.46657195531373,25.07053719774394],[121.46836930608892,25.06918422555304],[121.46915019793724,25.068394001941215],[121.4704388866725,25.0666240643146],[121.47093427515712,25.06566139815937],[121.47160334153479,25.063626941785618],[121.47177058091488,25.062574745869895],[121.47176244862382,25.060450988754308],[121.47129961491628,25.05836948265426],[121.47086497027804,25.05729792833792],[121.47222828000041,25.05736041250477],[121.4725809829877,25.058781478549466],[121.4734807628585,25.060740732282174],[121.4747829198842,25.06250243517454],[121.475569810155,25.06328767524774],[121.47737739737498,25.064629187478122],[121.47838068499127,25.065172537577673],[121.48053802305506,25.065978306694294],[121.48171536455702,25.066238772161064],[121.48211801076984,25.066697526623642],[121.47970627069824,25.06782372085741],[121.4779090664897,25.06917682843104],[121.47694420971247,25.070194755894846],[121.47397565918641,25.071203654748537],[121.47204138554679,25.072389726745378],[121.47039829513865,25.073896681588543],[121.46922820890187,25.07548485838379],[121.46659672762743,25.076683137692555],[121.46479924896863,25.078036088918257],[121.46332608407234,25.07968239879796],[121.4625937579631,25.08085961261645],[121.45976993630487,25.081565253990327],[121.45771704377955,25.082572742520114],[121.45678172825671,25.083208954261174],[121.45513830600451,25.08471574270983],[121.45444602645982,25.08557181085413],[121.45335360603521,25.087448158556985],[121.45268411395243,25.089482532294063],[121.45251667847023,25.090534705744716],[121.45252448967378,25.092658460033693],[121.45269966701846,25.093709587857248],[121.45338416009271,25.095739825532664],[121.4538868886025,25.09669938153829],[121.4551891574855,25.098461246409265],[121.456843915442,25.09995789513709],[121.45778407118928,25.10058832496658],[121.45984474778629,25.101583090902643],[121.46094541981309,25.10193784473299],[121.46323452150702,25.10234504068721],[121.46440090038169,25.102393560376463],[121.46672124341961,25.102178110934236],[121.46895082112309,25.10155457985341],[121.47100393301525,25.100546935214],[121.47193930369612,25.09991063445449],[121.47358271669657,25.098403663014846],[121.47500724153498,25.096370237007662],[121.4778313095385,25.095664305640014],[121.47988424902944,25.094656539799853],[121.48168179814937,25.09330340773228],[121.48246275356215,25.092513115635274],[121.48363282516263,25.090924835699536],[121.48626443720687,25.089726257085886],[121.48806184370481,25.088373048950583],[121.48902674603833,25.087355049218296],[121.49199555586547,25.086345849234014],[121.49392984941042,25.085159518995237],[121.49479198012367,25.084442667900188],[121.49626477435994,25.082796052163136],[121.49741425311306,25.080770662189437],[121.49864953119757,25.080717459817826],[121.50093497890487,25.0802954360573],[121.50308608223165,25.079475427828374],[121.50502015944959,25.07828895525968],[121.50666287669057,25.076781623613545],[121.50735474033412,25.075925317092416],[121.50844623130577,25.074048582923087],[121.50911471791585,25.072013968563883],[121.50931189068895,25.069509896008032],[121.51087567902061,25.067048415151614],[121.51154408949053,25.065013789175996],[121.51176384983962,25.06289948440204],[121.51170216723187,25.061837809724267],[121.5112386554288,25.059756438935693],[121.5108412954767,25.058756786452243],[121.50973447564975,25.056887586222302],[121.50903567819573,25.05603603764629],[121.50738089629442,25.05453996264222],[121.50543753292074,25.053366680753953],[121.50328026102666,25.05256127111563],[121.50099196654804,25.05215467813231],[121.49967172610631,25.052113865195704],[121.49865130326513,25.05125039436067],[121.49670807331167,25.05007699564149],[121.49455091407661,25.049271457091027],[121.49337371303353,25.049011090793506],[121.49146155818286,25.047200749714808],[121.49052164622402,25.04657052519196],[121.48846165774586,25.04557616784346],[121.48622832983594,25.044966991842855],[121.48384069520327,25.044769608226865],[121.48348790519972,25.04334856810786],[121.48258809924278,25.041389370900532],[121.48128606030731,25.03962772979012],[121.47979467542721,25.038264839821927],[121.4814584698414,25.036743291596167],[121.48274665714254,25.03497324717456],[121.48363103086933,25.03300824709931],[121.48407762182042,25.03092381226849],[121.48406928938596,25.028800049928254],[121.48360637695683,25.026718574652115],[121.48270669519945,25.02475937200481],[121.48210325203229,25.02384941347957],[121.48064206219327,25.022236357767504],[121.48214730387471,25.02084328045261],[121.48326239125025,25.019338254647284],[121.48652122345955,25.019027912933996],[121.48874919895493,25.01840410146392],[121.4898021599284,25.01794606991166],[121.49173541405432,25.016759773385925],[121.49360298531741,25.014973416778947],[121.49587244451878,25.014125839997945],[121.49756109590302,25.01310596146076],[121.50056991577023,25.012373733529945],[121.50162278031874,25.011915619367713],[121.5034382672924,25.010809237544166],[121.50389066743374,25.011140086891647],[121.50361382644938,25.01259866193246],[121.50362248891447,25.014722422627663],[121.50408568901457,25.016803834417484],[121.5044828529607,25.01780351357348],[121.50558923199881,25.019672769481986],[121.50628779519346,25.020524342032207],[121.5079420998881,25.02202044342458],[121.50888190938511,25.022650561365115],[121.51094167086728,25.023644642100862],[121.51204178284438,25.023999029232783],[121.51317472585161,25.02425345255303],[121.51549523969555,25.024453591079116],[121.51666045693464,25.02439737844023],[121.5189447972381,25.02397509186032],[121.5200419154952,25.023613085881244],[121.52209330968888,25.022604750915434],[121.52388934977766,25.02125111861886],[121.52466958253417,25.020460608367642],[121.52595697729978,25.018690198047516],[121.52684054630123,25.0167249493256],[121.52711964401307,25.015692649345286],[121.52733906546585,25.013578313293102],[121.52710159832493,25.011465596546003],[121.5268137096561,25.010435305119664],[121.52591347072482,25.00847636861916],[121.52461117666702,25.006715103502362],[121.52268866034603,25.00503936101075],[121.52296526049818,25.003580755661826],[121.52291914700223,25.00123483678489],[121.52509603387753,25.001383608121007],[121.5274143555278,25.001167238850183],[121.52964179221198,25.000542821663178],[121.53169272587382,24.99953435870944],[121.53348832792429,24.998180613537322],[121.5349595904617,24.99653362007845],[121.53604997880224,24.99465668144877],[121.53665687029184,24.992846677043925],[121.53796476876242,24.993289616088834],[121.54025207889144,24.99369565894014],[121.54141744818634,24.993743590391983],[121.54373559307045,24.993526969418838],[121.54486603794506,24.993264503801708],[121.54701533073091,24.992443879741597],[121.54801347574865,24.991893626297674],[121.54980878567713,24.990539687654007],[121.55127973852629,24.988892536344423],[121.55187536736626,24.98797841390835],[121.55275831117571,24.98601301379771],[121.5532035769753,24.983928380101034],[121.55325606044256,24.98286629120396],[121.55302007467749,24.9807540990785],[121.55390915844232,24.97918538305569],[121.55457640901463,24.977150559412266],[121.55474283653363,24.97609827132886],[121.55473331157313,24.973974517190694],[121.5542694365061,24.97189326266212],[121.5529827833997,24.969352415435857],[121.5531845692959,24.96734632217078],[121.55312259505959,24.966284656232247],[121.5526587785007,24.96420339358211],[121.5522614083241,24.963203839452454],[121.55115485277015,24.96133491977321],[121.54935395502524,24.95943997352784],[121.54943172633509,24.956764962689295],[121.5489680105839,24.954683684219738],[121.54806784704594,24.9527248661911],[121.54676584438262,24.950963777228388],[121.54597923791707,24.950178897795855],[121.54417262004942,24.94883818381378],[121.54211385842166,24.94784453693834],[121.53988205675755,24.94723613412714],[121.53756296241862,24.947036350606883],[121.5363984861675,24.947092715346965],[121.53411562579623,24.947515249870296],[121.53301922153385,24.94787735152544],[121.53096914704031,24.94888582537819],[121.53003521702925,24.949522487662097],[121.52839445228402,24.95103007127913],[121.52710777814586,24.95280050659839],[121.52622465016047,24.954765766163597],[121.52577902318154,24.956850333142253],[121.5257880439594,24.95897410233015],[121.52625138892098,24.9610554580096],[121.52667670707186,24.962108828714815],[121.52539258160012,24.963566345654826],[121.52430229471533,24.96544321216513],[121.52363460268981,24.96747791055916],[121.52346791996203,24.968530169299846],[121.52347690587106,24.970653935945208],[121.52365249381515,24.971704990700548],[121.52441345317153,24.973879979779497],[121.52205652703431,24.974795346452275],[121.52012422029568,24.97598202866577],[121.51926298517402,24.976699022822206],[121.51779174131399,24.97834586502073],[121.51719590274378,24.97925985561985],[121.5162897330342,24.981309017970915],[121.5156623206325,24.981339291603835],[121.51367731291158,24.980385384020586],[121.5125775872057,24.980031000806406],[121.51029061336563,24.979624526260743],[121.50912538458017,24.979576348602894],[121.50680742964106,24.979792427574317],[121.50567702095263,24.9800546038661],[121.50352765590002,24.98087463319118],[121.50159507288573,24.98206107823071],[121.49995353166754,24.98356835430325],[121.49919888226587,24.984521601443753],[121.49751512498806,24.985570873519187],[121.4958734873835,24.987078105374287],[121.49458597733505,24.988848264402765],[121.49356316812798,24.991326689507478],[121.49120806454971,24.992194173735705],[121.4889165937038,24.99367881816035],[121.48587120416032,24.994415926818043],[121.48381996879465,24.99542376326628],[121.48179385225825,24.99695690442098],[121.48087514062605,24.997918458988973],[121.47876161707197,24.99851570661571],[121.47770877809448,24.998973659321752],[121.47577566127038,25.00015977418491],[121.47413356358827,25.001666770126324],[121.47301851796644,25.00317172935479],[121.47172347219761,25.00322219100624],[121.4695685151243,25.003613829134245],[121.46838404039057,25.00202852063311],[121.46759759270417,25.001243229690793],[121.46579105039226,24.999901572010533],[121.46450348292163,24.99923642307173],[121.46430136985371,24.996440516750308],[121.46361727700024,24.994410297037078],[121.46311490390075,24.993450755930294],[121.46181365738289,24.991688921542984],[121.45974715139694,24.989914985838563],[121.46026636444371,24.988660122422083],[121.46071320380702,24.986575741956806],[121.46076648316335,24.985513673749693],[121.46053021514182,24.983400824757336],[121.45984625979351,24.9813705822362],[121.45874092007158,24.97950096117844],[121.4572566859702,24.977863801237756],[121.45569967648869,24.97668920700439],[121.45628199243151,24.974256112988353],[121.45627415866673,24.972132325977753],[121.45581194196191,24.970050738532954],[121.45491312619485,24.96809134056201],[121.4536122683216,24.96632942302847],[121.4519593679435,24.964832685719834],[121.4500179445807,24.963658637061357],[121.44767389165597,24.96280989766236],[121.4466900766021,24.961171756638162],[121.44599226167686,24.96031988662972],[121.44433953351859,24.958823061134414]]],[[[121.46933238431289,25.130900215791804],[121.46784615195493,25.129263223222445],[121.46697812251921,25.12855198422716],[121.46503395284475,25.127378196443754],[121.46397653364245,25.126926949475624],[121.4617418364975,25.12631743139776],[121.45941947127001,25.126116482545957],[121.45709866220261,25.126331823632558],[121.4559668017037,25.12659363783454],[121.4538145531939,25.127412974084177],[121.45187920564506,25.128598789554353],[121.45101651515945,25.129315395011535],[121.44954256053978,25.130961567879215],[121.44844967287092,25.132837874666617],[121.44777986458168,25.13487221841054],[121.44755889569001,25.136986425891887],[121.44779528086924,25.13909925095468],[121.44847995873889,25.14112949649697],[121.44958663662104,25.14299913519653],[121.45107279804166,25.144636308988346],[121.4519570237767,25.145358479916375],[121.45050534791334,25.146475399639485],[121.4490311841639,25.148121566572385],[121.44793814020757,25.14999786747508],[121.44754828906044,25.151000059617935],[121.44710067622354,25.15308436592547],[121.44704723079339,25.154146408000702],[121.447283645147,25.156259228666585],[121.44760360939755,25.157371156851283],[121.44522066852275,25.157156506646995],[121.44289924479428,25.157371632871786],[121.44066851947981,25.15799478329458],[121.43861419897718,25.15900201671518],[121.43681521711925,25.160354634612684],[121.43534070370171,25.162000666955773],[121.43424732848472,25.163876867812913],[121.43357712264184,25.165911144310943],[121.43335586149243,25.168025325833465],[121.43341693701451,25.169087026891646],[121.43387957956503,25.17116862338182],[121.43427669650572,25.17216847080102],[121.43538344745564,25.17403820697532],[121.43608242602923,25.174890086895957],[121.43773800044667,25.17638692269859],[121.43968269956348,25.177561053927644],[121.44074047191786,25.178012466468296],[121.44184178028236,25.17836734986312],[121.44413225346455,25.178774817881102],[121.44529935426127,25.178823477442144],[121.44762117874494,25.178608308688535],[121.44875353621794,25.178346553179782],[121.45090670771835,25.177527283185857],[121.45190678143759,25.176977660660327],[121.45370583463658,25.175624861326586],[121.4551802592749,25.173978650214362],[121.45627339910824,25.172102300471145],[121.45694325879805,25.170067927636666],[121.4571641157236,25.16795371699366],[121.45692750548469,25.165840918118885],[121.45660743401899,25.164729012430506],[121.4578235665464,25.164894923768685],[121.46015712015709,25.164887689269566],[121.46131207307508,25.164728097330293],[121.46354281014243,25.16410463621144],[121.46459710623527,25.163646772857714],[121.46653287501546,25.162460790716377],[121.46739570305436,25.161744096067817],[121.46886977781995,25.160097750522137],[121.46996258633912,25.15822130094763],[121.47063214600854,25.15618686670829],[121.47085274573111,25.154072635432964],[121.47061593097656,25.15195985747831],[121.46993082518286,25.14992972327611],[121.46882377568058,25.148060243603776],[121.46733733827469,25.14642325261012],[121.46645301383728,25.145701173438454],[121.46790453484397,25.144584101052875],[121.46937840054744,25.14293774971422],[121.47047105298331,25.14106129437792],[121.47114051553484,25.139026854622383],[121.47136108081949,25.136912618283613],[121.47112429560947,25.134799835910865],[121.47043928218632,25.132769698106912],[121.46933238431289,25.130900215791804]]]]},"properties":{"city":"newtaipei","minutes":15}},{"type":"Feature","geometry":{"type":"MultiPolygon","coordinates":[[[[121.4434034921509,24.963187909366813],[121.44183646855512,24.961622082324084],[121.440542278718,24.96083929643899],[121.43910544965142,24.96030170638274],[121.43758119047696,24.960029968308092],[121.43602806805387,24.960034523353826],[121.43377454425938,24.9605561134022],[121.43240713783774,24.961227530620427],[121.4312096750093,24.962129226845008],[121.42983055894474,24.963835655407728],[121.42905418248534,24.96583354745947],[121.42894743313344,24.967950855031894],[121.42925526976748,24.969338640430426],[121.42985421411875,24.970645013117476],[121.43124527268617,24.97234343021096],[121.43244911281363,24.973238161256553],[121.43382133208534,24.973901608708832],[121.43530919099666,24.97430827291893],[121.43664569724746,24.97443374498541],[121.43687504029596,24.975349029639716],[121.43747409475688,24.976655369138378],[121.43886532573686,24.978353711328936],[121.44073756317071,24.97961079274434],[121.44217462473252,24.98014836248279],[121.44335994805832,24.980375220814185],[121.44227680340528,24.981557117855555],[121.44128940125792,24.98347609589872],[121.44095566515676,24.985573690114247],[121.44130436870661,24.9876692609454],[121.44230551385223,24.989582334315042],[121.44387290348166,24.991148145588408],[121.44587155763432,24.992231833050422],[121.44803491424577,24.992727582388618],[121.44702758622934,24.993499874239042],[121.44604598068807,24.994597303511615],[121.4450585366651,24.996516303843283],[121.44476044674613,24.997905860622595],[121.44476554335486,24.999321716041802],[121.44533806349239,25.001376023951206],[121.4465403246921,25.003190409832094],[121.44826880429142,25.004608606384377],[121.4503746427473,25.005508464475163],[121.45209338180851,25.005788150980944],[121.45144131897669,25.007544765000013],[121.45129417692478,25.008954261775948],[121.4516431280523,25.01104979845086],[121.45224251702024,25.01235606767155],[121.45363435887384,25.01405425522352],[121.45499479299374,25.015033358014044],[121.45556737867003,25.0170865309136],[121.45676994563954,25.01890082601476],[121.45849876370593,25.02031889592091],[121.46034088383446,25.021133434268528],[121.46008994698892,25.02249339363507],[121.45949618206993,25.023538907773816],[121.45905014375965,25.024895183157085],[121.45890307140769,25.02630468324716],[121.4590606270689,25.027713242471552],[121.4595167660259,25.029066729614254],[121.46025396755245,25.030313128211137],[121.46124390693986,25.03140453592611],[121.46276880057346,25.032472539800413],[121.46081608740299,25.032424753529895],[121.45928784360825,25.032707371324527],[121.45790668098702,25.031025794406798],[121.45603348416213,25.029768951115127],[121.45384053226437,25.02906161489607],[121.45151665423721,25.028964691914677],[121.44999353497212,25.029245532339893],[121.44855980530096,25.02979169387018],[121.44669586287641,25.03105991105585],[121.44531620913965,25.03276647501086],[121.4445396694579,25.034764431916507],[121.4444331455033,25.036881728233926],[121.44474134012574,25.038269464047588],[121.44574296154708,25.040182494905466],[121.44673285485436,25.041273998533043],[121.44860613559845,25.042530956005226],[121.45004396716466,25.043068434539755],[121.45156927959266,25.043340027293617],[121.45349934620485,25.0432833253922],[121.45445147192639,25.04454346215612],[121.45375436412841,25.045216985624084],[121.45289522668897,25.04639685229312],[121.45230525711035,25.04770673425069],[121.45200713504417,25.049096296609132],[121.45212906439788,25.051212897767037],[121.4526652090382,25.052766405776293],[121.45340248766844,25.054012833382497],[121.454726576373,25.05537818769571],[121.45395441297397,25.055990223125228],[121.45297238196403,25.05708769503486],[121.45198456257582,25.059006730773287],[121.45168641169653,25.060396290814026],[121.45169160240216,25.061812132985427],[121.45226454498135,25.063866391343723],[121.45300188791296,25.065112818207297],[121.45434204246378,25.066674279053732],[121.45554697865838,25.067568796697206],[121.45692037612261,25.068232006269287],[121.45840945003556,25.06863841725134],[121.4599569674091,25.06877240907556],[121.46150344784662,25.06862883178381],[121.46369177314783,25.06790796915052],[121.4649813015245,25.06711732920145],[121.46607668515186,25.066112733918295],[121.4669358292867,25.064932793958302],[121.46771218566344,25.06293473052142],[121.46785919359749,25.06152522945784],[121.46750981002442,25.059429751034063],[121.46650769180108,25.057516878907844],[121.46483344703047,25.055681643007354],[121.46560555333927,25.05506955310438],[121.46658745463107,25.053971999201067],[121.46745576495755,25.052359781126924],[121.46840686548998,25.052911431885228],[121.46984490194306,25.053448715050532],[121.47214766324869,25.053752411125277],[121.47444804087093,25.05343408263254],[121.47588192463147,25.052887670711254],[121.4769178171092,25.05226938663254],[121.47616811156868,25.054216114933684],[121.47606212015972,25.056333420837674],[121.47663544037138,25.05838758117197],[121.477838727736,25.060201685345916],[121.47956837122027,25.06161949026654],[121.48094182721945,25.062282477252804],[121.48243090387444,25.06268864753609],[121.48402566176865,25.06282011887013],[121.48456302136707,25.063684200807263],[121.4855534463533,25.064775434517898],[121.48742747588241,25.066031887397514],[121.48886574614552,25.066568981908087],[121.4902948101278,25.066827441324474],[121.48965706409054,25.068556840535],[121.48952371958956,25.07019805234575],[121.487869029298,25.06972132657072],[121.48632147478163,25.069587626340947],[121.48402083024109,25.069906142114544],[121.48258678724855,25.07045263378845],[121.48072259472885,25.071721274886453],[121.47928946615097,25.073532132034448],[121.47804534714786,25.073661389204172],[121.47655933214676,25.074077167565537],[121.47456747578624,25.07517319687858],[121.47301068191402,25.07674862219018],[121.47207472458999,25.07853472679642],[121.47017954784731,25.07900703713654],[121.46818755419092,25.080102982098385],[121.46709206557819,25.081107592620153],[121.46623281278649,25.08228753252968],[121.46543606448034,25.084412934916237],[121.46355553644347,25.084374825614365],[121.46129987341276,25.08489685444323],[121.4593077042092,25.08599268184518],[121.45775057779697,25.087567949560167],[121.4567625969317,25.089487011637388],[121.45642886795277,25.091584611103897],[121.45677816404317,25.09368010795265],[121.45778043629404,25.09559303443735],[121.45934939062812,25.097158638503604],[121.46134991232472,25.09824207620616],[121.46360970113638,25.09875002949588],[121.46593411528626,25.098638747134014],[121.46812294409914,25.097917814760944],[121.46998766137202,25.096649328686194],[121.47136766980182,25.09494254478922],[121.47216438007496,25.092817113032012],[121.47326777822265,25.092892371881444],[121.47481454328273,25.092748652178987],[121.4770032135429,25.092027590495558],[121.47829290434751,25.091236835003112],[121.47938838877045,25.09023214317442],[121.48024756820186,25.089052129381948],[121.48078573488444,25.087875204048583],[121.48268100453696,25.0874027584304],[121.48404951626559,25.086730873932208],[121.48576837097187,25.085301881985956],[121.48668095923983,25.084017841779495],[121.48792517235694,25.083888511939918],[121.4894112647574,25.083472619126184],[121.4914031183135,25.082376391787236],[121.49249841638337,25.081371604771814],[121.4936875829944,25.07954969066857],[121.4941334253356,25.0781933239468],[121.49426671509204,25.07655210971831],[121.49669174581834,25.077130186732283],[121.49901571267101,25.07701839237009],[121.50120395656103,25.076296978609953],[121.50306800172375,25.075028083240877],[121.50404972056403,25.073930287178918],[121.50477740734762,25.072679147478404],[121.50533441087538,25.070621262850015],[121.50532860141271,25.06920543347926],[121.50515743950325,25.068311067135607],[121.50601820477142,25.067501056231823],[121.50687697149019,25.066320891031953],[121.50746644259073,25.065010802949836],[121.50776397250966,25.06362114106566],[121.50775813697304,25.06220531089337],[121.50718428117003,25.06015127999859],[121.50598056663544,25.058337420213746],[121.50425067167303,25.056919926253247],[121.50287715453688,25.056257155375707],[121.5013880923773,25.05585118960839],[121.49984070030038,25.05571762758377],[121.49793507998774,25.055944876461204],[121.49672608891379,25.054524358875817],[121.49552098898887,25.053630176354567],[121.49341400492222,25.052730980727922],[121.49106392758787,25.052429887686348],[121.49006081441713,25.050998067200897],[121.48895781881338,25.05000054134748],[121.48766240134357,25.04921819263134],[121.48622434000066,25.048681082080936],[121.4839216428842,25.048377603139915],[121.48237544643752,25.04852141016385],[121.4808897485112,25.048937228539405],[121.47915172771314,25.049860848096365],[121.47990135997507,25.04791410644474],[121.48000728072917,25.04579679649481],[121.47943396686613,25.043742645670566],[121.47823082124734,25.041928548382018],[121.47650147320894,25.040510719823597],[121.47439484894146,25.039611247425817],[121.4720923474526,25.039307581824936],[121.4695416020064,25.03970846098481],[121.46939008777899,25.03817661562719],[121.46868540481167,25.03634893439772],[121.47072051879378,25.036988557486513],[121.47226764936526,25.037122427163865],[121.47381371677811,25.036978727053235],[121.47529929646578,25.036562980550162],[121.47666728999651,25.035891167278255],[121.47786512061957,25.034989108586824],[121.47884675460145,25.03389147465028],[121.47983395838186,25.031972262832355],[121.48016714434988,25.029874602145146],[121.47981765133102,25.027779145530047],[121.4792178947388,25.02647299551757],[121.47835000385825,25.025298545412113],[121.47724733496719,25.024300924339318],[121.4758908093314,25.02349222304161],[121.47587580723119,25.022267035155657],[121.47559715420084,25.020986343116473],[121.47797989554056,25.019566942615246],[121.47907475608142,25.018562252843367],[121.48026353408225,25.016740436980534],[121.48072041145312,25.015314199106513],[121.48260123021316,25.01570018178782],[121.4841550419688,25.015695130598132],[121.48648795372797,25.015313930001252],[121.48792134205402,25.014767406548252],[121.48978460864193,25.01349867952763],[121.49118244937469,25.011754719651957],[121.49255821543697,25.011493834451276],[121.49399153178209,25.01094725329028],[121.49596203494693,25.009600482750944],[121.49830849125021,25.009283742178177],[121.50040741795746,25.00837047992061],[121.50247481331286,25.00681820078938],[121.50377344203464,25.00523368946486],[121.50455669992806,25.006595059101215],[121.50554683163276,25.007686172247347],[121.50742018206482,25.008942392861854],[121.50894854266589,25.00949967498304],[121.5078566122496,25.01154954322124],[121.50755919784902,25.012939212996464],[121.50756501804622,25.014355052598557],[121.50787385946751,25.015742651908702],[121.50847386292364,25.017048684316645],[121.50986652274706,25.018746331930583],[121.51107137891677,25.019640406001265],[121.51244452716604,25.02030311012418],[121.51470307735495,25.020810309824228],[121.51702596193698,25.020698249834034],[121.51851119294818,25.020282075827748],[121.51987876489933,25.01960986986053],[121.5210761172638,25.018707468379056],[121.52245455679531,25.017000216466485],[121.52322972105166,25.015001868762862],[121.52333488006508,25.01288453071656],[121.5227610113041,25.010830546879237],[121.5215575653309,25.009016797242605],[121.51982819725698,25.0075994670562],[121.51763115801327,25.006680237588416],[121.51846366243804,25.00529855481454],[121.51902015394197,25.0032406087759],[121.518897140788,25.001124065691755],[121.51813081005172,24.99917996513978],[121.52015247419133,24.99849658707962],[121.521837056701,24.99737571630937],[121.52430375051385,24.99774036894292],[121.52585732635013,24.997734885657163],[121.5273798712814,24.997453275640492],[121.52947837580226,24.99653960839332],[121.5306754361722,24.99563713164354],[121.53205349009279,24.993929791886604],[121.53282836067662,24.991931392914747],[121.53294755389018,24.990058106084344],[121.53430527846527,24.989067001350733],[121.53545724472248,24.987706330144782],[121.53636725525189,24.98851119245988],[121.53766232880616,24.989293128442085],[121.53909990760481,24.989829753252838],[121.54062473884015,24.99010044159109],[121.54217821450071,24.990094789485877],[121.54370062510685,24.98981301435437],[121.54513345587874,24.98926594661469],[121.54642163685754,24.988474613180642],[121.54797638662077,24.986898433231556],[121.54896214573995,24.984978773921856],[121.54929404339475,24.982880966261387],[121.54910551608522,24.981282511401577],[121.54868328329981,24.98001657335523],[121.54991307649708,24.978458964920012],[121.55050168648165,24.977148705279077],[121.55079853817344,24.97575895244856],[121.55079223332534,24.974343115414985],[121.55021810224406,24.972289231542135],[121.54948035908868,24.971043278084185],[121.54864140477088,24.97010335028621],[121.54907706312984,24.96877056940478],[121.54922304929524,24.96736098683162],[121.54906455782513,24.96595252689428],[121.54860768947336,24.964599314811885],[121.5478700098165,24.963353351032993],[121.54687987294322,24.962262513303912],[121.54478503966038,24.96091213162417],[121.54538642546254,24.95925077470573],[121.54549117644842,24.95713341233735],[121.54518207380077,24.95574588476428],[121.54417963445479,24.953833515199744],[121.54261147675747,24.95226876462052],[121.54131676506384,24.9514868618288],[121.53987962594312,24.95095024834863],[121.53835528040051,24.950679542832766],[121.53680229860029,24.95068514677631],[121.53454939720385,24.951208252926207],[121.5331826568149,24.951880586128116],[121.53198603218644,24.95278308101154],[121.53100550719196,24.953881059753535],[121.53027876511932,24.955132332116087],[121.5297226625235,24.95719032688922],[121.52984580229894,24.95930687115059],[121.53063761315262,24.96129968737944],[121.53201753057908,24.962984771551238],[121.5302496459923,24.96398497404393],[121.52869494874588,24.96556097263663],[121.52770902105247,24.96748050538384],[121.52737679238106,24.969578274656108],[121.52753504288856,24.970986761040873],[121.52799170704384,24.972340040083058],[121.52872924389233,24.9735861033005],[121.52971931579316,24.974677061241003],[121.53092387658263,24.97557098444708],[121.5322966334005,24.97623351547537],[121.53378482604298,24.976639189915794],[121.53521477424331,24.976767619131188],[121.535566875564,24.977783139628173],[121.53449963971315,24.97909093620586],[121.53305652336704,24.977959081551596],[121.53095057789344,24.977060392364056],[121.5286491227772,24.976757583631347],[121.52710388231012,24.976901842080263],[121.52393758685683,24.977973591005608],[121.52207520776277,24.979242737768374],[121.52109438845392,24.980340652232897],[121.52036739502,24.98159187597032],[121.51992217133586,24.982948328869917],[121.51977956325547,24.984422024546696],[121.51867315767862,24.98522435865292],[121.51635982933752,24.98491757735656],[121.51449727964537,24.985074670280376],[121.51354770618387,24.984389641435502],[121.51217495505182,24.98372693804938],[121.50991709532339,24.983219686496437],[121.50759490615754,24.983331624938845],[121.50540833945946,24.984053115437536],[121.50354567535406,24.985322033795413],[121.5025646419736,24.986419828631202],[121.50205389832777,24.987249785968928],[121.50003996925132,24.988353961331896],[121.4984845805615,24.989929650262187],[121.49749799302892,24.991848987169174],[121.49720050497778,24.993238640974862],[121.49719859523174,24.994523207748852],[121.49527545288728,24.994651496501838],[121.49379044578455,24.995067436292484],[121.4924229965481,24.995739402544295],[121.49047829064315,24.997189507714886],[121.48888578075882,24.997331426329605],[121.48669885357711,24.99805264603784],[121.4846057856905,24.999501325387214],[121.48320798663072,25.001245224960513],[121.48102235593211,25.001606010028258],[121.478923394939,25.00251899997824],[121.47772588301378,25.003421066333477],[121.47674447638276,25.004518693907052],[121.47601689219375,25.005769705970895],[121.47555999364906,25.007195930385038],[121.47367932524557,25.006809857076888],[121.47135664998311,25.00692123675026],[121.46916944707698,25.00764220184357],[121.46781281018568,25.008469703602415],[121.46710478875534,25.008196422282392],[121.46679660580614,25.006809818646694],[121.46619709183315,25.005503608931328],[121.46480517764599,25.0038055380992],[121.46360080627989,25.002911079939988],[121.46222810711704,25.002247916433152],[121.45977621300332,25.001731830290513],[121.46042812789103,24.999975181266397],[121.46053435622477,24.99785786733045],[121.45996160171268,24.99580362027336],[121.45875921898462,24.993989342830186],[121.45765698975673,24.9929915659807],[121.45636237045238,24.992208926939643],[121.45492510841832,24.99167149789879],[121.45349485074361,24.991412399671564],[121.45450212169791,24.990640065192384],[121.4554836203734,24.989542581047978],[121.45647084747102,24.987623512796816],[121.45680432468566,24.985525887976628],[121.45645536567301,24.983430356459795],[121.4554540545948,24.98151737907212],[121.45388664449236,24.979951688096616],[121.45188812222689,24.978868104700677],[121.44996977310134,24.97840474651725],[121.45145036538,24.976613640203055],[121.45222644298282,24.974615638308077],[121.45233279750732,24.972498321353786],[121.45202469433912,24.971110587937638],[121.45142551502174,24.96980430777985],[121.45055829278056,24.968629677116397],[121.44883029726968,24.967211493667847],[121.44672512662166,24.966311599857185],[121.44463384708281,24.966016249676905],[121.4441401283475,24.96443440658432],[121.4434034921509,24.963187909366813]]],[[[121.41923721100723,25.018488957633764],[121.4182477440318,25.017397261870364],[121.41704356957504,25.0165024255187],[121.4156709611709,25.015838832146734],[121.41418266149695,25.015431979531296],[121.41263585640009,25.015297500362347],[121.41108997859638,25.015440561856625],[121.40890225933403,25.016160646483044],[121.40761289110087,25.016950802797243],[121.4065174544489,25.01795497420173],[121.40565804659816,25.019134575564227],[121.4050676982382,25.02044427966664],[121.40476910354961,25.021833758465228],[121.40477374695014,25.02324961668922],[121.40534572137422,25.025304079225403],[121.40608235689321,25.026550754674997],[121.40707179213885,25.027642530506153],[121.40894446742546,25.02889999826654],[121.41038197242489,25.029437865916762],[121.4119070349751,25.029709869668437],[121.41346103817905,25.029705554950567],[121.4148029137925,25.02946701070137],[121.41512124912961,25.031037956452654],[121.41612235382509,25.032951195679953],[121.41768997524153,25.034517270923992],[121.41968911350692,25.035601297709853],[121.42194758762889,25.03610990726957],[121.4242708691834,25.035999291820055],[121.42645884513902,25.03527897951038],[121.42804995656189,25.03423796583587],[121.42849565772673,25.0355552157339],[121.42923258821432,25.036801770884406],[121.43080042360694,25.03836770417992],[121.43279973723968,25.039451551674905],[121.4350583329953,25.039959960047472],[121.43661246066054,25.039955401541196],[121.43886741503111,25.03943375454178],[121.44023564427913,25.038762273688967],[121.44195435624901,25.03733378200917],[121.44314386350784,25.03551225726776],[121.44359011389706,25.03415602857556],[121.44373736929283,25.03274654255074],[121.44357998090325,25.031337965682635],[121.44312400713768,25.029984427721185],[121.44238697925405,25.02873794166438],[121.44139722635774,25.027646405340228],[121.44019278588819,25.026751761318867],[121.43881994158954,25.026088385776813],[121.43733144519184,25.025681768123082],[121.43578449009082,25.02554753202451],[121.43423851475954,25.025690835365193],[121.43275292010446,25.026106172143514],[121.4313847882525,25.026777583902625],[121.43045977786424,25.02745231478878],[121.43001408672343,25.026135070509707],[121.42927721384288,25.02488851670696],[121.42828760692319,25.02379689055031],[121.42708329780011,25.02290213806385],[121.42571056517703,25.02223863959209],[121.42422215649907,25.02183188926601],[121.42267526179631,25.021697515847137],[121.42055665346125,25.021973107482427],[121.42023827424288,25.020402172855132],[121.41923721100723,25.018488957633764]]],[[[121.46604169831917,25.132916882606814],[121.46505088461006,25.131825534094165],[121.46384524289046,25.130931111322532],[121.46247110304428,25.130267981946307],[121.46098126654645,25.12986162590149],[121.45943297823719,25.129727656797026],[121.45788572776515,25.12987122226144],[121.4556962703782,25.130592009349062],[121.45440602219503,25.131382572109388],[121.45330996939073,25.132387081979076],[121.45245023288794,25.13356694084277],[121.45185985605262,25.13487681160189],[121.4515615342214,25.13626635981215],[121.45156674139378,25.1376821875276],[121.45214005682037,25.139736420515046],[121.453343803161,25.141550697369535],[121.4544473487733,25.142548468069226],[121.455743553699,25.143331085866684],[121.45718260133127,25.143868470979488],[121.45870918238386,25.144139968843135],[121.46026462153698,25.14413514433535],[121.46178913376943,25.143854183037657],[121.4632241234425,25.143307884076386],[121.46451443754304,25.1425172448225],[121.46561048627377,25.141512653454974],[121.4664701493322,25.140332720496488],[121.46706039453362,25.13902279432587],[121.46735854658144,25.1376332178233],[121.4673531573242,25.13621739324199],[121.46704444422957,25.134829729745224],[121.46604169831917,25.132916882606814]]],[[[121.46553262599598,25.15007690120719],[121.464541675597,25.148985553729553],[121.46333586681475,25.14809113123559],[121.46196153595154,25.147428001365462],[121.4604714918178,25.147021644071017],[121.45892298722525,25.146887673007082],[121.45737552012488,25.147031235876593],[121.45518575526393,25.147752018105873],[121.45389532521898,25.148542577167916],[121.45279911731342,25.149547083139474],[121.45193925843023,25.150726938058625],[121.4513487966419,25.152036804981773],[121.45105043055632,25.153426349614737],[121.45105563588244,25.154842174150584],[121.4516290277831,25.156896403376248],[121.45283293925517,25.158710677952936],[121.45393663747598,25.15970844805629],[121.45523302236897,25.16049106602193],[121.45667227040772,25.16102845205755],[121.45819906459789,25.16129995156051],[121.45975472142018,25.161295129343976],[121.46127944747893,25.161014170901243],[121.46271463890939,25.160467875250166],[121.46400513493815,25.15967723963693],[121.46510133877273,25.15867265210389],[121.46596112414996,25.157492723029964],[121.466551454188,25.156182800648146],[121.46684965033666,25.154793227695688],[121.46684426275841,25.153377406290904],[121.46653550886599,25.15198974547521],[121.46553262599598,25.15007690120719]]],[[[121.45184382368022,25.163957500616725],[121.45085287927856,25.16286606343855],[121.44964703025673,25.1619715316672],[121.44827261446862,25.161308277138318],[121.4467824439896,25.160901784588944],[121.44523377648416,25.160767672865564],[121.44368611615762,25.16091109507086],[121.44149602109253,25.161631678058903],[121.44020535632177,25.162422119569854],[121.43910891247899,25.16342652555816],[121.43824882550729,25.16460630190716],[121.43765815224114,25.16591611469746],[121.43735959941615,25.167305631721014],[121.43736464992203,25.168721456237954],[121.43793788208042,25.170775736889365],[121.4391417324812,25.172590120316418],[121.44024544778694,25.173587990442094],[121.44154189550689,25.17437072602513],[121.44298124970362,25.17490824274848],[121.44450818930245,25.175179880981382],[121.44606402519156,25.175175200199668],[121.44758895708605,25.174894380456077],[121.44902437320131,25.174348215434566],[121.45031510411897,25.173557697359673],[121.45141154401068,25.172553209757545],[121.4522715575349,25.171373359169795],[121.45286209903888,25.170063490818002],[121.45316048184661,25.168673945368944],[121.45315524895194,25.16725812389001],[121.45284661183099,25.16587043543077],[121.45184382368022,25.163957500616725]]]]},"properties":{"city":"newtaipei","minutes":10}},{"type":"Feature","geometry":{"type":"MultiPolygon","coordinates":[[[[121.44031774669071,24.965507372267723],[121.43933329072223,24.96442106195134],[121.43796775590575,24.963760857904564],[121.43642902154163,24.963627263239054],[121.43495132709974,24.964040615165395],[121.43375962244522,24.964937989637054],[121.43303533046662,24.9661827780166],[121.43288872904478,24.967585479529838],[121.43317481057666,24.968612663418632],[121.4340376941574,24.969781740948168],[121.43532570605491,24.970560812150826],[121.43684275041548,24.970831262674324],[121.43835785310539,24.970551915879067],[121.4396403359064,24.969765303365964],[121.44049494547697,24.968591187825574],[121.44079158298041,24.967208325527427],[121.44071295298191,24.966504028605776],[121.44031774669071,24.965507372267723]]],[[[121.4477368310302,24.971213823414057],[121.44664020156594,24.970220762807845],[121.44521015671633,24.969685822517594],[121.44366439398566,24.969690436502695],[121.44257103906219,24.970050717806014],[121.44137933350382,24.970948152575126],[121.44065508460402,24.972192976452853],[121.44050856369479,24.973595683259585],[121.44079472297393,24.974622850628272],[121.44139568273883,24.975530068756218],[121.44194665150503,24.976029021634044],[121.44331234345555,24.976689185951034],[121.4448512467801,24.97682270690837],[121.44632905849322,24.97640925578803],[121.44752077943308,24.975511781822252],[121.44824497755745,24.974266925785756],[121.44839141127798,24.972864212696297],[121.44823738034717,24.97217034176465],[121.4477368310302,24.971213823414057]]],[[[121.45216708123917,24.983533725352654],[121.45107030583932,24.982540701049686],[121.44964009919255,24.982005806456215],[121.4480941834233,24.982010468573602],[121.44700073363012,24.982370783150333],[121.4458089435772,24.98326825309904],[121.4450846695306,24.98451309685562],[121.44493818666119,24.985915805216294],[121.44522441280591,24.986942961472682],[121.44582546615693,24.98785015894204],[121.44637650825403,24.98834909359166],[121.44774236036245,24.989009213956813],[121.44928142127544,24.989142686688844],[121.45075936400296,24.98872919041383],[121.45195116942928,24.987831681243772],[121.45267539265163,24.986586805318264],[121.45282178827128,24.98518409068519],[121.45266771604605,24.984490226047242],[121.45216708123917,24.983533725352654]]],[[[121.4559373615383,24.996573641570034],[121.45484043882716,24.995580648851874],[121.45341006463721,24.99504579378158],[121.4518639865878,24.995050497341794],[121.4507704335313,24.9954108404501],[121.44957854720941,24.996308340395476],[121.44885423722101,24.997553200861066],[121.4487077842193,24.99895591010202],[121.44899407359141,24.99998305645609],[121.4495952193919,25.00089023584313],[121.45014633550963,25.001389154635834],[121.4515123524865,25.00204923694297],[121.45305157947274,25.002182668107597],[121.45452966418124,25.001769133085784],[121.4557215658719,25.000871593893486],[121.45644582498758,24.999626701246477],[121.45659219067561,24.998223985741035],[121.45643807984592,24.99753012674887],[121.4559373615383,24.996573641570034]]],[[[121.46250752408785,25.006913496769354],[121.4617236061869,25.006130696211464],[121.46072409359539,25.005588965986863],[121.45959505952068,25.005334956273636],[121.4584337280876,25.005390540564658],[121.45734010400011,25.005750932493964],[121.45640836302691,25.00638509786152],[121.45571874380529,25.007238426431822],[121.45533063850898,25.008237433697413],[121.45527747714844,25.00929608811015],[121.45543159728685,25.00998994709524],[121.45616509158273,25.011230369476966],[121.45702943778835,25.011939412103857],[121.45771582631026,25.012271018465476],[121.45942855600018,25.012531891937176],[121.45899044996223,25.01360753262535],[121.4589956880467,25.015016564567468],[121.45959228755099,25.016316512196305],[121.46068943490285,25.01730946394138],[121.46219856970234,25.01785460034478],[121.46369255058882,25.018619319741983],[121.464455068231,25.018755050434663],[121.46561652173861,25.018699417450748],[121.46671023465038,25.018338963977452],[121.46764201073856,25.01770473454091],[121.46833160380532,25.016851352218225],[121.46868691695326,25.015973082587013],[121.46947738980919,25.01700239454323],[121.47041395244787,25.01763073601698],[121.4715103685631,25.01798428730065],[121.47267220888416,25.018032598510548],[121.4734336726258,25.01789206521297],[121.47448330768209,25.017435611345014],[121.47574214815778,25.016544579690652],[121.47643167822719,25.015691160584655],[121.47681963421451,25.01469210138939],[121.47681419280703,25.01328307298174],[121.47621742840914,25.011983196353658],[121.47512020626947,25.010990359603372],[121.47443377959306,25.010658834094016],[121.47330467261222,25.01040492971595],[121.47214330158445,25.010460621625874],[121.4714006637388,25.01066847944809],[121.46945797094433,25.011895352174356],[121.46876841283563,25.012748739771517],[121.46841310915305,25.013627009376982],[121.46762266717016,25.012597691310436],[121.46668615705747,25.011969331069913],[121.46551134109221,25.01160538748802],[121.46401743459252,25.010840684716328],[121.46267133947879,25.010698114990234],[121.46301619650403,25.009966526824734],[121.46318290764951,25.008917710728795],[121.46300833617775,25.00786995717914],[121.46250752408785,25.006913496769354]]],[[[121.41594865951373,25.02050451476827],[121.41485183789466,25.01951122883431],[121.41342135185036,25.018975992276765],[121.41187496603759,25.018980284128975],[121.41078108082155,25.01934033640896],[121.40958867059294,25.020237519895957],[121.40886381787217,25.02148218877776],[121.40871688592144,25.022884860500497],[121.40900290250629,25.023912084204607],[121.40960387636598,25.024819424689436],[121.41015494160604,25.02531849082199],[121.41152101746076,25.02597893771716],[121.41306050662907,25.026112779030278],[121.4145390168918,25.025699637245772],[121.41573144268045,25.024802414494133],[121.41645624460729,25.023557713319732],[121.41660308916447,25.022155035193002],[121.41644917031118,25.021461134370668],[121.41594865951373,25.02050451476827]]],[[[121.4261896761324,25.027207691761497],[121.42520484241838,25.02612130186697],[121.4238386937095,25.025460981712413],[121.4222992027408,25.025327252059977],[121.42082072410825,25.025740470656164],[121.41962832700307,25.026637733757877],[121.41890353970824,25.027882449704634],[121.41875671553699,25.029285128775378],[121.4190428310619,25.030312331011494],[121.41990602255167,25.031481476918053],[121.4211945969283,25.032260656695716],[121.42271237269294,25.032531239436302],[121.4242282643082,25.032252028352705],[121.42551147338543,25.03146553438498],[121.42636663597807,25.030291502194846],[121.42666356906969,25.02890867538888],[121.42658497451603,25.02820437626909],[121.4261896761324,25.027207691761497]]],[[[121.43909854369114,25.03075400675357],[121.4380014460548,25.02976089669543],[121.43657074364886,25.029225886554748],[121.43502423404635,25.02923042090409],[121.4339303286939,25.029590643343578],[121.43273799184381,25.030488010378075],[121.43201331582728,25.031732788156557],[121.43186663702882,25.033135477540537],[121.43215287075115,25.034162652443626],[121.4327540645003,25.03506989518312],[121.43330526846783,25.03556887296134],[121.43467157924829,25.036229103032877],[121.4362112177991,25.03636270233627],[121.43768976914443,25.03594933021543],[121.43888212146496,25.0350519238836],[121.4396067465772,25.03380711384067],[121.43975333791566,25.032404418125193],[121.43959927555134,25.031710544139546],[121.43909854369114,25.03075400675357]]],[[[121.45560835694323,25.034133644826824],[121.45451109793186,25.033140659360487],[121.45308028714564,25.032605809928036],[121.45153373864424,25.03261051664327],[121.45043985370816,25.032970860182328],[121.44924760687978,25.033868358058733],[121.44852307949198,25.035113213762934],[121.44837658531664,25.036515916287314],[121.44866296431144,25.037543056931316],[121.4492642952858,25.038450230571403],[121.44981558036757,25.038949145755144],[121.45118201475972,25.039609221983973],[121.45272171060502,25.03974264932479],[121.45420024419886,25.03932911331279],[121.45539250643029,25.03843157612276],[121.4561169828456,25.03718668818011],[121.45626338953195,25.035783979377285],[121.45610923004602,25.035090124176175],[121.45560835694323,25.034133644826824]]],[[[121.46490829264609,25.03759344081321],[121.46381092869093,25.036600525985612],[121.46238003872612,25.03606576748758],[121.46083344885692,25.03607057159284],[121.45859958695834,25.03668096878378],[121.4574073652115,25.037578531347116],[121.45668289969414,25.038823425363926],[121.45653649476753,25.04022613399174],[121.45682295059656,25.041253257320797],[121.45742435959238,25.042160396385743],[121.45797569401546,25.042659280345656],[121.45934221226075,25.04331928000224],[121.46088196188576,25.043452621931568],[121.46350053621002,25.042788989988797],[121.4646927624853,25.041891379075903],[121.46541716396024,25.040646447417323],[121.46556346814016,25.0392437315582],[121.46540925184055,25.038549887138632],[121.46490829264609,25.03759344081321]]],[[[121.46240440359459,25.046980688449267],[121.46103782852234,25.04632071809672],[121.45949804288426,25.046187378347323],[121.45801944610949,25.04660096761332],[121.45682712537729,25.047498525747354],[121.45610259737396,25.048743416186046],[121.45595617597897,25.050146122635116],[121.45632264649305,25.05137324746221],[121.45718633859988,25.05254216661339],[121.45847536550599,25.053321014596623],[121.45999347677822,25.05359121101932],[121.46150953576802,25.053311617929708],[121.46219366522166,25.05297577520184],[121.46305299450925,25.052261406553455],[121.46377747180209,25.051016483507993],[121.46392380492443,25.049613770769206],[121.46338973049701,25.048066821888636],[121.46240440359459,25.046980688449267]]],[[[121.4617713516042,25.05807055857007],[121.4610846954791,25.05773897676778],[121.45995518149279,25.057484978397063],[121.45841628471418,25.0576278465737],[121.45705453857875,25.058296260584218],[121.45607724624097,25.059388467815772],[121.45563319578089,25.06073819801983],[121.45579000612145,25.062139971529493],[121.4566409915769,25.063566452765716],[121.45773854251743,25.064559414370933],[121.45916974605281,25.065094211104327],[121.46071670047914,25.065089419139444],[121.46214387672532,25.06454576834285],[121.4627429858116,25.064094797686533],[121.46343286706171,25.06324143918046],[121.46387684022206,25.061891687195942],[121.463719938381,25.06048992348732],[121.46286889352142,25.059063483096132],[121.4617713516042,25.05807055857007]]],[[[121.46275090354979,25.134933477349566],[121.46165267482787,25.133940571727813],[121.46022065438468,25.133405815436255],[121.45867284036002,25.133410614384648],[121.45757808597276,25.13377101799114],[121.45638492774246,25.134668574050405],[121.45565989669575,25.13591345505316],[121.4555133833464,25.13731614617026],[121.45580007057686,25.13834325501034],[121.45640195905324,25.139250379795854],[121.45695373135472,25.13974925495668],[121.45832133199752,25.140409240217565],[121.45986229810481,25.14054257374894],[121.46134201248245,25.140128955365224],[121.46253518617367,25.139231359808104],[121.4632601659508,25.137986446428773],[121.46340659133308,25.136583749022133],[121.46325225561526,25.13588991300896],[121.46275090354979,25.134933477349566]]],[[[121.46224136743736,25.152093486679288],[121.46114298683982,25.151100581698273],[121.45971076704163,25.150565824523383],[121.45816273652014,25.15057062119384],[121.45706782837154,25.150931022378224],[121.4558745016511,25.15182857465444],[121.45514936695994,25.153073451780333],[121.45500283060039,25.15447613952276],[121.45528955609551,25.155503246476872],[121.45589152715267,25.15641037011332],[121.45644337575878,25.156909244968027],[121.4578111665662,25.157569230761005],[121.45935234803676,25.15770256625388],[121.46083227017179,25.157288950960787],[121.46202561237043,25.15639135915639],[121.46275069574754,25.155146449627146],[121.46289714405982,25.153743755587602],[121.46274278796253,25.153049920912274],[121.46224136743736,25.152093486679288]]],[[[121.44855196630523,25.165973786434943],[121.44745356861596,25.16498078195212],[121.44602124317979,25.16444589479518],[121.44447303455526,25.164450550780987],[121.4433779612708,25.164810852337553],[121.44218439918346,25.16570829585474],[121.44145904470331,25.166953106652475],[121.44131233759101,25.168355780605633],[121.44159898324796,25.169382913283297],[121.44220092380114,25.1702900913445],[121.44275278096471,25.170789016203823],[121.44412065627044,25.17144912612602],[121.44566199995161,25.17158260167639],[121.44714213730269,25.17116912103581],[121.44833571493896,25.170271637974185],[121.44906101811672,25.16902679472638],[121.44920763712749,25.167624114426353],[121.44905333943744,25.16693026593749],[121.44855196630523,25.165973786434943]]],[[[121.50013670521223,24.99971267522198],[121.49964169333902,24.999167100066366],[121.4987051270756,24.998538941229423],[121.49760881039887,24.99818558807701],[121.49644715071415,24.998137468870304],[121.49532018095897,24.99839872738995],[121.49432494766921,24.998946866148252],[121.49290766751636,25.000099249454408],[121.49224419698389,25.001188645508563],[121.49044566275057,25.000798781088815],[121.48929598768186,25.000958067015034],[121.48857937786993,25.001231336317858],[121.48741783493254,25.002045690586364],[121.48672845618957,25.00289915990966],[121.48628493503584,25.004248983992266],[121.48637722275564,25.005418570565364],[121.48529678427776,25.00495052885475],[121.4837574938079,25.004817432438518],[121.48182045518757,25.005178587320113],[121.48053788358179,25.005965561049297],[121.47984843533622,25.006818999078163],[121.47946052759107,25.00781806649731],[121.47940757334992,25.008876726572193],[121.47969414141524,25.009903808426852],[121.48029556008873,25.010810858544303],[121.4808468431965,25.011309660464725],[121.48221312995558,25.011969455925897],[121.48375250833709,25.012102566884444],[121.4849470275978,25.01194931083564],[121.48604062208534,25.01158871657423],[121.48697224638059,25.010954367666464],[121.4878266795334,25.009779989170106],[121.48810519324766,25.008751070258395],[121.48801288623473,25.007581485532036],[121.4894709412239,25.008134375083962],[121.49024433341833,25.008201217187594],[121.49139407437724,25.008041923076448],[121.49244355766604,25.00758534409065],[121.49327228139954,25.00695424931229],[121.4941958845438,25.005601397325275],[121.49560600861454,25.0059751209227],[121.49714421227432,25.005831876946434],[121.4981936549256,25.00537525786634],[121.49966234873722,25.00427412831681],[121.50035164450449,25.003420600462487],[121.50079500836225,25.002070736696805],[121.5007336579318,25.00101245507522],[121.50013670521223,24.99971267522198]]],[[[121.47147886371583,25.021286638351977],[121.47049368454014,25.020200552575787],[121.46984618903448,25.01980929444691],[121.46874976116797,25.019455731144074],[121.46720338086999,25.019460598528703],[121.4657767460561,25.020004293382144],[121.46491765429005,25.02071867741017],[121.4643231366699,25.021629526616962],[121.46404439680393,25.022658402547478],[121.46409749667669,25.023668992195997],[121.4631630509611,25.024909499826343],[121.46288429445117,25.025938373374835],[121.46288694993093,25.026646296668094],[121.46334092987222,25.027993254369328],[121.46432611033379,25.029079386426567],[121.46532583031491,25.029621087765534],[121.46607014493077,25.02982425720982],[121.4672320954217,25.029872609271322],[121.46829036746175,25.029634314403967],[121.4683552572268,25.030616813954232],[121.46858338180395,25.031293542410467],[121.46944704496833,25.032462393788144],[121.47038372617932,25.033090732441348],[121.47110263067245,25.03335936856036],[121.47264226635262,25.033492590420124],[121.47412065515158,25.033078857902943],[121.47531271001799,25.03218116311029],[121.47603694808724,25.030936180461392],[121.47618312174426,25.029533454256715],[121.47572899633838,25.028186538189033],[121.4752950590699,25.02759930361616],[121.47443049856254,25.026890371784617],[121.47374398450083,25.02655884507218],[121.47261473282039,25.02630493811323],[121.47077952257138,25.02654572596108],[121.47072256936191,25.025610935214488],[121.47149187010164,25.02469127214601],[121.47193562321881,25.023341492396305],[121.47187450605544,25.02228319832981],[121.47147886371583,25.021286638351977]]],[[[121.47540829940796,25.044513210109688],[121.47431078971407,25.043520375884942],[121.472879775172,25.042985720829442],[121.47133310084074,25.04299063547223],[121.47023918472901,25.043351124756274],[121.46904698567849,25.04424877962108],[121.46832260063213,25.04549372815216],[121.46817632171305,25.046896445205153],[121.46846289057949,25.04792354355499],[121.46906441779086,25.048830632986576],[121.46961582886411,25.049329472192838],[121.47098248211954,25.049989362217858],[121.47252232566412,25.050122581988905],[121.47400091329337,25.049708848655126],[121.47519312767162,25.04881115444591],[121.47591746164676,25.04756617369807],[121.47606365301252,25.046163450428107],[121.47590936847966,25.045469618542477],[121.47540829940796,25.044513210109688]]],[[[121.48723834044677,25.05358294995515],[121.48614065497866,25.05259020697174],[121.4847094851801,25.052055668859307],[121.48316269973206,25.052060708346982],[121.48206873975286,25.052421284984742],[121.48087654198716,25.05331903372129],[121.48015222576461,25.054564037449907],[121.48000607274504,25.055966762621022],[121.48029276221958,25.056993835134012],[121.48089442110432,25.05790087361449],[121.48144592051615,25.058399666987484],[121.48281273662802,25.059059444926937],[121.48435270427693,25.059192540009043],[121.48583135835338,25.058778688373433],[121.4870235714043,25.057880900268966],[121.48774783648885,25.056635864332264],[121.48789390190323,25.05523313297994],[121.48773953872613,25.054539315393342],[121.48723834044677,25.05358294995515]]],[[[121.49442832670701,25.057632791995673],[121.4933305476203,25.056640104121932],[121.4918993005491,25.056105636769303],[121.4903524659306,25.05611075189697],[121.48925849221371,25.05647138152132],[121.48806630922407,25.057369187285595],[121.48734204321018,25.058614224669498],[121.48719596819589,25.060016954998147],[121.48748272738644,25.061044012031854],[121.4880844589928,25.061951019796343],[121.4886360054563,25.062449785484777],[121.49000290419787,25.06310949562668],[121.49154292896104,25.06324251518644],[121.49302160593588,25.062828591806127],[121.4942138041836,25.061930746662274],[121.49493801902291,25.060685677077743],[121.4950840064073,25.059282940590126],[121.49492959739106,25.058589131548473],[121.49442832670701,25.057632791995673]]],[[[121.48963886013358,25.07479289459023],[121.48854096351536,25.073800175326912],[121.48710953561995,25.073265665741964],[121.48556248440393,25.07327073421684],[121.48446834452334,25.07363133022617],[121.48327596209013,25.07452909848194],[121.48255154945679,25.07577411187107],[121.48240540297498,25.0771768353792],[121.48269216492689,25.078203899301077],[121.4832939477404,25.079110923665702],[121.48384555324401,25.07960970514071],[121.48521261928204,25.080269455391864],[121.48675285473507,25.08040252117821],[121.48823175370096,25.07998864309953],[121.48942415142764,25.07909083543653],[121.49014851285729,25.077845789811963],[121.49029457163263,25.07644306012326],[121.49014016621489,25.075749247614638],[121.48963886013358,25.07479289459023]]],[[[121.48311031762277,25.079026356675474],[121.48212456667383,25.077940364809912],[121.48075754276363,25.07728058527515],[121.47921735179425,25.07714745653522],[121.47773845486803,25.07756124488981],[121.47654598484365,25.07845895990079],[121.47582148114822,25.07970394113629],[121.47567525399386,25.08110665848108],[121.47596196976399,25.082133735560692],[121.47682606710113,25.08330252979874],[121.47811554061194,25.08408119755279],[121.47963407184234,25.084351185862953],[121.48115046017257,25.084071388469347],[121.48243383156542,25.083284405618286],[121.48328879739307,25.082110056433876],[121.48358520466498,25.08072713278484],[121.48350624717635,25.08002287380693],[121.48311031762277,25.079026356675474]]],[[[121.47652931430225,25.083653180807882],[121.47543144135629,25.082660365350865],[121.4739999644035,25.082125730650798],[121.47245279887112,25.082130664127547],[121.47135854058476,25.08249116479232],[121.47016597600067,25.083388829325884],[121.46944137908365,25.0846337799565],[121.46929507423589,25.08603649123246],[121.46958174918689,25.08706358056901],[121.47018348080115,25.087970657803346],[121.47073507438283,25.088469487616287],[121.47210217154776,25.08912935744905],[121.47364250631125,25.08926255772926],[121.47512155764525,25.088848808571214],[121.4763141375865,25.087951104622746],[121.47703868332287,25.086706121718663],[121.4771849004331,25.085303404216024],[121.47703055665067,25.084609577956837],[121.47652931430225,25.083653180807882]]],[[[121.46764961905147,25.08954337485856],[121.46655176320806,25.08855049420963],[121.46512025437048,25.088015774705532],[121.46357301282151,25.088020616670548],[121.46247867531147,25.08838105269827],[121.46128598838179,25.089278646907555],[121.46056126722421,25.090523554976716],[121.46041485515201,25.09192625793917],[121.46070147084517,25.092953364487762],[121.46130316717114,25.09386047754699],[121.46185475214078,25.094359340119166],[121.463221869096,25.095019291002835],[121.4647622697088,25.095152582450755],[121.46624142292174,25.094738920691025],[121.46743412525166,25.093841287061842],[121.46815879524452,25.09259634669362],[121.46830511955866,25.091193637473285],[121.46815081771052,25.090499801903654],[121.46764961905147,25.08954337485856]]],[[[121.54089487118257,24.95585179319039],[121.53979764557624,24.954859426149692],[121.53836739364688,24.954325382843944],[121.53682184437505,24.954330960727205],[121.5357289083063,24.954691920380025],[121.53453803804038,24.955590089688307],[121.53381482169947,24.956835353284877],[121.53366937348089,24.958238138003896],[121.53395626489662,24.95926511702104],[121.53455782404635,24.960171951579227],[121.53510909252938,24.960670555980688],[121.53647509453496,24.961329862051027],[121.53801388898071,24.961462421792902],[121.53949118945647,24.96104805289206],[121.5406820746942,24.960149844356835],[121.54140523996855,24.958904548800035],[121.54155060099629,24.95750175810936],[121.54139607026819,24.95680799002904],[121.54089487118257,24.95585179319039]]],[[[121.54458505889473,24.965371711115267],[121.54408999426677,24.9648262822478],[121.54315347122133,24.964198399660447],[121.54205734032374,24.963845369386423],[121.54089599298082,24.963797591895585],[121.53976943524539,24.964059181554845],[121.53877467819287,24.964607612368546],[121.53799738585938,24.9653956572518],[121.53745901222223,24.96652381636066],[121.53643500926785,24.96609014889768],[121.53567274554747,24.965954782248918],[121.53451182908951,24.96601095416609],[121.53376956763348,24.966219118587635],[121.53248773470344,24.96700653242485],[121.53163401861103,24.96818116257023],[121.53133839769279,24.969564190026055],[121.53164589546593,24.970945064333335],[121.53224749636594,24.97185190614756],[121.53311199113278,24.972560508025023],[121.53416492901378,24.973009841907118],[121.53531562619165,24.973161208650627],[121.53646497727256,24.97300157171991],[121.53782534797787,24.97233244434521],[121.53860268411636,24.971544400341823],[121.53914106807659,24.970416237513128],[121.54016511634183,24.970849885504656],[121.5409274147813,24.970985228477065],[121.5417040325747,24.970982404887334],[121.54283064866489,24.97072079983844],[121.5441124519724,24.96993329780786],[121.54460271977575,24.969384267164894],[121.54509556249823,24.968424447987434],[121.54524089060381,24.967021655998757],[121.5450863262911,24.96632789318237],[121.54458505889473,24.965371711115267]]],[[[121.54619523355463,24.973061674650317],[121.5450978108199,24.972069352250585],[121.54366733662394,24.97153536482507],[121.54212157376928,24.97154100131854],[121.54102850295523,24.971902001331948],[121.53983750889894,24.972800213087613],[121.53911424930338,24.974045500348673],[121.5389688449651,24.975448286350016],[121.53925582294764,24.976475251389736],[121.53985750673675,24.977382060398494],[121.54040887427307,24.977880642387152],[121.54177509543374,24.97853989465096],[121.54331410890487,24.97867239560997],[121.5447915949134,24.978257971901588],[121.54598260393381,24.97735972088508],[121.5467058123976,24.97611440164798],[121.54685112946052,24.97471160968654],[121.54669654566078,24.97401784957205],[121.54619523355463,24.973061674650317]]],[[[121.54482668659782,24.981004943159437],[121.54384119997482,24.979919342482603],[121.542474952795,24.97926010974777],[121.54093593271978,24.979127600230786],[121.5394584226822,24.979541986011444],[121.53826734451594,24.980440185714173],[121.53754402582578,24.981685465087587],[121.53739859640811,24.98308824857052],[121.5377155752018,24.984305216299642],[121.53831728708153,24.985212030135948],[121.53886868407696,24.98571061682663],[121.5402349846783,24.98636988122181],[121.54177409445893,24.986502396352652],[121.54325167897588,24.98608798669736],[121.54444277369915,24.98518974747654],[121.54516604200988,24.983944435984775],[121.545311383956,24.982541646542312],[121.54482668659782,24.981004943159437]]],[[[121.53196570563932,24.981961983301993],[121.5314706279368,24.981416513858616],[121.53053404004582,24.980788554305423],[121.52943779533165,24.98043543374883],[121.52866455989346,24.980368792696087],[121.52751512926588,24.980528370538664],[121.52616957995643,24.980999046677354],[121.52517462605313,24.98154738862421],[121.52462754981579,24.9820499011072],[121.52390408334243,24.98329511634283],[121.52375849736997,24.984697888774534],[121.52421297496744,24.98604466032173],[121.52495806141692,24.986933443721494],[121.52371640239616,24.986867549352105],[121.52223873927024,24.987281766228772],[121.52104745982072,24.988179830470166],[121.52032392227859,24.989425028448323],[121.52015772063113,24.99047390340679],[121.52033274819205,24.991521585211846],[121.52083393971228,24.99247784695472],[121.52132901643776,24.993023351021215],[121.52226565263443,24.993651366730475],[121.52298443408363,24.993919755258545],[121.52506534165468,24.994161204468483],[121.52658051342704,24.993880959137897],[121.5272641338516,24.99354482215233],[121.52812267217682,24.99283008398763],[121.52884614966165,24.991584849612952],[121.52899168437047,24.99018207430985],[121.52853713889593,24.98883531920541],[121.52778158778005,24.987938007690463],[121.52886491378693,24.987781625585182],[121.5305613728094,24.987158151852572],[121.53120550244034,24.986762548872015],[121.5319829703302,24.98597453875139],[121.53247597536308,24.9850147607428],[121.53264206579424,24.9839658730967],[121.53246694615721,24.982918206247362],[121.53196570563932,24.981961983301993]]],[[[121.51245620136093,24.988392407903927],[121.51135890599998,24.987399836574166],[121.5106725174215,24.98706847671153],[121.50954355753692,24.986814844409743],[121.50800560697083,24.986958213019825],[121.50664491023186,24.987627071745298],[121.50566861079211,24.988719600265924],[121.50537404168466,24.989374645023286],[121.50521318371969,24.99031366342099],[121.50430252175383,24.990380794328498],[121.50320916963886,24.990741520153538],[121.50227778109677,24.99137596883307],[121.50158856443377,24.992229505734528],[121.5012008771715,24.993228628402292],[121.50114811332615,24.99428729533688],[121.50143482529762,24.99531433506445],[121.50180353002791,24.995937432116474],[121.5029008270869,24.99693007279595],[121.50395386857629,24.9973796173969],[121.50512476129948,24.997531214183194],[121.50627438186801,24.997371806664873],[121.50732371828148,24.996915124305524],[121.50818239720294,24.996200499307513],[121.50877646916206,24.99528947847327],[121.50906693176172,24.994016337239508],[121.51070008676932,24.993741129449905],[121.51206392519157,24.99287123188177],[121.51246258755067,24.993884389368844],[121.51315880607629,24.994733200528003],[121.51409541487492,24.995361267987715],[121.515191751175,24.99571449943069],[121.51635339257605,24.995762472530938],[121.51755467753988,24.995591714451336],[121.5186039557421,24.995134953326875],[121.51946255600066,24.994420264294455],[121.52005653562435,24.993509199671074],[121.52035233515791,24.99212619605779],[121.52004490571976,24.9907453011314],[121.51918106821105,24.9895767399855],[121.51789234095942,24.988798407367906],[121.51637491320805,24.9885287895587],[121.51441979303473,24.988838925783163],[121.51305601552531,24.989708844138146],[121.51245620136093,24.988392407903927]]],[[[121.51441648785783,25.000542363254382],[121.51331906726531,24.999549809968478],[121.51188840397852,24.999015521990458],[121.51034228958785,24.999020833997445],[121.50924887997725,24.999381604718625],[121.5080573891714,25.000279566868137],[121.50733365100943,25.00152470287242],[121.50718785913676,25.002927459015773],[121.50747464250496,25.003954484811537],[121.50807623333826,25.00486142060884],[121.50862759972951,25.005360118624964],[121.50999396373834,25.00601965810929],[121.51153329240081,25.006152482299704],[121.5130112179365,25.005738368599886],[121.51420272386554,25.004840367160178],[121.5149264109352,25.003595199078692],[121.51507211542923,25.002192436861524],[121.51491767191963,25.001498643921764],[121.51441648785783,25.000542363254382]]],[[[121.51873670628065,25.011602267194473],[121.51763915159574,25.010609749389257],[121.51620834138961,25.010075506106535],[121.5146620896088,25.01008086521819],[121.51356859593223,25.010441668519515],[121.5123770320338,25.011339665140202],[121.51165327513675,25.012584820657736],[121.51150752174853,25.013987578387557],[121.51179436832308,25.015014593356],[121.5123960459834,25.01592150897767],[121.51294747975507,25.016420189177698],[121.51431398959919,25.01707968567888],[121.51585346016356,25.01721246267991],[121.51733150205247,25.016798304770894],[121.5185230810653,25.015900268837644],[121.51924678682485,25.014655081234437],[121.5193924527793,25.013252317441218],[121.51923797005166,25.01255853062815],[121.51873670628065,25.011602267194473]]],[[[121.50315826698571,25.060922600416546],[121.50206038896205,25.05992997905614],[121.500629067108,25.059395597248123],[121.49908219323764,25.0594008039319],[121.49798821722617,25.059761497761368],[121.49679606774556,25.060659372725897],[121.49607187200147,25.0619044510863],[121.49592589332858,25.06330718792687],[121.49621273315313,25.064334226420737],[121.49681454490303,25.065241197179283],[121.49736614109365,25.06573992945301],[121.49873312194181,25.066399557657522],[121.50027319565547,25.066532485829743],[121.50175188096755,25.06611847553061],[121.50294404567187,25.065220561175217],[121.50366819020127,25.063975450625716],[121.50381408122198,25.062572707653725],[121.50365961874344,25.06187890882167],[121.50315826698571,25.060922600416546]]],[[[121.50072849252477,25.067922652617693],[121.4996305702998,25.066930014887284],[121.49819917664725,25.06639561125371],[121.49665221430834,25.06640079397594],[121.49555816906482,25.06676147062928],[121.49436593470934,25.067659326551485],[121.49364167433407,25.068904392896364],[121.49349566111542,25.07030712658076],[121.4937824981415,25.071334168866002],[121.49438432733466,25.07224114837418],[121.49493594572776,25.07273988887898],[121.49630299237006,25.073399537846928],[121.49784315161166,25.073532489795507],[121.49932192915794,25.073118502663696],[121.50051417875358,25.072220607339656],[121.50123838790397,25.07097550879057],[121.50138431343957,25.069572768964385],[121.5012298550823,25.068878968179735],[121.50072849252477,25.067922652617693]]]]},"properties":{"city":"newtaipei","minutes":5}}]}