{"type":"FeatureCollection","features":[{"type":"Feature","geometry":{"type":"Polygon","coordinates":[[[121.51499189543694,25.018541851534945],[121.51335004414443,25.020049273166386],[121.5120624526377,25.021819577126166],[121.51117861173445,25.02378474104134],[121.51089523721257,25.02484303104192],[121.50841635165871,25.02505253337699],[121.50655204182695,25.025556676075535],[121.50349649212451,25.024596726662864],[121.50117599149539,25.024396400568257],[121.50001076491367,25.024452491939623],[121.497726345508,25.024874488683096],[121.49662914752986,25.02523633110242],[121.49457749529059,25.026244318250097],[121.49278105535333,25.027597601660684],[121.49200057090297,25.02838794768599],[121.49071258488766,25.03015807083423],[121.48982834433663,25.032123111786536],[121.48938184689887,25.034207562159974],[121.48939027284976,25.036331321274638],[121.48956567540839,25.03738241010196],[121.49025044371717,25.039412488826585],[121.49075321957633,25.040371926405484],[121.49205540029857,25.042133482212336],[121.49370983002954,25.043629735885123],[121.49565292940733,25.044803176840873],[121.49712103281362,25.045386720917218],[121.49752008378623,25.046393027447433],[121.49847713954624,25.048037018377464],[121.49844902057472,25.050392060227935],[121.49891227890667,25.052473477467437],[121.49930952146794,25.053473164536957],[121.50041615298025,25.055342446264884],[121.5025570111969,25.057515962473374],[121.50145549580779,25.059814059494038],[121.50100910399769,25.06189853559174],[121.50095615017726,25.062960602626664],[121.50119328624812,25.065073352109536],[121.50148109812505,25.066103687003036],[121.50238139005491,25.068062755883687],[121.50368403510221,25.069824196105923],[121.50533898171493,25.07132030672874],[121.50728263065403,25.07249358265349],[121.50837610036797,25.07295624032978],[121.50915791672202,25.075563905651233],[121.51026490112196,25.077433102984624],[121.51175105133136,25.07906968280206],[121.51380314753887,25.080542726068906],[121.51329387537596,25.082167304579723],[121.51307411327761,25.084281606281966],[121.51331150492958,25.086394326442875],[121.51359947101064,25.087424632509208],[121.51399695019363,25.08842427194087],[121.51492494919633,25.09002353472588],[121.51434607005203,25.09244965250848],[121.51441210607753,25.094915287421152],[121.51331428088402,25.09596943189532],[121.51202591610445,25.09773973012678],[121.51114155292414,25.099704882453825],[121.51068984616329,25.101896778311577],[121.50890195596189,25.103805527935844],[121.50830546207318,25.104719478189583],[121.50746928196715,25.106560247618365],[121.50572172887472,25.108435322410493],[121.50472475773628,25.110127644244542],[121.50166541763433,25.1108666577127],[121.49961239396093,25.111874724257014],[121.49781477837186,25.113228071397046],[121.49703379397023,25.114018442633025],[121.49566555782154,25.11594300588768],[121.49349712956331,25.11723093714274],[121.49185371712679,25.11873812558652],[121.490564807299,25.120508240395253],[121.49006936041671,25.1214709660132],[121.48940030345675,25.12350548999888],[121.48919738268495,25.12527328433906],[121.48802347498422,25.126936942383143],[121.48633381396183,25.126664867059453],[121.4841369168297,25.126665978884677],[121.48299120237719,25.12469931784679],[121.48150486691081,25.123062462456073],[121.47969636542057,25.121721024417727],[121.47774513217149,25.120773450501048],[121.47637216677764,25.118878016412413],[121.47471691616857,25.117381596519557],[121.47377654551931,25.116751278575936],[121.47171550315043,25.115756713563243],[121.46948097376425,25.115147308862806],[121.4683253089559,25.114994965104362],[121.46599270621958,25.1150023147524],[121.46370648613279,25.11542380947371],[121.46155448554255,25.116243255824955],[121.45961938853068,25.117429170596267],[121.4579755513598,25.118935989529838],[121.45668614628813,25.1207058168415],[121.45580073381848,25.12267064853775],[121.45552080949521,25.12370281220151],[121.4552999909171,25.12581703226265],[121.4553612290733,25.126878727981172],[121.4558240717382,25.128960264820048],[121.4567241192335,25.13091959819203],[121.4573279154625,25.131829641948073],[121.45881404107632,25.133466740998152],[121.46062249412573,25.134808432537906],[121.46257382477008,25.13575622806668],[121.46324781862026,25.136800033826724],[121.46473408344207,25.13843707042803],[121.46654267408701,25.13977868684383],[121.46754653427473,25.140322096517327],[121.46970513166006,25.141127996858668],[121.47083907611692,25.141382724470695],[121.47199499258414,25.141535044438207],[121.47419215931124,25.141534107748747],[121.47533789569006,25.143500833092183],[121.47682440231904,25.14513774340604],[121.47863322253788,25.14647920764232],[121.47963719013559,25.14702253331068],[121.4817959824147,25.147828253849653],[121.48293001247447,25.148082887397415],[121.48525282584976,25.148283460499066],[121.48641923338509,25.148227468013687],[121.48870597803779,25.147805616878976],[121.48980428715336,25.147443821997665],[121.49185798311107,25.1464358858433],[121.49412501445131,25.14460824551574],[121.4959545373168,25.145969957449623],[121.49801628143412,25.14696417072486],[121.500251526468,25.14757313169301],[121.50140753370394,25.147725220592555],[121.50374074576318,25.14771730418711],[121.50602741644195,25.14729518666427],[121.5081796489337,25.14647509416799],[121.51011471806281,25.145288550090996],[121.51175825181699,25.14378116247478],[121.51245044783983,25.142924834503408],[121.51354243586066,25.141048071552362],[121.51421118094365,25.13901344810104],[121.51443100330486,25.136899159013254],[121.51436924834707,25.135837496947033],[121.51390538866627,25.13375616030865],[121.51300441360806,25.13179718910557],[121.51196888039141,25.130362119303154],[121.51384395418712,25.129208388828665],[121.5147062706993,25.128491423185874],[121.51617931107808,25.12684461532549],[121.5171762538776,25.125152218763454],[121.51913783852552,25.124774901265134],[121.52128958796426,25.123954623512606],[121.52322417642293,25.1227679123155],[121.52486725038541,25.12126038213197],[121.52615566803834,25.119489976932226],[121.52699165107211,25.11764910501424],[121.52804707088929,25.11663019122246],[121.52933539494875,25.11485975882159],[121.53021956951147,25.11289450492971],[121.53067096361733,25.11070255463364],[121.53245860886413,25.10879355132315],[121.5335499951517,25.10691664222173],[121.53393900714795,25.105914230888565],[121.53438498450492,25.10382967446718],[121.53431854013645,25.10136405475582],[121.53541622932981,25.100309760967484],[121.53670427964563,25.098539265228414],[121.5375882233802,25.09657396697617],[121.5380341079559,25.094489398555087],[121.53808674988527,25.093427327746152],[121.537848917667,25.091314656387933],[121.53716306403044,25.089284828555797],[121.53623478438183,25.08768570577192],[121.53681320979828,25.085259512004665],[121.53684424184036,25.083826743335365],[121.53768143486644,25.085625233676993],[121.53828559544026,25.086534947438455],[121.5397722250113,25.088171236756782],[121.54064037795021,25.08888205134529],[121.54258463489981,25.090054852145958],[121.54364201225819,25.090505541256093],[121.5458755520058,25.091113633349167],[121.54723240460665,25.092591650601996],[121.54810063147109,25.09330241986386],[121.55004502826449,25.09447511982026],[121.55220333247428,25.095279828120983],[121.55333701086963,25.095533930314243],[121.55565892257093,25.09573341581472],[121.5579789525906,25.095516543211833],[121.55911029592846,25.09525395728155],[121.5612612541869,25.094433109402242],[121.56226015015503,25.0938827546187],[121.56399240096596,25.092582206660225],[121.56725993772822,25.092993398223793],[121.5695798919057,25.092776345366598],[121.57180874812943,25.09215127882565],[121.57437158063368,25.090794203914722],[121.5764964507445,25.09077669419136],[121.57878179313363,25.090353473354774],[121.57987931353597,25.08999102139457],[121.58191785986524,25.088989263153326],[121.5841891323838,25.089329417684844],[121.5858349569848,25.091203787016973],[121.58764413466228,25.092543924204314],[121.58970568927222,25.093536872004442],[121.5919403829507,25.09414446361431],[121.59309598491066,25.094295845247213],[121.59542814672106,25.094286503177603],[121.59780000379098,25.09383440586034],[121.60004108087607,25.094444574260393],[121.6023630318308,25.094643327766182],[121.6035288582658,25.094586423029106],[121.60581416891641,25.094162786388644],[121.60796478174343,25.09334126721817],[121.60989803394138,25.09215344377964],[121.61153962345134,25.090644973288715],[121.61282646560437,25.088873835835653],[121.61370911732193,25.08690810465608],[121.6141536757293,25.08482332868072],[121.6141430784429,25.082699628169948],[121.61395987522955,25.081624926898012],[121.61568904303,25.080315669766836],[121.61646904235023,25.079524687432396],[121.61775569997744,25.077753508153638],[121.61832439255967,25.076598168308248],[121.62018895795457,25.07520542020521],[121.62096889619532,25.074414414853536],[121.62225543647541,25.07264319761959],[121.623137825927,25.070677411198538],[121.62360188939535,25.068189077275232],[121.6251785384416,25.066734166730907],[121.62586951107878,25.065877322475508],[121.62695909136583,25.063999748429808],[121.62762555764992,25.06196463387995],[121.62783118293339,25.06009871785737],[121.6286286636731,25.058669635669194],[121.62929507543377,25.056634513271625],[121.62946095615521,25.055582162618425],[121.62945010916944,25.0534584599296],[121.6292734917973,25.05240756017282],[121.6285863713722,25.050378167831948],[121.62808249044566,25.049419217829207],[121.62677831259283,25.047658892007583],[121.62599057769167,25.04687446660706],[121.62418167545312,25.045534783758704],[121.62212066594533,25.04454229842869],[121.61988673913416,25.04393514293873],[121.61756572389955,25.043736644615],[121.61533714981888,25.043941836835902],[121.61419229463331,25.04314521063486],[121.61213140273341,25.042152584101363],[121.60989756523131,25.041545276448307],[121.6087424418709,25.04139401568497],[121.60641128704796,25.04140354829762],[121.60525770001313,25.041564250003475],[121.60302993422866,25.04218980310861],[121.60169917579564,25.042801979245308],[121.5995832772179,25.04115583561768],[121.59752253196127,25.040163003346006],[121.59528879773285,25.039555473868774],[121.59259089531069,25.03937496886662],[121.59115960728433,25.037371055517827],[121.58950410309512,25.035875904461374],[121.58756027838457,25.034703702307226],[121.5848542626474,25.033776590473817],[121.58250997860007,25.03187740089191],[121.58203395194084,25.029601086398333],[121.58113269750677,25.027642506957076],[121.57982941779883,25.02588174720249],[121.57817420538302,25.02438646236211],[121.57623066848606,25.023214105016613],[121.57407348666956,25.022409718807925],[121.57178554237868,25.02200420886547],[121.57008211531203,25.021982660384307],[121.57066710958873,25.01953692444155],[121.57065729182001,25.017413188525197],[121.57048123224074,25.016362203651966],[121.56979528694845,25.014332508197498],[121.5686879949659,25.01246374432608],[121.56724320982195,25.010868882384727],[121.56802954489991,25.00943982218564],[121.56928486711779,25.009386896076066],[121.57154969865614,25.00896823069226],[121.57439530787026,25.009026846995813],[121.5761858689332,25.008718309124387],[121.57821528773721,25.00906586636077],[121.58054584373102,25.00905678706396],[121.58282966230628,25.00863352678122],[121.5849789564541,25.007812355608177],[121.58691111410046,25.006624838390508],[121.58855187526444,25.005116620530973],[121.58924277072539,25.004259941224802],[121.59033239161306,25.002382620010795],[121.59099915602583,25.000347647854554],[121.59121746019838,24.998233232928172],[121.59097893765123,24.99612063252877],[121.59029277723383,24.994091030176914],[121.58918536656834,24.99222241616612],[121.58769927511905,24.990586591382606],[121.58589161640343,24.98924640939297],[121.5838318525674,24.98825336257832],[121.58159912578171,24.987645604841003],[121.5804445378871,24.987494113236206],[121.57811438852238,24.98750318365111],[121.57632413760672,24.987811737978078],[121.57429507540215,24.987464149649238],[121.5719649240765,24.987473123768364],[121.5697004924457,24.987891788129875],[121.56802020510591,24.987776465704417],[121.56570221832062,24.98799346258151],[121.56347519985802,24.988618413710537],[121.56200899944622,24.9893051216755],[121.55914640900656,24.9887142415837],[121.55681622801022,24.988722978918496],[121.55453267844305,24.989145836048102],[121.5522883156177,24.990019041791808],[121.55138066028347,24.988034609550926],[121.55007822904709,24.9862735650354],[121.5484239106463,24.984777925648654],[121.54748419636505,24.98414805292821],[121.5454248156961,24.983154466954634],[121.54319235827462,24.98254612768428],[121.54203785897786,24.982394336357906],[121.53970779039368,24.98240280380431],[121.53742429324977,24.982825397777315],[121.53527509993637,24.98364588262465],[121.53334278682807,24.984832735227926],[121.53170160334233,24.986340355254764],[121.53041461983922,24.988110816071938],[121.52953130377377,24.990076089257556],[121.52908561726149,24.992160657465373],[121.52903292360567,24.99322274006245],[121.529359104418,24.995652993901484],[121.52799927158611,24.99786355306306],[121.52733147614184,24.99989826108834],[121.52716478667972,25.00095051960574],[121.52717384941894,25.003074275738264],[121.52783567806618,25.005654472014868],[121.52677187446443,25.006362439123585],[121.5251303285813,25.00786998833363],[121.5238430315982,25.009640392416458],[121.52325379920481,25.01084680179639],[121.52061190974742,25.012342131061157],[121.5189702092665,25.013849613576003],[121.5176827622485,25.01561996535083],[121.5168782952081,25.01738091065238],[121.51499189543694,25.018541851534945]],[[121.53627613704067,25.080894153527815],[121.53543899778234,25.079095655222126],[121.53413580321943,25.0773345047897],[121.53248043069765,25.075838723389452],[121.53129619604348,25.075076810356652],[121.53191575999206,25.072754456307127],[121.5343069011717,25.071634088207883],[121.53610350799057,25.07028030759899],[121.53696896072839,25.069384481906337],[121.53971237753467,25.070835441616317],[121.54169838040072,25.071388170465845],[121.53970504723823,25.072850412125675],[121.53823295885276,25.07449744983883],[121.53714192237838,25.076374395611033],[121.53675302523601,25.07737681733788],[121.5363071750816,25.079461386026036],[121.53627613704067,25.080894153527815]],[[121.54801844593314,25.014042634197594],[121.5462232948756,25.014986909903932],[121.54600134144366,25.01255411967062],[121.54551493198764,25.011025031103998],[121.54647547373315,25.010387261125214],[121.54715197445786,25.011435487357595],[121.54859650966934,25.013030546776562],[121.54801844593314,25.014042634197594]],[[121.55788350250018,25.0742662254574],[121.55665052611779,25.072911677740308],[121.55828865350941,25.072082984056145],[121.56008499717541,25.070728917659636],[121.56086530068049,25.069938221175693],[121.56215267149278,25.068167508987457],[121.56264734311442,25.06720454859439],[121.56331489446622,25.06516970393993],[121.56348135028873,25.06411741770383],[121.56348569854853,25.06223398354262],[121.56561516524489,25.062216846345486],[121.5679000206022,25.06179380014152],[121.57005033770255,25.0609728324476],[121.5722125199916,25.05959478452092],[121.57432611116222,25.060380334684947],[121.57545950878311,25.060634273911912],[121.57661477784647,25.0607857905819],[121.57894631185819,25.06077671890449],[121.58010011698353,25.060616218049944],[121.58232833774574,25.059991002183782],[121.58338128960582,25.059532309911837],[121.58525764414735,25.05838340240165],[121.58645576885729,25.059223881082104],[121.58851675046455,25.060216860147637],[121.58961740193443,25.06057066162026],[121.59190611734638,25.060975880847305],[121.59307213421452,25.061023395232322],[121.59539143293091,25.060805949686813],[121.59761957444435,25.06018050573527],[121.59895054039696,25.059568360988553],[121.6001261852469,25.060584988384342],[121.60181117114587,25.061616834473522],[121.60065662252428,25.063671315899395],[121.59879200326822,25.065063821918685],[121.59732080853962,25.066711431559565],[121.59672515277049,25.067625727256615],[121.59584235889564,25.069591364984003],[121.59556372685326,25.07062377861604],[121.59534594412237,25.07272702997676],[121.59498996246728,25.072710536054863],[121.59413194092167,25.071620860580506],[121.59247593206403,25.07012575861294],[121.59053153250369,25.068953611123252],[121.58947417738241,25.06850325454733],[121.58723996332884,25.067895615010105],[121.58491853706404,25.067696614487666],[121.58259908679247,25.067913898932026],[121.58146804741996,25.068176659556634],[121.58037072504071,25.068539120751712],[121.57833250320166,25.06954085311105],[121.57522938613724,25.069166597998723],[121.57290988787923,25.069383731818778],[121.57177881281584,25.069646419181208],[121.56962835756956,25.07046741342279],[121.56811899831641,25.071365816028887],[121.56484053546089,25.071543594511173],[121.56261201258596,25.072168552205436],[121.56056014452781,25.07317744836488],[121.55882812583417,25.074477954275167],[121.55788350250018,25.0742662254574]]]},"properties":{"city":"taipei","minutes":15,"minutes_label":"15分鐘"}},{"type":"Feature","geometry":{"type":"Polygon","coordinates":[[[121.51950841879307,25.02022801981495],[121.51751781599782,25.02132461348229],[121.51596224653504,25.02290048127839],[121.51497567915939,25.024819925521413],[121.514678316064,25.02620960630183],[121.51467013758933,25.027383038174996],[121.51328655817831,25.027913379782497],[121.512198039396,25.028568020240687],[121.51075009792388,25.028447613259342],[121.5092041873834,25.028591695487478],[121.50771882372733,25.029007778126505],[121.5063161383293,25.02970366987297],[121.50493090586544,25.02884776687962],[121.5027377031759,25.028141155986603],[121.500413817866,25.028044997813698],[121.49815934766762,25.028567572589786],[121.4961684166258,25.029663884221033],[121.49461246717625,25.031239532733146],[121.49362550076452,25.03315883933756],[121.49329253634693,25.035256525942764],[121.49345049726767,25.036665041003047],[121.4939070465181,25.03801841485451],[121.49464464759896,25.03926463537467],[121.49563496043514,25.04035580706194],[121.49683992962733,25.041249992233542],[121.49821324662982,25.041912823362658],[121.50057296983675,25.042424404559263],[121.50072015073391,25.04364542532543],[121.50117680662397,25.044998773940826],[121.5019145235771,25.046244955421628],[121.50271336237094,25.047144935043665],[121.50238693559544,25.048608977233318],[121.50239270583705,25.050024811172662],[121.50296643178373,25.052078865357174],[121.50370421037987,25.053325035824958],[121.5046947175562,25.05441614206267],[121.50589989044202,25.055310248899154],[121.50727341265771,25.0559729918158],[121.50933619859053,25.056454407873918],[121.50779674068453,25.057354326352602],[121.50670177946897,25.05835922422967],[121.50584306511168,25.059539388832995],[121.50525360170666,25.060849471292123],[121.50495604947743,25.06223912900149],[121.50496185282009,25.063654959782067],[121.5052707990359,25.065042553854997],[121.50587102493395,25.066348584808175],[121.50726421919207,25.068046237398647],[121.50846954554787,25.068940319359587],[121.51057691494348,25.06983929336278],[121.51232746854687,25.070119536691678],[121.51224136277469,25.07211535365579],[121.5125504137562,25.07350292937654],[121.51355337595606,25.075415473671306],[121.51454415050199,25.076506506784828],[121.51574961258014,25.077400526467073],[121.51712343468996,25.078063171544944],[121.51861281566362,25.07846897320444],[121.5200296270587,25.078596937753453],[121.51882026049604,25.079679763437994],[121.51796151885193,25.080859995280623],[121.51737208756597,25.08217012168605],[121.51707462564005,25.083559798359694],[121.51719771719247,25.085676318748487],[121.51765471781479,25.087029603723312],[121.51839285982942,25.088275689671885],[121.51955919661818,25.08951035214513],[121.5185914952947,25.09140019623488],[121.51829402688662,25.092789873768467],[121.51841715169479,25.094906390039974],[121.518938444947,25.096382136264637],[121.51690991462416,25.09772270711658],[121.51553051555514,25.099429904816617],[121.51475472081006,25.10142820023874],[121.5146663327043,25.103646980125408],[121.51376450922484,25.104224599501382],[121.51266918782727,25.105229540906993],[121.51148006408818,25.10705160036815],[121.51100935989604,25.10856529151691],[121.51000965420828,25.10933245700257],[121.5090277127239,25.110430290879734],[121.50804036103327,25.112349679312505],[121.50774138308982,25.113766307283075],[121.5062302476228,25.113637691059857],[121.50468326296233,25.113781741442768],[121.50319686066898,25.11419779041053],[121.50182815388663,25.114869852170244],[121.50010908223439,25.11629902801677],[121.49924990990064,25.117479152546757],[121.49869728444979,25.11869349952822],[121.49731449393558,25.11922308346426],[121.49602463816693,25.120014003990676],[121.49446756596136,25.121589649415494],[121.49373949316444,25.122840736389147],[121.49329349361695,25.124197096327904],[121.49314671557772,25.12560660749532],[121.49323436343148,25.12659338482164],[121.49197730023742,25.127919545688684],[121.49124916551686,25.129170620320235],[121.49080311662838,25.130526972376877],[121.49067277002504,25.132220519877528],[121.48959398460725,25.131430367999446],[121.48821970434585,25.13076747956207],[121.48595922935505,25.13025991372902],[121.48363424129646,25.130371518098592],[121.48214756416309,25.13078735918259],[121.48102361787086,25.13132443111534],[121.48101266516785,25.130016671997765],[121.48070381505109,25.1286290378347],[121.48010353843793,25.127322916524612],[121.47923491077267,25.126148498167627],[121.47750435029815,25.12473071500493],[121.47613020888218,25.124067711783713],[121.47479384300183,25.123695960441438],[121.47418342841023,25.12235319489483],[121.47279005627125,25.120655246391852],[121.47158447034873,25.119760884460142],[121.46947651388231,25.118861371130386],[121.46795022610493,25.118589979106023],[121.46639511214202,25.11859487966794],[121.46487092380077,25.118875884671578],[121.46343622531167,25.119422197191955],[121.46214614417919,25.12021282614838],[121.46105025375152,25.121217392462388],[121.46019066871517,25.12239729584711],[121.4596004266164,25.12370719748971],[121.45926666322706,25.12580479432424],[121.45961611478587,25.127900272788626],[121.46061871905299,25.12981316670935],[121.46160947734137,25.13090454594521],[121.46348428736545,25.132161279041657],[121.46552569296178,25.132833957813723],[121.46613606770163,25.134176758465326],[121.46700462958438,25.135351253329414],[121.46873522281632,25.13676915666688],[121.47010946884608,25.137432225838285],[121.47159942624708,25.13783848793307],[121.4739253727493,25.137935065194366],[121.47544977451,25.137653964654405],[121.47730597173889,25.13687579755252],[121.47731688686564,25.138183557521145],[121.47762572478933,25.139571197171087],[121.478628705977,25.141483960770934],[121.47961971824142,25.142575214166325],[121.48082558846166,25.143469503827163],[121.4829340508308,25.144368845296526],[121.48446069041499,25.14464007684247],[121.48678594747801,25.14452845568578],[121.48827277362123,25.144112566571952],[121.49026561072037,25.143016348441492],[121.49136144967386,25.142011569676217],[121.49255120360289,25.140189670356406],[121.492997266234,25.138833314560035],[121.49312758616651,25.137139765932815],[121.49472674911472,25.138211416602214],[121.49554656464865,25.140368134790112],[121.49694047616747,25.142065856730518],[121.4988158122912,25.14332213293842],[121.5002550408874,25.14385909683392],[121.5025595661399,25.144162290358803],[121.5048615437432,25.14384346957183],[121.5069626966289,25.14293009613826],[121.50816132859285,25.14202779326163],[121.50914352519543,25.1409299656977],[121.50987154344669,25.139678806855816],[121.51031741198601,25.138322401815874],[121.51046400509549,25.13691287887524],[121.51030569949737,25.135504405920575],[121.50984858889824,25.134151108678747],[121.50911024827236,25.132904990863285],[121.50811905717639,25.13181393611842],[121.50660688632385,25.13075420171089],[121.50769286055537,25.12957004677783],[121.50864318122849,25.127746369434345],[121.51069228127601,25.126850003743833],[121.51241137281728,25.125420706805944],[121.51360065515746,25.123598641776635],[121.51415906722892,25.121513763755683],[121.51644773084408,25.121604813250787],[121.51870381482827,25.12108194152686],[121.52069600272772,25.119985320867187],[121.5222527134066,25.118409405229844],[121.52298046781229,25.11715818246456],[121.523451054687,25.11564445570968],[121.52497126689514,25.114350193830223],[121.52616025707552,25.11252803004239],[121.52671706895633,25.11047007898137],[121.52669402730886,25.108952792905217],[121.52759582279334,25.10837509692682],[121.52869104756178,25.107370047212985],[121.52987991653731,25.105547853889103],[121.53032544648418,25.104191387999304],[121.53047177657635,25.102781843165914],[121.53031329362683,25.101373388107966],[121.52979184248026,25.099897684484734],[121.53124559323984,25.09903498305261],[121.53234070596369,25.098029906977562],[121.53319942465092,25.096849594925526],[121.53378875342993,25.095539409825083],[121.53412116961319,25.09344165782043],[121.53377056031259,25.09134636349919],[121.53276715195935,25.089433967144064],[121.53160068581711,25.088199409692503],[121.53256816105664,25.086309484548206],[121.53286545345993,25.0849197800702],[121.53285932352193,25.08350395961833],[121.53228494472071,25.08145004000693],[121.5310806501409,25.07963639826236],[121.52935016802027,25.07821921029375],[121.52724252212154,25.077320508345828],[121.52507008105697,25.077023068393935],[121.52627936636048,25.0759401932975],[121.52746797692389,25.074118015986002],[121.52802460563933,25.0720600525973],[121.52787890002942,25.069863253533033],[121.52999145815004,25.06955314334074],[121.53209115891234,25.068639428179896],[121.53380919677183,25.067209889295206],[121.53466769208947,25.066029567646897],[121.53516812638729,25.06494811571764],[121.53720606272624,25.064171453781203],[121.53863564192737,25.065937396082457],[121.53984117007039,25.066831220223055],[121.54121499836565,25.06749364308081],[121.54347452669548,25.06800038599942],[121.54572514673919,25.067898015964694],[121.54663455048605,25.068701525040968],[121.54793053962693,25.069483347867727],[121.5501247285319,25.07018927119534],[121.55167234683566,25.07032230504548],[121.55321872135667,25.070177773777377],[121.55470441571661,25.069761232759074],[121.55669545116751,25.068664140362582],[121.55825105703701,25.067087854763255],[121.55923726983114,25.065168139645085],[121.55956917976602,25.063070330858256],[121.55921823565244,25.06097509400787],[121.55821469269029,25.059062864402648],[121.55664144328313,25.057495930219567],[121.55828688023942,25.056038710745092],[121.55939560225602,25.05704194575479],[121.56069154588708,25.057823659136375],[121.56213002491272,25.05836004089982],[121.5636557518948,25.05863047508052],[121.56597928818087,25.058517639048215],[121.56816679343154,25.057795248579385],[121.5700298555903,25.056525525633614],[121.57101082454402,25.055427296631795],[121.57155766150936,25.05452644911016],[121.57272627482394,25.05560238426591],[121.57472708173609,25.056684294587],[121.57698653801666,25.057190529328793],[121.57931003050693,25.05707748539409],[121.58149742800015,25.056354900269177],[121.583360327736,25.055085012689624],[121.58473828913746,25.053377199244384],[121.58534955560638,25.05198276257877],[121.58570833557047,25.05298290766367],[121.58644694790912,25.054228652524973],[121.58743818366695,25.055319194092192],[121.58864395193338,25.05621261888808],[121.59075166303472,25.057110450179515],[121.59227743093156,25.05738058949327],[121.59383173974982,25.05737438262221],[121.5953548479553,25.057092068323],[121.59745383379635,25.056177439652846],[121.59865095468119,25.055274421241098],[121.59990068391252,25.053763001433794],[121.60031856564926,25.05497362220924],[121.60105733644556,25.056219291135],[121.60262757008915,25.057783366644042],[121.60392378763643,25.05856469755089],[121.60536245439829,25.05910065689816],[121.6068882757066,25.059370644966346],[121.6080480038823,25.059383562574432],[121.6081480975748,25.061148584634267],[121.60668214899059,25.06201777749271],[121.60558796912005,25.063023390454106],[121.60473018255747,25.064204110132053],[121.60398006982405,25.066113846514273],[121.60280508481564,25.06670288570789],[121.60160788594942,25.067605937727734],[121.60062709961144,25.068704363872566],[121.59990041918029,25.069955956728972],[121.59934500622376,25.072014168807108],[121.59935189738054,25.073429975143714],[121.59992734935865,25.07548361822355],[121.6006786311402,25.07674435448267],[121.59853455608602,25.077459040052293],[121.59721247443373,25.076825342711366],[121.59572287100619,25.076420333888336],[121.59417513821339,25.076287761643933],[121.59256118302777,25.076448419630474],[121.59154438132076,25.074491401453653],[121.59055295178564,25.073400893579336],[121.58934699900897,25.072507489664858],[121.58797286477335,25.071845518232603],[121.5864833503042,25.07144041475711],[121.58415860953325,25.07134558241667],[121.58263529760828,25.071627784993872],[121.58120169165949,25.072175222155657],[121.5799128772664,25.072966859626856],[121.57910673803931,25.073680006955335],[121.57679392666418,25.072910504617543],[121.5744691622976,25.07281552091195],[121.57294580791225,25.073097624720486],[121.57151213990147,25.073644969266425],[121.57022324622575,25.07443652383139],[121.56935550205031,25.07521198332774],[121.56717672426805,25.074937725680208],[121.56487621415968,25.075257492557295],[121.56344248367913,25.075804760072657],[121.56215351432553,25.07659624563846],[121.56105883677782,25.077601537263167],[121.56010947277075,25.078959219722837],[121.55788080159485,25.07798006859236],[121.55546125496922,25.077683346116533],[121.55472572647362,25.076443010519473],[121.55373460175535,25.07535225153875],[121.55185976846347,25.07409665061205],[121.5496655000521,25.073390754654426],[121.54734073868028,25.073295345872367],[121.545817310442,25.07357717242524],[121.5443835108654,25.074124257081387],[121.54309443295696,25.074915579102573],[121.54199961155872,25.075920732779093],[121.5411411203154,25.07710109524221],[121.54055195476711,25.078411310015824],[121.54025476371022,25.079801029402443],[121.5402609776768,25.081216848841486],[121.54057036819754,25.08260435897622],[121.54117105500904,25.083910236606194],[121.54203996116792,25.08508429416648],[121.54314369880082,25.086081408928102],[121.544439851617,25.086863257702362],[121.54587860498334,25.087399790284458],[121.54829832298772,25.08769666524537],[121.54950003049849,25.08950459760143],[121.55060386783286,25.09050165458373],[121.5526050601954,25.091583851575386],[121.5540947155413,25.09198929168289],[121.5564198333967,25.09208458829164],[121.55794346333644,25.091802650089562],[121.55937740427336,25.091255433221296],[121.56124105850124,25.08998581587306],[121.56271076048317,25.088100988083372],[121.56420575899638,25.08884407686892],[121.56569541677648,25.089249400559382],[121.56724328860089,25.08938226725023],[121.56878988043057,25.08923757026164],[121.57097791032886,25.088515132027496],[121.57226694451566,25.087723569882254],[121.57313475574871,25.086948092658425],[121.57453625121089,25.087190493930823],[121.57609094126165,25.087184466053962],[121.57834612444292,25.086660699739657],[121.57971408785477,25.085987941748698],[121.58114342037454,25.084850136387942],[121.58345648394159,25.085619566227823],[121.5850043252114,25.085752248169268],[121.58661841384165,25.08559166980515],[121.58723221498327,25.08694238177281],[121.58862675434071,25.088639242632574],[121.59050217746024,25.08989436599023],[121.59194115786092,25.090430447498463],[121.5934673426719,25.090700565762006],[121.59502207180309,25.09069433872863],[121.59654558754949,25.090412005930315],[121.59798541609216,25.089861065308675],[121.59930764281232,25.09049475220286],[121.60079742863019,25.09089972090353],[121.60312254612093,25.090994285303527],[121.6046460451141,25.09071186960843],[121.60674552657893,25.08979710427665],[121.60794289898189,25.088894010161628],[121.60932088225134,25.087185975567166],[121.61009504546128,25.085187210580038],[121.61019874504227,25.083069856528965],[121.609623084287,25.08101625923819],[121.60887168480244,25.0797555709319],[121.61100965395018,25.079044091116085],[121.61287257907202,25.07777383635472],[121.61425037190625,25.07606575708835],[121.61500038132263,25.074155972248978],[121.61679830967589,25.073142037381448],[121.61835318756606,25.071565136018737],[121.6190796875147,25.070313456472274],[121.61952410924354,25.068956736402246],[121.61966938263257,25.067547116168896],[121.61954226767325,25.06633121966942],[121.62158233396754,25.064983518886596],[121.62295986512412,25.063275360910765],[121.623733663899,25.06127652549472],[121.62382130044283,25.05906502188376],[121.62462960241996,25.057945289439164],[121.6252177730896,25.05663475559705],[121.62554853654585,25.054536818220775],[121.62538904224176,25.05312847423753],[121.62493099886154,25.051775533847845],[121.62372565630322,25.049962655923295],[121.622621609592,25.048966141440008],[121.62132537959423,25.04818497305041],[121.61913120061409,25.04748009998403],[121.61758381243331,25.04734776484421],[121.61603781412383,25.047492960182865],[121.61415528728276,25.04808330891627],[121.6126319770128,25.046576469245807],[121.6113358337897,25.045795211747684],[121.60914175139267,25.045090189006235],[121.60759440161273,25.044957748995532],[121.60529456822027,25.045278131174612],[121.60386137176648,25.04582578151138],[121.60199882678967,25.047095921322388],[121.60074918941791,25.0486073569171],[121.60033132649694,25.047396737477772],[121.59959261783575,25.046151062349846],[121.59860135186683,25.045060601178236],[121.59739562410006,25.04416725520071],[121.59602176767034,25.04350535071963],[121.5937624916399,25.04299940146404],[121.59143928243778,25.043112666622243],[121.58988740040606,25.04355860571343],[121.58931124061193,25.0414872794841],[121.58857267880431,25.040241545876256],[121.58758155733292,25.03915100765313],[121.58637596615958,25.038257569015556],[121.58500223317608,25.037595559827103],[121.58261708039153,25.037084294215624],[121.58197658718706,25.03625434714518],[121.58087299618231,25.035257512055807],[121.57957716859744,25.034475970432748],[121.57847084088233,25.03404650557068],[121.57855571282452,25.032051588279664],[121.57798083376026,25.029997840297415],[121.57677639292602,25.028184559526483],[121.57504613104511,25.026767890793877],[121.57293905284867,25.025869821669758],[121.57063659632814,25.025567682029287],[121.56833701488745,25.02588748823886],[121.5668667589482,25.02645524181949],[121.5650040873772,25.025890578370763],[121.56345701630475,25.02575767321564],[121.56191121205083,25.025902302075163],[121.56050585535108,25.026292557093985],[121.56076078785216,25.02551592886372],[121.56189364309498,25.025181136670874],[121.56326102435771,25.02450853513264],[121.56497808902874,25.023078644021815],[121.56583598372586,25.021898145663318],[121.56661047017062,25.019899584540397],[121.56675630417087,25.018489996834013],[121.56659753547612,25.017081569826377],[121.56614027551961,25.01572842746232],[121.56540210494524,25.014482567499513],[121.56441139671527,25.013391863681942],[121.5632062249198,25.01249822658113],[121.56104353395365,25.011587437315335],[121.56263741531407,25.010465878988303],[121.56401518258573,25.008758251238483],[121.56478962077769,25.006759697014918],[121.56492872165119,25.005234857058078],[121.56655639074356,25.00569946975796],[121.56810321266906,25.005832347381734],[121.56964875751841,25.00568765830732],[121.57121083557804,25.00523732015247],[121.5724365193624,25.005440555541465],[121.57399017946348,25.0054345679135],[121.57622078261089,25.00491848812556],[121.57858687787673,25.005470579841916],[121.58090939547823,25.005357527635795],[121.5823942144295,25.00494072161145],[121.58376125816504,25.004267935722083],[121.5849579864888,25.003365028711272],[121.58633536360061,25.001657199520416],[121.58692368961134,25.000346804775912],[121.58722018037167,24.998956989903032],[121.58721345152354,24.997541166261268],[121.58690377193699,24.996153742931558],[121.58630305181183,24.99484803584098],[121.58543438354694,24.993674219162507],[121.58433115323813,24.992677397670242],[121.582331314572,24.99159559021182],[121.58007304462295,24.991089411090076],[121.57851956655382,24.991095459020087],[121.57628922270152,24.99161156923742],[121.57469314563697,24.991160464157435],[121.572369923624,24.9910654190928],[121.57003924616633,24.991622713111276],[121.56803680018989,24.99138764556576],[121.56573784566983,24.99170740193303],[121.56430508215743,24.992254666817377],[121.56245693384211,24.993512636705848],[121.56029919302125,24.992579982032076],[121.55799738561934,24.992277633936407],[121.55569838536141,24.992597235885633],[121.55360014859797,24.99351126903839],[121.55240327968836,24.99441392731877],[121.55142261613128,24.995512036947353],[121.55043681491685,24.99743171063637],[121.5501049027187,24.99952951709942],[121.55039398528471,25.00140480430243],[121.54967551631637,25.002643360135384],[121.54923054489299,25.003999892801755],[121.54912583475212,25.006117244116766],[121.54970011650428,25.008171120533554],[121.55090396273678,25.0099846358473],[121.55263371413798,25.01140159766505],[121.55479634112618,25.012312509826856],[121.5537765562744,25.012955861192214],[121.5526823632822,25.013961091093787],[121.55182439478644,25.015141516027278],[121.55112967452014,25.016843960562785],[121.54999686466331,25.017178671306084],[121.54862948896371,25.017851151347315],[121.5467796528891,25.019445209450545],[121.54496516543865,25.018900757608815],[121.54341819941666,25.018767641912774],[121.54187245477283,25.018912061439146],[121.54046397017403,25.01930316365648],[121.5413551190412,25.018089316044495],[121.54194400072143,25.016779092473946],[121.5422410351342,25.015389360839965],[121.54223481702925,25.013973529320715],[121.54192559565845,25.01258600731726],[121.54132526362991,25.011280114563345],[121.54045689845071,25.01010603237662],[121.53943212543084,25.009172988812686],[121.54133087456212,25.008873030055593],[121.54342946425032,25.007959165864523],[121.54462652941787,25.007056578074472],[121.54600451211859,25.00534911278096],[121.54659328608808,25.004038870426303],[121.54692526862225,25.00194107184211],[121.54676675085966,25.00053261628059],[121.54604841810873,24.998681019114038],[121.5475269282305,24.997168438670332],[121.54825373251649,24.99591708791449],[121.54869868743782,24.994560557016737],[121.54880339917999,24.992443202770765],[121.54849416313958,24.991055690762522],[121.54749137567356,24.989143358269718],[121.54650103093708,24.988052525243056],[121.54462761384265,24.986796794578684],[121.54243494697045,24.986090756592926],[121.5408883946892,24.985957607025078],[121.53858946200121,24.98627694366025],[121.53715663537145,24.986823948511894],[121.53586841044552,24.987615202622816],[121.5347742893003,24.988620302875002],[121.53358658626368,24.99044254414546],[121.53314147845909,24.991799033128864],[121.53299528542708,24.993208598883996],[121.53315363541961,24.994617073285337],[121.53387175155832,24.996468736486342],[121.53285391485952,24.99741023502985],[121.53199586630952,24.998590549442685],[121.53140696115348,24.999900737124104],[121.53110983814688,25.001290451408643],[121.53123306057566,25.003406980919618],[121.53168989182507,25.0047602401005],[121.53242766556168,25.006006275773697],[121.53391814446609,25.00750699614463],[121.53277313170247,25.007631943094996],[121.53128810290085,25.00804825698955],[121.52992072195435,25.00872056582567],[121.52872353105091,25.00962303709842],[121.52734525970736,25.01133034605466],[121.52675624678074,25.012640514896255],[121.52652196083777,25.01363309412364],[121.52442641762802,25.014333652841138],[121.5225635028688,25.0156028083796],[121.52118508009052,25.017310061344567],[121.52059597402493,25.018620206260255],[121.52030475542676,25.01997161560181],[121.51950841879307,25.02022801981495]],[[121.53433709277398,25.025249927164186],[121.53552510912225,25.023427683012063],[121.5360185004804,25.021766808993068],[121.53733558500326,25.021396970205046],[121.53644437281929,25.02261079469391],[121.5358554057417,25.023920996897182],[121.53555828057344,25.025310715729436],[121.5355412278238,25.026328443793272],[121.5337328147075,25.02646197602561],[121.532275511573,25.026869077986674],[121.53324263160604,25.02625501682992],[121.53433709277398,25.025249927164186]],[[121.57057245522864,25.046913843340867],[121.57037015538673,25.046697884681],[121.57075889594863,25.046374186882016],[121.57084039954539,25.04644091332277],[121.57057245522864,25.046913843340867]]]},"properties":{"city":"taipei","minutes":10,"minutes_label":"10分鐘"}},{"type":"Feature","geometry":{"type":"MultiPolygon","coordinates":[[[[121.52585693595093,25.0248721095392],[121.52475920496897,25.02387964890249],[121.52332821035321,25.023345478075196],[121.52178179411035,25.023350913898522],[121.52068820545803,25.023711770478066],[121.51949656822377,25.024609823786836],[121.51877280858608,25.025855011845486],[121.51862712348294,25.02725777301675],[121.51891406200818,25.0282847709792],[121.5195158580098,25.02919165429667],[121.52006738037252,25.029690305786186],[121.52143407531578,25.0303497326899],[121.5229737179321,25.03048243292462],[121.5244518926178,25.030068202771556],[121.52564354494764,25.02917011012218],[121.52636725338664,25.02792488997138],[121.52651285098834,25.026522122755576],[121.52635831031438,25.025828345494986],[121.52585693595093,25.0248721095392]]],[[[121.52033722288051,25.032252228971693],[121.51984198978133,25.031706726940754],[121.51890507312476,25.031078703631543],[121.51780841071391,25.03072550645068],[121.51703486493702,25.030658810391586],[121.5158849506888,25.030818305102276],[121.51483536131356,25.031275049882357],[121.51397648154725,25.031989713207757],[121.51336741180376,25.032939060651078],[121.51228300095644,25.032328472646554],[121.51115362237007,25.03207486072956],[121.5096151112169,25.032218254016502],[121.50856548596992,25.032674954988334],[121.50770655959715,25.03338958267419],[121.50727729401322,25.03397966902498],[121.50688952832783,25.034978802270906],[121.50681626128343,25.035683571030628],[121.50699124738706,25.03673126297793],[121.5072912960043,25.037384278752903],[121.50846932813019,25.038599088009217],[121.50695934670613,25.038878877977073],[121.50596384350577,25.039427095955947],[121.50498713692745,25.040519618952764],[121.50459933301404,25.041518745959824],[121.5046050988983,25.042927763136717],[121.5050010798524,25.04392422689213],[121.50598675195026,25.045010072932403],[121.50698678019616,25.045551488083834],[121.5085048927578,25.04582118883731],[121.50927795679135,25.045749151818377],[121.51037177459723,25.045388376622363],[121.51101627089949,25.0449928582545],[121.51179422928135,25.044204951849956],[121.51239994435763,25.04277985404077],[121.51293245572434,25.043847682515374],[121.51384598067804,25.044716696647185],[121.51347592598651,25.04624375406735],[121.51375642821927,25.047556713028296],[121.51307246703767,25.04672685164526],[121.51213546844278,25.046098788186985],[121.51103869006144,25.045745543574174],[121.51026505289848,25.04567881384784],[121.50911498920813,25.045838258210406],[121.50839816628024,25.046111624780103],[121.50746639252401,25.04674610740384],[121.50697565672765,25.04729501759337],[121.5063890996793,25.048598797165532],[121.50639488787684,25.050007812609664],[121.50699215938486,25.05130755372998],[121.508089998318,25.052300140361215],[121.50914353443262,25.052749637137087],[121.51029494999325,25.052901184388382],[121.51144507770763,25.05274173002271],[121.51280645886796,25.05207282223365],[121.51358444944421,25.05128490667352],[121.51407784973122,25.05032519153169],[121.51424417395849,25.049276329657],[121.51396366249847,25.047963372281906],[121.5146476364068,25.04879322900206],[121.51558466824066,25.04942127585708],[121.51668149190975,25.04977448600231],[121.5180190121688,25.049798116468097],[121.51689667875283,25.050989909496437],[121.51645332636139,25.05233981243642],[121.51651484541632,25.0533980777513],[121.516743277404,25.05407472546434],[121.51769224280979,25.05531266575525],[121.517041537401,25.056280858986653],[121.51676316622704,25.057309823469815],[121.51692066579244,25.058711522522394],[121.51745862514468,25.059712268301823],[121.5168331690035,25.06009729918516],[121.51608931096652,25.060842933527912],[121.5150400678489,25.0599097925835],[121.51398644930822,25.059460339381044],[121.51283496831122,25.059308821926916],[121.51168478146843,25.05946828785876],[121.51063493406154,25.05992500533366],[121.51003602383336,25.060376166497235],[121.50934648505294,25.061229736696532],[121.50905176977557,25.061884784798636],[121.50890593916006,25.063287532097455],[121.50936056158292,25.064634332840548],[121.51034644066702,25.065720143719368],[121.51171348855081,25.06637965132866],[121.51286503459617,25.066531176308523],[121.51401528550737,25.066371700361785],[121.51506517440772,25.065914958706998],[121.51612069267968,25.064957136986134],[121.51716998753399,25.065890269091387],[121.51860145409704,25.066424488653933],[121.52014841144965,25.06641907724196],[121.52157533007453,25.065874859070323],[121.52266496125752,25.06487469279594],[121.52325141902024,25.0635708533033],[121.5232454344665,25.062161844173744],[121.52261142487639,25.06081768998956],[121.5235241292919,25.060193629622496],[121.52401484058052,25.0596446660629],[121.52460126013858,25.05834082096002],[121.52467443630297,25.057636046984793],[121.52449926721361,25.056588381690617],[121.52399777738344,25.05563214520426],[121.52341774206108,25.055017279970556],[121.52390341617364,25.054370005935887],[121.52429110108037,25.053370832112815],[121.52434368174228,25.052312168115822],[121.52405663838867,25.051285185582923],[121.52345469835879,25.05037832562723],[121.52225525333928,25.049488666609392],[121.52115841705621,25.04913549782337],[121.51982090377923,25.049111895281786],[121.52051394115057,25.048510204065447],[121.52103442154365,25.047742600812636],[121.52220394178123,25.04826973259217],[121.52374380919122,25.04840242089005],[121.52487116931908,25.048140942321297],[121.52615388424918,25.047353588049152],[121.52684322933759,25.046499941356203],[121.52728644759071,25.045150008533756],[121.52722484164784,25.04409174794192],[121.52662739483456,25.042792089781063],[121.5261320910882,25.04224661062407],[121.52519506206008,25.041618629680272],[121.52409828823484,25.041265481227764],[121.52332467347769,25.04119881912884],[121.52217467030411,25.041358363741235],[121.52145790340036,25.04163179260665],[121.5205262318394,25.042266355904687],[121.52002796178017,25.042826977368918],[121.52018393039704,25.041816174987186],[121.52010479319713,25.041111934679424],[121.51950743592118,25.039812245918558],[121.51840961981435,25.038819741692897],[121.51697847693879,25.038285513149923],[121.51543187186566,25.038290885910133],[121.51400524194445,25.038835042393497],[121.51291576537604,25.03983514606957],[121.51231007011724,25.04126024577504],[121.51177757569839,25.04019241488102],[121.51080073783548,25.039280911988893],[121.51194495565325,25.039121734221666],[121.51299462233762,25.038665009102402],[121.51385355364148,25.037950351259568],[121.51446264364466,25.037001001845336],[121.51554710646558,25.037611573015667],[121.51706513799188,25.037881187845194],[121.5182151162057,25.03772168312118],[121.5195762951683,25.03705271518839],[121.52035414888022,25.03626476480377],[121.52094050105258,25.03496093123907],[121.52093455067237,25.033551916163272],[121.52033722288051,25.032252228971693]]],[[[121.50450751377083,25.033212574894858],[121.50340987600768,25.03221995613849],[121.50197887247178,25.031685580433],[121.50043234653576,25.03169079579709],[121.49933861900475,25.032051497043682],[121.49814674373414,25.032949381893282],[121.49742271932382,25.03419446874657],[121.49727678300933,25.03559721138534],[121.4975635652818,25.03662425190659],[121.49816524780246,25.037531222494284],[121.49871672328369,25.038029953434208],[121.50008340106466,25.038689576299525],[121.50162312919541,25.03882249631079],[121.50310147904868,25.038408476274377],[121.5042933695131,25.037510552082484],[121.50501734277854,25.036265433084253],[121.5051631915695,25.034862684327976],[121.50500875918014,25.03416888389686],[121.50450751377083,25.033212574894858]]],[[[121.52341814921934,25.069362155682125],[121.5223200342846,25.068369689054744],[121.52088852951658,25.067835506108963],[121.51934155455675,25.067840925517373],[121.51824756622513,25.068201768453765],[121.51705548699236,25.06909980402681],[121.51633144990454,25.070344977352164],[121.51618569416301,25.071747729051072],[121.51647272318594,25.07277472427],[121.51707472500735,25.07368160887213],[121.51762644027141,25.07418026341239],[121.51899362064249,25.07483970111275],[121.52053381794174,25.07497241692541],[121.52201253207527,25.074558204754922],[121.52320462645262,25.073660129763464],[121.5239286122305,25.07241492427454],[121.52407428026424,25.0710121665079],[121.52391969256942,25.07031839153175],[121.52341814921934,25.069362155682125]]],[[[121.52825840715583,25.08222204764742],[121.52716013716854,25.081229621041768],[121.52572846169838,25.080695488462926],[121.52418132636205,25.080700960914516],[121.52308723937136,25.08106184051403],[121.52189507349436,25.08195991484298],[121.52117101269789,25.08320511005695],[121.52102529980398,25.084607863447037],[121.52131240108633,25.085634846403963],[121.52191450291578,25.08654170822545],[121.52246629609226,25.087040342669752],[121.52383364571432,25.08769973192334],[121.52537400845206,25.087832394588183],[121.52685285901114,25.087418132662627],[121.52804504002326,25.08652001888933],[121.5287690494578,25.08527479150161],[121.5289146745798,25.083872032055318],[121.52876004213317,25.08317826402543],[121.52825840715583,25.08222204764742]]],[[[121.52582893851921,25.10079209783033],[121.52473051905565,25.09979965809048],[121.52329863599462,25.099265506732067],[121.52175126654443,25.09927095761136],[121.52065700799253,25.099631821171332],[121.51946464667475,25.100529876916738],[121.51874045539175,25.101775059317347],[121.51859469683995,25.103177807622007],[121.5188818242682,25.104204792352878],[121.51948400192795,25.105111660606052],[121.52003587019944,25.105610301666342],[121.52140341561598,25.106269708561005],[121.52294400919472,25.106402392413486],[121.52442309047952,25.10598815199338],[121.52561546695895,25.105090056772],[121.52633960683853,25.103844842165145],[121.52648527753328,25.102442087789957],[121.52633063333532,25.101748319114016],[121.52582893851921,25.10079209783033]]],[[[121.52187612535813,25.107488352452627],[121.52067612688181,25.10659869629256],[121.51957878276508,25.106245526666136],[121.51880476093521,25.10617884813593],[121.51765414579073,25.10633836619903],[121.51693699284658,25.106611777089313],[121.51574453707848,25.107509803601474],[121.51514999189415,25.108420846374347],[121.51492713674517,25.109099057785908],[121.51487446020948,25.110157712068606],[121.51503086266597,25.1108560467395],[121.51410821929218,25.111089001275207],[121.51311217092817,25.11163727061379],[121.51233380309765,25.112425183416207],[121.51184014935811,25.113384888925616],[121.51167372838567,25.11443374078135],[121.51184888042631,25.11548141351287],[121.51235052956548,25.11643768098901],[121.51284607809964,25.11698319690469],[121.51413613101808,25.11776153901783],[121.51565515177222,25.11803114965973],[121.51717186517172,25.117750980086313],[121.51785619304526,25.117414880475547],[121.51871563640218,25.116700193719236],[121.51914512742422,25.116110077118517],[121.51953303600435,25.115110920246703],[121.51958567368429,25.114052265620554],[121.51942924093738,25.113353936285293],[121.52035189059451,25.11312094884614],[121.5213479176223,25.11257263130633],[121.52212622767198,25.11178467210827],[121.52261979425163,25.110824933534133],[121.52276852456986,25.110130092247637],[121.52270691397143,25.109071838902864],[121.52247834142132,25.108395207532972],[121.52187612535813,25.107488352452627]]],[[[121.50954969001067,25.11884245191175],[121.50845123556364,25.11784989446221],[121.50701920846757,25.117315589415867],[121.50547160785622,25.11732087401316],[121.5043771395596,25.1176816198551],[121.50318448424088,25.118579547145675],[121.50258979300203,25.119490540496205],[121.5022935147396,25.12087349308439],[121.50259695522962,25.122243978899313],[121.5010652714437,25.12196884582967],[121.49954846632524,25.12224885183419],[121.49826480502142,25.123035983179705],[121.49740970636186,25.124210414390355],[121.49713102726308,25.125239337618584],[121.49719242853867,25.12629760261462],[121.49758863078428,25.12729407177738],[121.49848141473798,25.12830336485601],[121.49670716149218,25.12873152669067],[121.49551434318518,25.129629393446134],[121.49491954251921,25.13054035636513],[121.49469653729616,25.131218537701887],[121.49470221309787,25.1326275399809],[121.49529977945167,25.133927309469588],[121.49608473614764,25.134709903950693],[121.49745248405709,25.13536952617762],[121.4988918299952,25.13550733923704],[121.49856299315896,25.136953401262165],[121.49887057877798,25.138334311639063],[121.49973529642385,25.139502954268355],[121.50102550764763,25.14028140575975],[121.50254478164241,25.140551146063498],[121.50406180464724,25.140271106683535],[121.50534560595656,25.139483924730296],[121.50620073149015,25.138309449666085],[121.50649700398637,25.13692649253759],[121.50641787339936,25.136222253647773],[121.50602156979372,25.135225810843874],[121.50532458691211,25.134376993943874],[121.50438695071828,25.133748898803375],[121.50328940714505,25.13339561296183],[121.50222805920474,25.13334267037137],[121.50253919088706,25.132250619827694],[121.50247773965229,25.131192358650484],[121.5020814848196,25.130195903886513],[121.5011886578019,25.129186633224958],[121.502962900808,25.128758418099196],[121.50360785326885,25.12836292912873],[121.50438637696107,25.127575061374714],[121.5047503740699,25.126949493201277],[121.50502899269225,25.125920556811206],[121.50502608236522,25.1252126474032],[121.50474316133733,25.124196057359395],[121.5058860140528,25.124455090600826],[121.50704843940649,25.124399119401076],[121.50814295895643,25.124038353348695],[121.50933562952204,25.123140386559996],[121.50993028738813,25.122229367099074],[121.51020885248316,25.121200421167035],[121.5101473425567,25.12014216254535],[121.50954969001067,25.11884245191175]]],[[[121.47049047736597,25.12376330856951],[121.46939228851635,25.122770458272623],[121.46796036674021,25.12223577457601],[121.46641269515939,25.12224065234461],[121.46531806345666,25.12260111192043],[121.4641250699615,25.123498729292347],[121.46340018201509,25.12474364798166],[121.46325376834496,25.126146347414984],[121.46354049238384,25.127173442274565],[121.46414238134051,25.128080536948314],[121.46469413362614,25.128579384302462],[121.4660616492099,25.129239300295243],[121.46760248194926,25.129372555415095],[121.4690820349641,25.128958861420223],[121.47027504387735,25.128061204565586],[121.47099988055659,25.126816253531093],[121.47114620630589,25.125413547837493],[121.47099184213836,25.124719719270868],[121.47049047736597,25.12376330856951]]],[[[121.47641050956415,25.12873317795843],[121.4753122284987,25.127740373536806],[121.47388022364719,25.12720574860865],[121.47233249077135,25.127210689093623],[121.47123783316967,25.127571192537662],[121.47004483612541,25.1284688570307],[121.46931998022426,25.129713803399227],[121.46917362932268,25.131116506855143],[121.46946041499369,25.132143588694927],[121.47006237225303,25.133050657737467],[121.4706141708828,25.13354948204747],[121.4719817731367,25.134209341707674],[121.47352267367698,25.134342534184164],[121.47500226529544,25.13392878077586],[121.47619527773684,25.133031076787553],[121.47692008233618,25.131786098077534],[121.47706634528888,25.130383388379094],[121.4769119410471,25.129689567023174],[121.47641050956415,25.12873317795843]]],[[[121.48850048374553,25.135432911590463],[121.48740204565892,25.134440200014712],[121.48596991162447,25.133905694336505],[121.48442209705782,25.133910762325158],[121.48332741716476,25.134271355104904],[121.48213444600164,25.135169115772868],[121.48140967536862,25.136414118935846],[121.48126345615422,25.137816831156545],[121.48155035918286,25.138843886955392],[121.48215243861598,25.13975090426699],[121.48270431616302,25.140249681935394],[121.48407205668684,25.140909427345218],[121.48561305232158,25.141042492523415],[121.48709268137283,25.140628618157038],[121.48828566788728,25.139730817974364],[121.48901038715704,25.138485782482608],[121.48915651838148,25.137083064056835],[121.48900203694832,25.136389257069666],[121.48850048374553,25.135432911590463]]],[[[121.5439728571403,24.990877916424505],[121.54277385418813,24.989988408710445],[121.54129263923419,24.989584781083032],[121.53975469757876,24.989728477735955],[121.5387055460179,24.990185386302606],[121.53761669456128,24.99118566715286],[121.53703071848301,24.992489567791495],[121.53703684126539,24.99389858697576],[121.537432917323,24.99489496919341],[121.53841847058793,24.995980609073836],[121.53978488351642,24.996639874832873],[121.54132412103314,24.99677239229416],[121.5420853692825,24.99663151044791],[121.54313456210764,24.996174577731466],[121.54422341122174,24.995174257179105],[121.54480932299121,24.99387032974489],[121.544803111605,24.99246131236806],[121.5445746473849,24.9917847028485],[121.5439728571403,24.990877916424505]]],[[[121.54205310757239,24.99966795427234],[121.540854031549,24.998778433337574],[121.53937271653335,24.998374788737525],[121.5378346630526,24.99851846724678],[121.53678543014415,24.998975363103558],[121.53569648683542,24.99997563027697],[121.5351104505176,25.001279522851252],[121.53511655384919,25.002688540814795],[121.53551264412536,25.003684926761718],[121.53649825244698,25.004770577198993],[121.53786475365419,25.00542985836679],[121.5394040992284,25.00556239373924],[121.54016540383067,25.00542152093775],[121.5412146780281,25.004964600924826],[121.54230361900207,25.003964294033292],[121.54288959098693,25.002660374647657],[121.54288339900964,25.00125135848525],[121.5426549280091,25.00057474691032],[121.54205310757239,24.99966795427234]]],[[[121.53763641781684,25.01269185433512],[121.5365387041202,25.01169947882752],[121.53510780301862,25.011165419016145],[121.53356154228348,25.0111709748505],[121.53246809697049,25.011531916328387],[121.53127666312393,25.012430062190752],[121.53055309244533,25.01367530652007],[121.53040755310732,25.01507807910359],[121.53069455890429,25.016105054865275],[121.53129637938427,25.01701189152803],[121.53184789308797,25.01751050023564],[121.53321451267752,25.01816982108428],[121.5347540133347,25.01830240180807],[121.53623200107816,25.017888056891973],[121.53742344995955,25.016989871703437],[121.53814696943022,25.01574459532248],[121.53829242131442,25.01434181673726],[121.5381378312894,25.01364805143406],[121.53763641781684,25.01269185433512]]],[[[121.53147667848741,25.01867198781141],[121.5303789592649,25.017679567683754],[121.52894801380435,25.017145449727817],[121.52740167663003,25.01715094274026],[121.52630815979478,25.01751183979731],[121.52511662330875,25.018409937262653],[121.52439295604269,25.019655152207932],[121.52424734087256,25.021057918898293],[121.52453431053627,25.022084906340417],[121.52513611627256,25.0229917674775],[121.52568763273926,25.0234903986087],[121.52705428738702,25.024149775011683],[121.5285938574116,25.02428241830347],[121.53007193826602,25.023868133438775],[121.53126348981833,25.022969996640406],[121.53198710588234,25.021724749622894],[121.53213263357556,25.02032197690855],[121.53197806987939,25.019628205306013],[121.53147667848741,25.01867198781141]]],[[[121.55634634347903,25.02182144429166],[121.55524839952065,25.020829212075416],[121.55381731453207,25.02029533614621],[121.55227094426077,25.020301088466322],[121.55117747612304,25.02066216753585],[121.54998609466922,25.02156046141397],[121.54926266291821,25.022805792997538],[121.54911732791194,25.02420857878546],[121.54940451142116,25.025235514195312],[121.55000651371698,25.02614227094269],[121.55055814314996,25.026640807665988],[121.5519249612937,25.027299952308027],[121.55346459219476,25.027432336832348],[121.55494262203086,25.027017805606135],[121.55613401844768,25.026119472374063],[121.55685739889935,25.02487410876047],[121.55700264639438,25.023471317029202],[121.55684793912266,25.02277757401823],[121.55634634347903,25.02182144429166]]],[[[121.54650360765402,25.02368786167885],[121.54595200773744,25.02318930920905],[121.54495199687935,25.022648154476478],[121.54382264507231,25.02239479010437],[121.54266120378118,25.02245103403167],[121.54156768716699,25.022812043111877],[121.54063626175933,25.02344673001879],[121.53994713905048,25.024300439612603],[121.53965267192835,25.024955547556154],[121.53950722545375,25.026358325429232],[121.5399620362174,25.02770503595131],[121.54094787912126,25.02879064953903],[121.54226561223071,25.029434091063603],[121.54110325893967,25.03003769966927],[121.54012694086575,25.03113044869923],[121.53968391125,25.032480419192982],[121.53974561621222,25.03353867458871],[121.54014184762339,25.03453504180858],[121.54057611495324,25.035122081176482],[121.54144110675816,25.03583062044413],[121.5421278487968,25.03616183030209],[121.543645915119,25.036431172971916],[121.545161557841,25.036150731934708],[121.54644401650695,25.035363205460996],[121.54693452759976,25.034814167709687],[121.54742760275633,25.033854345083977],[121.54757296612281,25.032451562240166],[121.54711805420492,25.03110487756286],[121.54613213893492,25.03001930646724],[121.5448143798168,25.029375899514278],[121.54626385421074,25.028533213893432],[121.54675433958218,25.02798417668146],[121.54724738994214,25.027024354215165],[121.54739588913311,25.026329484442208],[121.54733412347956,25.02527123224824],[121.54710558109154,25.02459463085348],[121.54650360765402,25.02368786167885]]],[[[121.5565165854354,25.03113143882525],[121.5554185557374,25.030139210555674],[121.55398736123803,25.02960533880078],[121.55244087434986,25.029611094884864],[121.55134732479647,25.029972176158427],[121.55015585611153,25.03087047179286],[121.54943237343541,25.032115803552053],[121.54928703156854,25.03351858791114],[121.54957423974662,25.034545521319302],[121.55017629011306,25.035452275452375],[121.55072796262398,25.035950810201335],[121.55209488582301,25.036609950679406],[121.55363463327575,25.036742331281904],[121.5551127734065,25.036327796972486],[121.55630425706175,25.035429461967418],[121.55702768841282,25.03418409816454],[121.55717294272476,25.0327813078595],[121.55701822173549,25.032087566108846],[121.5565165854354,25.03113143882525]]],[[[121.53859689698425,25.031521830105017],[121.53749900517573,25.030529467115503],[121.5368123067951,25.03019823488542],[121.53568290103821,25.029944809801705],[121.53452138376039,25.030000991318875],[121.53342777566284,25.030361941662758],[121.53249625114883,25.03099657856431],[121.53170187649212,25.032054886902507],[121.53082251368593,25.031129558496257],[121.52982250208987,25.030588302516684],[121.52869310604844,25.030334824151744],[121.52753158083567,25.030390951152427],[121.5261050972456,25.03093522202771],[121.52501578904179,25.031935412761644],[121.52442949401694,25.03323926200239],[121.5244354842319,25.034648276349813],[121.5248315965231,25.035644686220753],[121.52552814009165,25.036493429535383],[121.5264651313198,25.037121409417384],[121.52756187449086,25.0374745410859],[121.52872391214689,25.037522410806005],[121.53020215029463,25.037108122783536],[121.53113373242643,25.036473499825966],[121.53192813972834,25.035415194163388],[121.5328075418817,25.036340515292938],[121.5338076133122,25.03688174978241],[121.53493707930187,25.037135187892012],[121.53609866343906,25.037079002066793],[121.53684134423209,25.0368708209724],[121.53783668570715,25.036322398510702],[121.53838394330276,25.035819837995383],[121.53897797493471,25.034908701854572],[121.53920057075158,25.034230451957725],[121.53925301840617,25.033171782220016],[121.53909839727959,25.032478020149934],[121.53859689698425,25.031521830105017]]],[[[121.55271386691857,25.039187734296966],[121.55151432603192,25.038298311887296],[121.55003250135707,25.037894784275036],[121.54887091810525,25.03795107904153],[121.54812825237128,25.038159319998545],[121.54667029875793,25.039124683280217],[121.54597893473425,25.03858934652108],[121.54492539152157,25.038140110337817],[121.54377407692098,25.03798882962622],[121.54262413321872,25.038148531646303],[121.5412630715001,25.038817708747402],[121.54028668693542,25.03991045868374],[121.53984362947786,25.041260428564854],[121.53990534172172,25.042318682553045],[121.54030160405631,25.043315047680963],[121.5409982970305,25.04416371511721],[121.54193542415464,25.04479159451743],[121.54265454655673,25.045059880455575],[121.54380592615999,25.04521116860928],[121.54495593382643,25.04505145650822],[121.54600552364052,25.04459449971666],[121.54677970816842,25.04396537346218],[121.54747110620524,25.044500705891235],[121.54852471314338,25.044949922560775],[121.54967609799097,25.045101165116215],[121.5508260960996,25.044941407717797],[121.55154281411171,25.044667838054377],[121.55247434001986,25.044033082823344],[121.5529648575478,25.043484025671656],[121.55345791863532,25.042524184358896],[121.55360639957536,25.0418293101014],[121.55354457019446,25.040771063729064],[121.5533159634712,25.04009447436254],[121.55271386691857,25.039187734296966]]],[[[121.53620716906217,25.040331880801954],[121.535109216283,25.03933950231275],[121.53367799816168,25.038805435934965],[121.53213139071346,25.03881098260942],[121.53103769767228,25.039171916344277],[121.52984599027796,25.0400700519852],[121.5291222484495,25.041315287643226],[121.5289766664306,25.042718054435316],[121.52926372923214,25.04374502829667],[121.52986567818226,25.04465186535062],[121.5304173120034,25.04515047558165],[121.5317842333731,25.04580980221809],[121.53332407835377,25.04594239158567],[121.53480240051611,25.04552805685033],[121.5359941229753,25.044629881834865],[121.53671781352642,25.04338461408101],[121.53686330796337,25.041981841273103],[121.53670868818804,25.041288077495192],[121.53620716906217,25.040331880801954]]],[[[121.55528709298419,25.049631462212645],[121.55418890516442,25.048639229980672],[121.55275749936973,25.048105351300034],[121.55121078016757,25.0481110985437],[121.55011706388134,25.048472172734],[121.54892541004527,25.04937045947759],[121.54820181010285,25.050615784218202],[121.54805643671712,25.05201856450601],[121.54834368094954,25.053045497189323],[121.54894581550323,25.053952252678013],[121.54949756745548,25.054450789434778],[121.55086469147733,25.055109936210663],[121.5524046693551,25.055242325302984],[121.55388303441443,25.054827800380668],[121.55507470324203,25.05392947423422],[121.55579825181385,25.052684117419833],[121.55594353755902,25.051281331175733],[121.55578879808178,25.050587590144936],[121.55528709298419,25.049631462212645]]],[[[121.54543463561704,25.04867838690046],[121.54433774360389,25.048325390214725],[121.54356407563671,25.048258834491453],[121.5420482806699,25.048539261344995],[121.54076565781686,25.04932675126425],[121.53991146787794,25.05050142416835],[121.53961576136912,25.05188445457739],[121.53992357491968,25.05326529158939],[121.54078806431461,25.054433711622462],[121.54218527546394,25.055481595663586],[121.54366728863556,25.055885197459013],[121.54520604799067,25.05574144777708],[121.54656727256429,25.05507223327475],[121.54711457560168,25.054569641057622],[121.54770862953397,25.05365847186023],[121.54800424875354,25.05227542712868],[121.54769634770882,25.05089460816608],[121.54683181914554,25.049726228473578],[121.54543463561704,25.04867838690046]]],[[[121.53633742156188,25.050001876300314],[121.53584204589497,25.04945643123166],[121.53490491309503,25.04882851385793],[121.53380804832743,25.048475438943672],[121.53303438400133,25.048408828300605],[121.53188432780654,25.04856844881751],[121.53116754175659,25.04884192459907],[121.53023586761195,25.049476548251086],[121.5297452240358,25.050025531999314],[121.52915889713782,25.05132939733109],[121.52912634573818,25.052778063205675],[121.52958114696892,25.05412480100061],[121.53058832016633,25.055224685746253],[121.52965635786111,25.056280216985165],[121.52926870804379,25.05727940386293],[121.52921616844722,25.05833806824208],[121.52956704957992,25.059486633121242],[121.52841826324769,25.059105467885853],[121.52687139977571,25.059110963965235],[121.52544458330311,25.05965523187517],[121.52435502042417,25.060655418133138],[121.52376858770334,25.06195926208003],[121.52377457818528,25.06336827112993],[121.52437209915217,25.064667936047886],[121.5251567875458,25.065450388028598],[121.52615706514355,25.065991668599075],[121.52728678452814,25.06624515977488],[121.52844864745546,25.066189029426507],[121.52954258666595,25.065828112000702],[121.53073454168933,25.06492997776569],[121.53145840103112,25.06368473618118],[121.5316039747961,25.06228197095623],[121.53125306649568,25.06113341170324],[121.53240187999394,25.061514554509404],[121.53394877225314,25.061509000328165],[121.53537557084258,25.060964651105056],[121.53646504533523,25.059964385454045],[121.53705133362038,25.05866049338672],[121.53704519260859,25.057251486479995],[121.53644757648698,25.05595187287373],[121.53564167420677,25.055155272239027],[121.53657357625161,25.054099704405537],[121.53701671303497,25.05274974523323],[121.53693500642146,25.05130149188533],[121.53633742156188,25.050001876300314]]],[[[121.54727444213316,25.0585078422432],[121.54607474871679,25.057618380740287],[121.54459270718752,25.057214803547655],[121.54305392862406,25.057358547168157],[121.54200421970403,25.057815484335983],[121.54091480964973,25.0588157898461],[121.54032856185239,25.06011969646963],[121.54033474121317,25.0615287020696],[121.54073107189838,25.06252506239438],[121.54142787906505,25.063373723761316],[121.54236515639155,25.064001596345527],[121.5430843926404,25.06426987761196],[121.54423595267605,25.0644211590122],[121.54538613849081,25.064261440976445],[121.54643588881893,25.063804479581194],[121.547294794671,25.06308963107597],[121.54773886814476,25.062470428388835],[121.54775471650969,25.063818896491362],[121.5483524908296,25.065118460569977],[121.54945078215131,25.066110732065177],[121.55088238506136,25.066644638001158],[121.551656171854,25.06671115340576],[121.55280636819154,25.066551377735262],[121.55385610925542,25.066094364153052],[121.55471498685583,25.065379473404757],[121.55530903442882,25.06446827519219],[121.55560459145791,25.063085218350416],[121.5552965760586,25.061704419065677],[121.5544318983935,25.060536087836624],[121.55382911169049,25.060089236270905],[121.5527753556281,25.059640060680543],[121.55162383127333,25.059488844828373],[121.55085071036383,25.05956110313645],[121.54975689203569,25.05992217587164],[121.54911244629245,25.060317860787325],[121.54812106298161,25.06143966530281],[121.548163857665,25.060441532829742],[121.548009149254,25.059747783993323],[121.54727444213316,25.0585078422432]]],[[[121.55143791755692,25.078461541031846],[121.55033949831747,25.07746928802958],[121.5489077708385,25.076935379733484],[121.54736068864219,25.076941093015243],[121.54626670622672,25.077302141987285],[121.54507474905084,25.078200399557442],[121.54435094635997,25.079445704241056],[121.54420550169768,25.080848476652722],[121.54449278611459,25.081875412223948],[121.54509503792963,25.082782177922212],[121.54564690614409,25.083280725140945],[121.54701433351654,25.083939899750995],[121.54855466926634,25.084072322212403],[121.55003339220771,25.083657831109107],[121.55122536441651,25.082759534087042],[121.55194911567267,25.0815141972791],[121.55209447256237,25.080111418888666],[121.55193971510421,25.079417676776323],[121.55143791755692,25.078461541031846]]],[[[121.55889790837594,25.082881377019916],[121.55779938996463,25.081889181530467],[121.55636757981136,25.081355346952535],[121.5548204440166,25.081361138937506],[121.55372644559534,25.0817222429805],[121.55253450194472,25.082620559734053],[121.55181075039488,25.083865899222186],[121.55166538671197,25.085268676759224],[121.55195274415314,25.086295596047677],[121.5525550726123,25.087202329629953],[121.55310699066916,25.08770084795705],[121.55447450619305,25.088359951909972],[121.55601490380137,25.088492295766965],[121.55749365288521,25.08807773008374],[121.55868561154071,25.087179373865805],[121.55940931161723,25.085934002260792],[121.55955458750098,25.084531218768017],[121.55939978208126,25.083837485666002],[121.55889790837594,25.082881377019916]]],[[[121.52924558488783,25.09116820436828],[121.52804569580914,25.09027860415958],[121.52656331448021,25.089874854246204],[121.52502410369216,25.090018417408174],[121.52397404925858,25.09047523074949],[121.52288420633128,25.09147540669251],[121.52229761746146,25.092779242065394],[121.52230359948778,25.094188245596815],[121.52269989556764,25.09518465037577],[121.52368614053479,25.096270362382356],[121.52505360003099,25.096929737808793],[121.52659407960327,25.097062385744184],[121.52735596345374,25.096921570765595],[121.52840605941543,25.096464733190484],[121.52949590005773,25.0954645173628],[121.53008242432131,25.094160655031406],[121.53007635321293,25.092751653259555],[121.5298477724333,25.092075031930385],[121.52924558488783,25.09116820436828]]],[[[121.57536746247702,24.99523892230115],[121.57431418992533,24.9947898871573],[121.57316324943045,24.994638826711792],[121.5716481838818,24.994919544754946],[121.57038989350038,24.99568763329308],[121.56957100788277,24.99526791092113],[121.56844186101952,24.99501472910644],[121.56728069217323,24.99507116085265],[121.56653831582574,24.995279489940685],[121.56525639995576,24.996067184526744],[121.56440280408813,24.997241996170168],[121.56410748829632,24.99862507824299],[121.56441542968395,25.000005871953547],[121.5650174140767,25.000912571212353],[121.56588229944943,25.00162097324043],[121.56693560139591,25.002070067186228],[121.56808660472696,25.002221174572522],[121.56960176832904,25.00194049134575],[121.57086012675822,25.001172408661848],[121.57242336521318,25.001794760789704],[121.57396949838892,25.00178880297965],[121.57506273038045,25.001427559510446],[121.57624270477116,25.000540253849607],[121.5768292539951,25.001081239606474],[121.5778292233823,25.001622182140586],[121.57857354218756,25.001824788899057],[121.57973525542853,25.001872265609496],[121.58121288735339,25.001457478808373],[121.58185692379766,25.001061658824277],[121.58263415117706,25.00027338960676],[121.58312681400973,24.999313451490554],[121.5832717386754,24.997910635147967],[121.58281657495756,24.99656405809531],[121.58183063307435,24.995478719349205],[121.58046401695051,24.9948198433719],[121.57892477037741,24.994687731136622],[121.5774472107481,24.995102494266533],[121.57626729637282,24.99598980890807],[121.57536746247702,24.99523892230115]]],[[[121.56131562052663,24.997481340519116],[121.56082035173488,24.99693597313549],[121.55988349931135,24.99630820416996],[121.55878703663046,24.995955304337013],[121.55762538365629,24.99590766287366],[121.5564985727474,24.996169382437042],[121.55581502021101,24.99650565253476],[121.55495662021302,24.99722054787211],[121.55452770548696,24.997810767640196],[121.55408494629945,24.99916078234455],[121.55414675208011,25.000219034665484],[121.5545429864887,25.001215367792273],[121.55531086200641,25.00212240784157],[121.55448353637667,25.002597912396954],[121.55370611194036,25.00338603768671],[121.55321320284884,25.00434588213385],[121.55304726363089,25.005394787389566],[121.55322259300138,25.006442423366583],[121.55352280752935,25.00709534563905],[121.55421938058923,25.007943957156947],[121.55482190998832,25.00839081461709],[121.55625286006607,25.008924684032696],[121.55779908681565,25.008918892753893],[121.5592251720073,25.008374322853918],[121.55982364972876,25.007922967551615],[121.56051254401083,25.00706916788944],[121.56089978968946,25.0060698997851],[121.56089339130864,25.004660888554188],[121.56049709440084,25.00366457388369],[121.55972917152093,25.002757561329858],[121.5611034927501,25.001779385965392],[121.56182668511636,25.000533997468665],[121.56197185321588,24.99913119779404],[121.56181715149074,24.99843745764839],[121.56131562052663,24.997481340519116]]],[[[121.56188313231146,25.01621755158386],[121.5606837536105,25.015328197718425],[121.55920217823541,25.0149247560353],[121.55766394632636,25.01506864242526],[121.556614650296,25.01552567831137],[121.55552572737912,25.016526088210007],[121.55493982706267,25.017830053810908],[121.55494616132533,25.0192390639791],[121.55534246636145,25.02023539127665],[121.55632838145199,25.02132090265521],[121.55769516980502,25.02197999519341],[121.5592347391616,25.02211232108526],[121.55999612070765,25.021971345703015],[121.56104545801327,25.021514285611595],[121.56213437850839,25.02051383596557],[121.5627202143756,25.01920984357964],[121.56271379138975,25.01780083527907],[121.5624851798674,25.01712425806888],[121.56188313231146,25.01621755158386]]],[[[121.57395628244576,25.030771058223745],[121.5734608220265,25.030225738718304],[121.57252365079538,25.029598057779896],[121.57142685627747,25.02924525856633],[121.57026488699942,25.029197721648895],[121.56913780254422,25.029459540684787],[121.56845410324128,25.029795870010837],[121.56759555054002,25.03051083789484],[121.56703081348996,25.03136549294792],[121.56628097834711,25.030415870909668],[121.565343841218,25.029788144094354],[121.56386207699339,25.029384752934302],[121.56270058235947,25.029441154367554],[121.56127427173183,25.029985760037782],[121.56018526215266,25.030986203690798],[121.55959934598476,25.032290185469456],[121.55960573763387,25.033699191777472],[121.56000212891692,25.034695503266647],[121.56069890564095,25.035544077819882],[121.5616360640949,25.036171833091515],[121.56273289414698,25.036524703647512],[121.56389493084846,25.036572298248608],[121.56537303233006,25.036157662501555],[121.5663044218671,25.035522822192366],[121.56712919552199,25.03440459299451],[121.5678790619633,25.03535421004316],[121.56881625454152,25.035981919432157],[121.56991310231378,25.036334736666724],[121.57145966884259,25.036328797306098],[121.5722022817731,25.036120440567615],[121.57319745508376,25.035571784024924],[121.57374456261044,25.03506909579223],[121.57433832657999,25.034157822809025],[121.57456072558689,25.033479523282473],[121.57461286932435,25.032420846242967],[121.57445805113835,25.031727124334676],[121.57395628244576,25.030771058223745]]],[[[121.57915640703692,25.038840943085486],[121.57837155467784,25.038058776590717],[121.57737128430995,25.037517845677943],[121.57585313816271,25.037248849112093],[121.57470324809815,25.037408798563163],[121.57365382949514,25.03786595560306],[121.5727952524,25.03858095321673],[121.57220145630222,25.03949222007536],[121.57192358271593,25.040521281742212],[121.5719855694945,25.04157951774191],[121.57238208676887,25.042575792948416],[121.57307899312387,25.04342430626657],[121.57368176519299,25.04387108091163],[121.57473545828525,25.044320110155592],[121.57588686509992,25.044471149122323],[121.57703681909413,25.044311189513007],[121.57806546495543,25.043865483620138],[121.57821163474041,25.04534307188729],[121.57892803795552,25.046560299636806],[121.57732461445181,25.046407753848857],[121.57619738962319,25.0466696283638],[121.5755136158566,25.04700599075165],[121.57465498726631,25.047720999179106],[121.57422599752275,25.048311273223323],[121.57378328554289,25.049661336869843],[121.57394142084365,25.05106296597773],[121.57467634754921,25.052302773129668],[121.57587618998669,25.05319200151906],[121.57697321102167,25.05354476273258],[121.57774692660227,25.053611143494297],[121.57889696288716,25.05345116819741],[121.57961366480569,25.05317746362842],[121.5805451058019,25.052542534501818],[121.58123409720578,25.05168864201332],[121.58167673389926,25.050338557858797],[121.58151851192316,25.048936938410378],[121.5808020690376,25.047719724072426],[121.58240551317333,25.047872232090747],[121.58316702408652,25.047731136117605],[121.58421648913537,25.047273911609064],[121.58530544097607,25.04627329492173],[121.58566879075107,25.04564753257692],[121.5859465596894,25.04461844776462],[121.58578829802663,25.043216832536512],[121.58548782219395,25.042563983185463],[121.58479083669873,25.041715529425616],[121.58385352078393,25.04108792351497],[121.58237156344487,25.040684721038858],[121.58120997407771,25.040741268805427],[121.57980443275667,25.041274576491837],[121.57975438307699,25.04014038144294],[121.57915640703692,25.038840943085486]]],[[[121.56854659417982,25.039161174624674],[121.5677618058327,25.038378950962688],[121.56676157784926,25.037837947871548],[121.5656320450006,25.03758475292041],[121.56447047433252,25.037641169462727],[121.5633768911421,25.038002339493698],[121.56244546769298,25.038637161833126],[121.56175641531547,25.039490969682298],[121.56144592296944,25.04020574881309],[121.56074371015828,25.039047571852823],[121.55954411409301,25.03815821522822],[121.55806226649953,25.037754768110297],[121.55690068953021,25.037811125564023],[121.55547425611907,25.03835567707652],[121.55438512612541,25.039356079193645],[121.5537991102388,25.040660038385063],[121.55380543804854,25.04206904449848],[121.55420181110276,25.043065370688826],[121.55489859697109,25.043913971363896],[121.55583579115836,25.04454176192756],[121.55693268045663,25.044894673904533],[121.55847935780491,25.044888867781694],[121.55990585231967,25.044344286816084],[121.56099497989499,25.04334384491011],[121.5615040849754,25.04232434702693],[121.56220632414428,25.043482519765902],[121.56340599156334,25.04437185302467],[121.56450289983768,25.04472470876468],[121.5660495730416,25.044718823870152],[121.56679224591431,25.044510493354228],[121.56778751098318,25.04396187204324],[121.5683346774826,25.04345920324769],[121.56892852096385,25.042547951484227],[121.56915096404335,25.04186966002175],[121.56920315626842,25.040810985184276],[121.56904835685027,25.04011725806651],[121.56854659417982,25.039161174624674]]],[[[121.59607324999917,25.047886856296657],[121.59487331791324,25.04699779213588],[121.59339125549548,25.046594701862038],[121.59185267698894,25.04673894788094],[121.59080324595847,25.04719622577135],[121.58971433164018,25.048196881972952],[121.58912865238835,25.049500973063907],[121.58913538657238,25.050909968795537],[121.58953207310088,25.051906193935206],[121.59051854342421,25.052991463953468],[121.59188586238422,25.053650229638016],[121.5934258568968,25.0537821929471],[121.59418739031625,25.053641040148833],[121.59523686260532,25.053183737965007],[121.59632577435144,25.052183041959914],[121.5969113889427,25.050878924125378],[121.5969045658869,25.049469930376098],[121.59667570549415,25.04879341308761],[121.59607324999917,25.047886856296657]]],[[[121.56745382790808,25.04913743485844],[121.56625408487719,25.0482481361803],[121.56477209477248,25.047844759033186],[121.56323346084159,25.04798870947909],[121.56218390877557,25.048445787183795],[121.56109474682451,25.049446237738852],[121.56050875671639,25.050750221237152],[121.56051516412786,25.052159223825193],[121.56091162518368,25.05315552926571],[121.56189785777369,25.05424099349123],[121.5632650433934,25.05490002503277],[121.5648050292801,25.055032285362113],[121.5655666063345,25.054891278620342],[121.56661619973558,25.054434176666238],[121.56770535923852,25.053433686304277],[121.56829128476825,25.052129675992354],[121.5682847884773,25.050720675291032],[121.56805608173997,25.050044111240997],[121.56745382790808,25.04913743485844]]],[[[121.61091616886608,25.050160247579868],[121.60981753748513,25.04916843494909],[121.60838589631962,25.04863509685747],[121.60683918573318,25.04864142340686],[121.60574563665953,25.0490029042948],[121.60455439288856,25.04990163001559],[121.60383135787774,25.051147215581164],[121.60368661832776,25.052550038810832],[121.6039743250954,25.05357685545165],[121.60457686673878,25.054483377903484],[121.60512884166684,25.054981703843875],[121.6064962580346,25.05564033298026],[121.60803628970714,25.055772143999516],[121.6095144618103,25.05535706861654],[121.61070572033597,25.054458303457857],[121.61142870377611,25.05321268592287],[121.61157335563942,25.051809856919533],[121.61141830359367,25.051116179626018],[121.61091616886608,25.050160247579868]]],[[[121.62090606289546,25.05255002910006],[121.62041030868399,25.05200487326291],[121.61947273709771,25.051377497841024],[121.61837562090675,25.05102505233846],[121.61760190446665,25.050958883305942],[121.61645194833757,25.0511191569784],[121.61573534408872,25.0513930376356],[121.61480409789235,25.052028184006527],[121.61431382714107,25.05257744031449],[121.6138212058694,25.053537474399533],[121.61365572646514,25.054586432193553],[121.61383164807262,25.055633979068595],[121.61434355320907,25.0566017309947],[121.6134210853934,25.057118979537478],[121.61264370830348,25.05790740676569],[121.6121510535355,25.05886743527749],[121.6120028855238,25.05956236082198],[121.61206522925495,25.060620570861204],[121.61229419703305,25.061297061364012],[121.61289683816705,25.06220354725302],[121.61344888133927,25.062701840463372],[121.61481642706242,25.063360389840902],[121.61635656235447,25.063492112435746],[121.61783479655692,25.06307695343],[121.61847902923053,25.06268097417826],[121.61925639769211,25.061892517043002],[121.6197490081048,25.060932466172854],[121.61991444275795,25.05988350330913],[121.61973846270325,25.058835965340833],[121.61922650585917,25.057868233125227],[121.62014895408821,25.057350949094523],[121.62069596094278,25.05684809117828],[121.62112475389954,25.056257687190794],[121.62151165062501,25.05525827397352],[121.62150454496987,25.053849287516613],[121.62090606289546,25.05255002910006]]],[[[121.61479331497108,25.065276475249103],[121.6135930790563,25.06438757013537],[121.61249586198198,25.064035083694947],[121.6117220661376,25.06396888563763],[121.61020624896913,25.06425000825601],[121.60892391314891,25.06503808026736],[121.60823504392286,25.06589209753225],[121.60784800727721,25.06689147741248],[121.60779614125103,25.067950156239117],[121.60819573356085,25.069189801106926],[121.60683366648044,25.069097862571546],[121.60535532089985,25.06951291377135],[121.60416387926308,25.070411637660577],[121.60357016970057,25.07132302461275],[121.6032924934495,25.072352137102374],[121.60335477138766,25.073410350270965],[121.60375164858435,25.07440653094817],[121.60418635953815,25.074993373225684],[121.60538663439107,25.075882352464546],[121.60686908790031,25.076285314134218],[121.60840801359993,25.07614090653882],[121.60912477767596,25.07586705911839],[121.61005623140053,25.07523194642629],[121.61074513857956,25.07437792103084],[121.61113217368965,25.07337853459883],[121.61118401223419,25.072319855874444],[121.61078437924421,25.07108022007995],[121.61214647031727,25.071172122121443],[121.61362481126024,25.07075700343899],[121.61455620307426,25.070121863246175],[121.61540980389701,25.06894677449747],[121.61563203399508,25.068268419666403],[121.61568383267321,25.067209739421962],[121.61539599440371,25.066182949791607],[121.61479331497108,25.065276475249103]]],[[[121.58825724501342,25.076510736420758],[121.58715855257927,25.075518760602105],[121.5857266958653,25.074985209754413],[121.5841796480459,25.074991306350718],[121.58308579657206,25.075352624590423],[121.58189413288017,25.07625117303355],[121.58117071749167,25.077496650869715],[121.58102569501433,25.078899452336906],[121.5813132802231,25.079926311594672],[121.58191579029484,25.08083292351168],[121.5824677958484,25.081331331465485],[121.58383539134913,25.08199016386632],[121.58537573414235,25.082122203891554],[121.5868543019657,25.081707348373943],[121.58804598053167,25.080808760459778],[121.58876934435908,25.07956325057179],[121.58891427904403,25.078160443247516],[121.58875931759329,25.077466742990833],[121.58825724501342,25.076510736420758]]],[[[121.57856744734387,25.077980947882004],[121.5774688180528,25.076988899360302],[121.57603698407252,25.076455254692736],[121.57448991512165,25.076461250630146],[121.57339602070415,25.076822498128973],[121.57220427061898,25.077720970111468],[121.57148074786333,25.078966402370938],[121.5713356133839,25.08036919608846],[121.57162312185415,25.08139607529897],[121.57222556882205,25.082302727522293],[121.57277754263006,25.082801172005063],[121.57414510468335,25.08346009421467],[121.57568545768247,25.0835922346566],[121.57716407781143,25.083177474869064],[121.57835584281331,25.08227896341885],[121.57907931403857,25.08103349908704],[121.5792243607263,25.079630699480084],[121.57906945163028,25.07893698829135],[121.57856744734387,25.077980947882004]]],[[[121.57049764046268,25.080141123866117],[121.56939905527777,25.079149015083686],[121.56796722929494,25.078615292543756],[121.56642013101892,25.078621204847714],[121.56532619259977,25.07898239351859],[121.56413436166653,25.079880801842517],[121.56341074419672,25.081126196053184],[121.56326551555145,25.082528983128263],[121.56355296244745,25.083555878767903],[121.56415536156628,25.08446256434888],[121.56470731319686,25.08496103910994],[121.5660748578643,25.08562003584247],[121.56761523106343,25.085752259696804],[121.56909390590222,25.085337579506447],[121.57028575178848,25.0844391317159],[121.57100931775089,25.08319370541439],[121.5711544586007,25.08179091242263],[121.57099959182558,25.081097192251736],[121.57049764046268,25.080141123866117]]],[[[121.59726403942905,25.08120682728302],[121.59606376898792,25.080317782862757],[121.59458129957908,25.079914713724467],[121.59304230737686,25.0800589790498],[121.59199259977827,25.080516268429676],[121.5909034066894,25.081516934100026],[121.59031758944164,25.082821026725444],[121.59032434743852,25.084230015832205],[121.59072115678688,25.085226231211756],[121.59170791082497,25.086311483410903],[121.59307560985081,25.086970228303397],[121.59461602289839,25.087102171002513],[121.59537776005166,25.086961008961662],[121.59642750898077,25.086503695250762],[121.59751669948997,25.08550298971647],[121.59810245195963,25.084198870307908],[121.59809560493235,25.082789883187985],[121.59786667203831,25.082113372020967],[121.59726403942905,25.08120682728302]]],[[[121.60536389143513,25.08150666335239],[121.6041635609858,25.080617685622027],[121.60268106322987,25.080214697971208],[121.60114207865286,25.080359047180693],[121.60009239988808,25.080816393325787],[121.59900327137056,25.081817117239336],[121.5984175392988,25.08312124023371],[121.59842439011454,25.084530227207686],[121.59882126557531,25.08552641966093],[121.59980809231772,25.086611616588062],[121.6011758364156,25.087270285925946],[121.60271626003464,25.087402144293584],[121.60347798881453,25.08726094081073],[121.60452770888962,25.086803570321468],[121.60561683479231,25.08580280654377],[121.60620250206047,25.08449865678525],[121.6061955622134,25.083089671825203],[121.60596658448259,25.082413174021905],[121.60536389143513,25.08150666335239]]]]},"properties":{"city":"taipei","minutes":5,"minutes_label":"5分鐘"}}]}