{"type":"FeatureCollection","features":[{"type":"Feature","geometry":{"type":"MultiPolygon","coordinates":[[[[121.51161375200363,25.031236782299352],[121.51092868186731,25.029206804565693],[121.50982213449076,25.02733759340847],[121.5083366462616,25.02570097268581],[121.5065293076121,25.02435982654823],[121.50446956846686,25.023365684397923],[121.50223657009705,25.022756742177545],[121.49991610579761,25.022556395795814],[121.49759732687781,25.02277234285649],[121.49536932009937,25.023396287086072],[121.49331768756156,25.024404256782432],[121.4915212599437,25.02575752510286],[121.49004906897521,25.02740409696683],[121.48895769519193,25.029280705637042],[121.48828909280996,25.03131524248854],[121.488068975422,25.033429526824634],[121.48813043591379,25.034491218715743],[121.48859345597079,25.03657267613895],[121.48899056176751,25.037572394992694],[121.49009689106471,25.039441762153658],[121.49079546315394,25.040293405187064],[121.4924498527554,25.041789673869044],[121.49338973745128,25.042419887002502],[121.49544971121391,25.04341417663716],[121.49768305386317,25.04402321387459],[121.49883808315296,25.044175339964355],[121.50116933289074,25.04416749427058],[121.5023230962583,25.04400759815579],[121.50455143626583,25.043383546158985],[121.5069555501473,25.0421355449289],[121.5061058574814,25.04364201236117],[121.50543746597994,25.045676619281398],[121.50521762201987,25.047790920801347],[121.50545479694686,25.049903667093723],[121.5061398989087,25.051933664042938],[121.50724661880129,25.053802893862226],[121.50873243842068,25.05543951420739],[121.50960018129517,25.056150520064445],[121.51154362767134,25.057323745727963],[121.51260061233918,25.05777466434166],[121.51483429641188,25.05838343710752],[121.51598947925126,25.058535427077214],[121.51832099437019,25.058527307924447],[121.51947486700908,25.058367277108104],[121.52170337346224,25.057742966248103],[121.52275654073908,25.057284700217217],[121.52469007920486,25.056097976456385],[121.5263322608366,25.054590431290645],[121.52761997811334,25.052820009234306],[121.52850375421947,25.050854756044217],[121.52894964297131,25.04877020232348],[121.52894053078349,25.04664645985395],[121.52847679103395,25.04456514240632],[121.52757626618286,25.04260622944074],[121.52697240568345,25.041696461899136],[121.52548651661321,25.040060022210124],[121.52367878215001,25.038719093587975],[121.52267551812311,25.038176047289653],[121.52051840612259,25.03737088388645],[121.51823034275216,25.036964552020006],[121.51706457048978,25.036916445638035],[121.51474555724756,25.037132663611025],[121.51251738408888,25.037756866419528],[121.51011341167775,25.0390049539477],[121.51096302512724,25.03749846613132],[121.51163128322975,25.035463834262778],[121.51185099908965,25.03334952184244],[121.51161375200363,25.031236782299352]]],[[[121.59071373721773,25.04711058073645],[121.59002727909039,25.045080996121747],[121.58891939782703,25.0432124011793],[121.58743268101138,25.041576596042486],[121.58562426620512,25.040236433499206],[121.58356364459736,25.039243405159553],[121.58132999128682,25.03863566419582],[121.57900912467221,25.038436560406797],[121.57669021148786,25.03865374371049],[121.57446234365459,25.039278870394355],[121.57241111796651,25.040287923376376],[121.57061534953226,25.04164213422777],[121.56914404483365,25.043289471667197],[121.56805375043933,25.04516663952989],[121.5673863791701,25.047201507668685],[121.56716759737294,25.04931588260204],[121.5672297489162,25.05037752805698],[121.56769416438256,25.052458711326263],[121.56859539695438,25.054417366348297],[121.5698988287289,25.056178215407048],[121.57155437784463,25.057673580264098],[121.57349842183395,25.058845984487235],[121.57565624269446,25.059650363822083],[121.57794489970306,25.060055799421665],[121.580276419352,25.06004670710781],[121.58256117942841,25.05962343679859],[121.58471135668371,25.05880225898415],[121.5866443050622,25.05761473878247],[121.58828573417195,25.056106521733277],[121.58957256548113,25.054335578171074],[121.59045535628664,25.052369973873294],[121.59090019831956,25.05028525289773],[121.59095237309376,25.049223165424923],[121.59071373721773,25.04711058073645]]],[[[121.61871359358523,25.051318386856284],[121.61802665238405,25.04928894189772],[121.61691831219699,25.047420565511164],[121.61543117822023,25.04578504941602],[121.61362240401648,25.044445235286048],[121.61156149455418,25.04345260134513],[121.60932763596512,25.04284528562122],[121.60700665451512,25.042646621590734],[121.60468772134067,25.042864242295682],[121.60245992913235,25.04348978723872],[121.60040887179177,25.04449922328564],[121.59861335798179,25.04585376730169],[121.5971423844294,25.047501375208626],[121.59605248500958,25.049378740444663],[121.59538555739353,25.051413725265537],[121.59516725090052,25.05352813168628],[121.59522964628938,25.05458976042139],[121.59569455011575,25.056670846112105],[121.59659625629861,25.05862932148406],[121.59790012871551,25.06038991570659],[121.59955606854372,25.06188496032355],[121.601500438269,25.063056991207695],[121.60365850733993,25.063860958459607],[121.60594732546888,25.06426595908455],[121.60827891293988,25.064256425642117],[121.61056364492885,25.06383272502717],[121.61271369927434,25.06301114428951],[121.6146464346632,25.061823264049707],[121.61628756891606,25.060314743694487],[121.61757403486413,25.058543565215924],[121.61845640387611,25.056577803411354],[121.61890078391818,25.05449300837537],[121.61895271813476,25.053430916176534],[121.61871359358523,25.051318386856284]]]]},"properties":{"city":"taipei","minutes":15,"minutes_label":"15分鐘"}},{"type":"Feature","geometry":{"type":"MultiPolygon","coordinates":[[[[121.50772921504831,25.03195462242831],[121.50727253863253,25.03060129195316],[121.5065348645909,25.029355133843104],[121.50554454683346,25.028264033309632],[121.50433964447532,25.027369916170947],[121.50296645897905,25.02670713836072],[121.50147775515995,25.026301166331383],[121.49993073436697,25.02616759895953],[121.49838483759136,25.02631156845488],[121.49689946272713,25.026727543240245],[121.49553168347266,25.027399540361156],[121.49433405730254,25.02830173928769],[121.49335260655279,25.0293994735833],[121.4926250500776,25.03065056242245],[121.492179353393,25.032006930893083],[121.49207364931874,25.034124250098476],[121.49238237076887,25.035511879848052],[121.49298231146305,25.03681797237909],[121.49385042312998,25.037992331888276],[121.49495334844106,25.038989824059083],[121.49624870234719,25.03977211120891],[121.49768670094953,25.04030912628822],[121.49921207530221,25.040580228979238],[121.50076619650386,25.04057499936876],[121.5022893302389,25.04029363862173],[121.50372293390433,25.039746961221077],[121.50501190780503,25.03895597907643],[121.50610671368713,25.03795109352951],[121.50696527902981,25.036770926386147],[121.50755461382914,25.035460834998506],[121.50785207774805,25.034071168569415],[121.50772921504831,25.03195462242831]]],[[[121.52487989970139,25.046313717177714],[121.52442297987956,25.04496044589494],[121.52368504550495,25.043714379481404],[121.52269446048925,25.042623399618588],[121.52148929421098,25.041729427483187],[121.52011585826502,25.041066813434888],[121.5186269270797,25.040661017634104],[121.51707971073016,25.040527632188958],[121.51553365771339,25.040671782323805],[121.51404817192173,25.0410879295267],[121.51268033131475,25.041760084224443],[121.51148269572775,25.042662419837704],[121.5105012878656,25.043760264681328],[121.50977382494447,25.04501143368307],[121.50932826889672,25.046367848849034],[121.50922285181481,25.048485171781508],[121.50953180457611,25.04987275965677],[121.51013199836972,25.05117877649709],[121.51100037519714,25.052353029401093],[121.5121035675348,25.05335038814372],[121.51339918006313,25.054132520167016],[121.5148374189336,25.054669364382672],[121.51636300595518,25.05494028704175],[121.51791730404322,25.054934875154586],[121.5194405720767,25.05465333689763],[121.52087426228766,25.054106493582676],[121.52216327165581,25.05331536350217],[121.52325806056929,25.05231035368821],[121.52411655716813,25.051130090725092],[121.52470577410124,25.049819935647463],[121.52500307557281,25.048430240103073],[121.52487989970139,25.046313717177714]]],[[[121.58682920564172,25.047830487989216],[121.5863716038312,25.046477419473916],[121.58563304040595,25.045231672087834],[121.58464190342595,25.044141115239032],[121.58343628345095,25.043247653843277],[121.5820625094805,25.042585618637457],[121.58057336890678,25.0421804475507],[121.57902607983405,25.042047708703684],[121.57748009354746,25.042192502495904],[121.57599481138062,25.0426092657036],[121.57462730348496,25.04328198510085],[121.57343011693548,25.044184812420635],[121.57244925721132,25.045283057086543],[121.57172242049471,25.046534518656724],[121.57127754467943,25.047891107880755],[121.57117319177925,25.050008456329074],[121.57148284346863,25.05139590317968],[121.57208369633331,25.0527016581572],[121.5729526670253,25.053875538406466],[121.57405636517053,25.054872428014097],[121.57535237598033,25.055654012450667],[121.57679089027137,25.05619025168048],[121.57831661924614,25.056460535220815],[121.57987092035239,25.056454474665188],[121.58139405235274,25.056172303142016],[121.58282747271846,25.05562486632141],[121.58411608882099,25.054833205320936],[121.58521037619019,25.05382774758487],[121.5860682822713,25.05264713691095],[121.58665684243547,25.051336747686996],[121.5869534461485,25.049946940541936],[121.58682920564172,25.047830487989216]]],[[[121.61482911004276,25.052039025373187],[121.61437118615626,25.05068604992044],[121.61363231673543,25.04944044820902],[121.61264090158899,25.048350084042113],[121.61143504195302,25.047456854927965],[121.61006107602277,25.046795082678415],[121.60857179855452,25.046390195122726],[121.6070244329036,25.04625774949424],[121.6054784332933,25.046402834934767],[121.60399320156985,25.046819877023438],[121.60262580595227,25.04749285182657],[121.60142878921133,25.048395901268695],[121.60044815031397,25.049494326240207],[121.59972157697044,25.050745919368865],[121.59927699696617,25.052102586343093],[121.59917312352204,25.05421994456625],[121.59948310076963,25.05560732631909],[121.60008426933766,25.05691296149379],[121.60095353373748,25.05808667183089],[121.60205749229563,25.059083347941815],[121.60335372020182,25.05986468350092],[121.60479239991601,25.0604006480402],[121.606318236272,25.06067064164029],[121.60787258258362,25.0606642870467],[121.60939569587416,25.060381828698414],[121.61082903433736,25.05983412329844],[121.61211750850062,25.059042222293865],[121.61321159936061,25.058036562357085],[121.61406926192855,25.056855795057047],[121.61465754094748,25.055545300797135],[121.61495383669893,25.054155444235615],[121.61482911004276,25.052039025373187]]]]},"properties":{"city":"taipei","minutes":10,"minutes_label":"10分鐘"}},{"type":"Feature","geometry":{"type":"MultiPolygon","coordinates":[[[[121.50384463104093,25.032672361665192],[121.50324748642888,25.031372602713628],[121.50214987527865,25.030379973992652],[121.50071889846498,25.029845585606218],[121.49917239529451,25.029850787503445],[121.49774578761148,25.030394788104857],[121.49665625022635,25.031394774600994],[121.49606965579598,25.032698516733394],[121.4960168373546,25.033757177191454],[121.49647120475056,25.035104026594635],[121.49745673084927,25.036189932764007],[121.49882338153438,25.03684956780035],[121.50036308554256,25.036982501278327],[121.50184141792101,25.036568493953393],[121.50303330021968,25.03567057978137],[121.50375727587077,25.034425466585077],[121.50390602895651,25.0337306368526],[121.50384463104093,25.032672361665192]]],[[[121.52099497342974,25.047031909058155],[121.52039757694538,25.045732225521707],[121.51929970016835,25.04473972962498],[121.5178684843963,25.044205511245114],[121.51632180529327,25.044210894454196],[121.51489511147307,25.044755060082117],[121.51380559086088,25.045755170208356],[121.5132191135764,25.04705897575839],[121.51316643865943,25.04811763805923],[121.51362104826781,25.049464428648918],[121.51460684042974,25.050550214783517],[121.51597374051,25.051209686830145],[121.51751363925545,25.051342439179535],[121.51899208204878,25.050928260173464],[121.52018397362716,25.050030209918095],[121.52090785602324,25.048785016961528],[121.5210565279085,25.048090172660338],[121.52099497342974,25.047031909058155]]],[[[121.58294462656299,25.048550294413758],[121.5823465744652,25.04725087170142],[121.5812481947233,25.046258842681315],[121.57981670514854,25.045725226152772],[121.57827002304724,25.045731254593143],[121.57684359748883,25.046276010646576],[121.57575457559876,25.047276566537438],[121.57516875162904,25.04858060532767],[121.57511660881431,25.04963928030829],[121.57557189734909,25.05098586936803],[121.57655823921564,25.052071234587334],[121.57792547603418,25.052730130405035],[121.57946544723735,25.052862238962344],[121.58094368716468,25.052447446656558],[121.58213513146961,25.051548907000537],[121.58285839033505,25.05030342305805],[121.5830067133681,25.04960852290779],[121.58294462656299,25.048550294413758]]],[[[121.61094457884155,25.052759563091115],[121.61034621267139,25.05146025971199],[121.6092475739549,25.05046844317039],[121.60781591990352,25.049935099916333],[121.60626919284212,25.049941420836934],[121.60484284868102,25.050486444069207],[121.60375402216951,25.0514872011773],[121.60316847784132,25.052791344591054],[121.60311657476602,25.05385002442399],[121.60357218390538,25.05519652099269],[121.60455880277436,25.05628169449524],[121.605926230797,25.056940328552255],[121.60746627827265,25.05707214516575],[121.60894446792004,25.056657075198462],[121.61013574305866,25.05575831445235],[121.61085873965057,25.054512699655515],[121.611006908719,25.05381777477559],[121.61094457884155,25.052759563091115]]]]},"properties":{"city":"taipei","minutes":5,"minutes_label":"5分鐘"}}]}