{"type":"FeatureCollection","features":[{"type":"Feature","geometry":{"type":"MultiPolygon","coordinates":[[[[121.34821807212435,24.954600552415695],[121.34846213521155,24.955119137255387],[121.34950974205252,24.95562809969234],[121.3495747940881,24.95713540136014],[121.34979463628872,24.95751746933768],[121.35021486198117,24.957715915916694],[121.35184855607517,24.95776467706439],[121.35256134606234,24.95906383638523],[121.35435861586039,24.95941351330413],[121.35457404773875,24.959778643913708],[121.35452338157262,24.960843124728076],[121.35600549084431,24.961973920564564],[121.35670469496492,24.96177281367659],[121.35706128639367,24.960995557954295],[121.35770781879923,24.960535824119948],[121.35782661639743,24.96000695952528],[121.35754142603706,24.95917343469248],[121.35834908291929,24.958536084617375],[121.35867735377688,24.957891983095944],[121.35971117706823,24.95743777543862],[121.36120125441829,24.957310543793362],[121.36175733461087,24.95686035321466],[121.36248786125054,24.95665250355491],[121.36281353360394,24.956187278075717],[121.3625929060295,24.955549885323638],[121.36158375267486,24.955264855591818],[121.36130682548698,24.954831650497532],[121.3615449904173,24.95436939577194],[121.36257059877616,24.95393960316598],[121.36262025785707,24.952848974537897],[121.36226376974889,24.952491139438028],[121.36144286947048,24.95224770001105],[121.36037508861887,24.95114450672152],[121.35797410486623,24.950171093153333],[121.35714908807623,24.9490834994629],[121.35670657156098,24.948846796048453],[121.35611446159353,24.948843748757856],[121.3554517900961,24.949381503127903],[121.35471732771515,24.949485263987203],[121.35344818897556,24.948747602430657],[121.35203089172639,24.948645674433216],[121.35119942392699,24.948128582615723],[121.35050028728355,24.94832966328006],[121.3502342076608,24.949067962743296],[121.35037741988428,24.949479175418663],[121.35141189123817,24.95046737027453],[121.35162629092648,24.95157286906394],[121.35136334023437,24.952674361913544],[121.35097141881245,24.952969145024564],[121.34989545264833,24.952773442000225],[121.34866566383387,24.953215934460133],[121.34833388516955,24.953663077497957],[121.34821807212435,24.954600552415695]]],[[[121.3292376096975,24.969644440048377],[121.3293435104212,24.97071123097945],[121.32999162126029,24.97138896356253],[121.32978603579178,24.97221842019131],[121.32991233959832,24.972620915773426],[121.33073796939856,24.973071924245723],[121.33158688560606,24.973987141030687],[121.33143763803906,24.9746459888987],[121.33068704511531,24.97508109087424],[121.32971596930483,24.976317354239065],[121.33003288167524,24.977162900026197],[121.33002806965148,24.977989534449343],[121.33043816365569,24.978361515296985],[121.33090884221176,24.9784071986315],[121.33172046842284,24.9781219070342],[121.33241998303134,24.977000624442685],[121.3345737021332,24.975246257127907],[121.33500505172206,24.974243612117746],[121.335833385937,24.9740671006209],[121.3373287218806,24.97313861366439],[121.3380358099019,24.972009506591345],[121.33767867881498,24.97078261499342],[121.33903021812141,24.969134483839866],[121.33924204968275,24.96767500977585],[121.3386362075617,24.967125493925785],[121.33741000141964,24.967214991938683],[121.33656275275007,24.966733421607636],[121.3358947245114,24.96586583797867],[121.33420336352827,24.96558295499201],[121.33284810238796,24.966453014039317],[121.33194943862465,24.966419825260093],[121.33153028049523,24.966620193114576],[121.33130046836618,24.9671177278937],[121.33141191096652,24.96802221190298],[121.33104642362858,24.968281945789624],[121.33018754653251,24.968202923666862],[121.32975864433767,24.96841312569483],[121.3292376096975,24.969644440048377]]],[[[121.38614027923235,24.973626691441186],[121.3852249426855,24.97528884878286],[121.38522172688778,24.975828677513267],[121.38634630598366,24.976560916464216],[121.3862486807615,24.97758529446478],[121.38671066700206,24.978104330721834],[121.38763620900379,24.97800394621735],[121.3890024180096,24.976562721406207],[121.38973436932751,24.976727806546258],[121.38981817314199,24.977232767416073],[121.3893983910871,24.977607504568947],[121.3889238209007,24.97880787058084],[121.38915730400086,24.97931751467415],[121.38971777401315,24.979527402576576],[121.39027691187714,24.979314583385587],[121.39135281228508,24.977712798499894],[121.39175333597134,24.977516305561313],[121.39223230834828,24.97767109506588],[121.39264551330542,24.978420357943754],[121.39357347706434,24.979206953915668],[121.3940563161257,24.979342313652577],[121.39460092857877,24.979130166882385],[121.39478034246598,24.978365521874267],[121.39394004447198,24.97713116623751],[121.39412073402652,24.976676317917196],[121.39474650273304,24.976130601735225],[121.39489354965282,24.97499716962152],[121.39521873838514,24.974654766371348],[121.3957237388291,24.974659919652385],[121.39712818806098,24.97548328206883],[121.39873842625934,24.97585920214686],[121.3997716084122,24.97560688562433],[121.4002424523919,24.974790473751558],[121.40009904467993,24.974379312734865],[121.39963829820168,24.974072313570836],[121.39849211242434,24.974284453127414],[121.39771687209029,24.974144099159336],[121.39643427173776,24.973126749795014],[121.39479989351241,24.97252103521849],[121.39369203585376,24.972386371830435],[121.392915328519,24.971452226551857],[121.39142371867534,24.971650076049247],[121.39105834762037,24.971402839518205],[121.39044085517202,24.970318882525316],[121.38962781324688,24.969617158383254],[121.38918763002984,24.96949669647578],[121.3886392764058,24.969700585250834],[121.38841095303655,24.970092661462317],[121.38880071492126,24.970993219497387],[121.38883816719378,24.971868653401405],[121.3884727388371,24.972129572016712],[121.38772982209775,24.972035684540824],[121.38718522855186,24.97224780613898],[121.38614027923235,24.973626691441186]]],[[[121.40791484091461,24.98011446692244],[121.4079167417673,24.980690711452997],[121.40849873645952,24.98114930394133],[121.40911779369121,24.981141938652044],[121.40958283839092,24.98067293378005],[121.4095747542732,24.980108684041728],[121.40899356053419,24.979650695631236],[121.40838763287854,24.979652359287183],[121.40791484091461,24.98011446692244]]],[[[121.41590033380163,24.988920790029034],[121.41611491000448,24.98998319088074],[121.41585935688995,24.99086074895265],[121.41634123256706,24.99211649187202],[121.41609073162837,24.993351791321903],[121.4168750548393,24.99410534482835],[121.41827695134987,24.994016362397875],[121.4188149262444,24.994908143319066],[121.41816727430697,24.997225491953103],[121.41853302814827,24.997844501718394],[121.41921844820715,24.998010198149725],[121.42004387731893,24.99781879829729],[121.4222614660026,24.99823059784564],[121.42314644556119,24.99797903667633],[121.42415427707913,24.99843209764921],[121.42539086426667,24.997945978373558],[121.426276364835,24.998804688127684],[121.4267283921686,24.99893289735882],[121.42738564404132,24.99861030812593],[121.42770011825424,24.997485885872393],[121.42803622849921,24.997206494809543],[121.42944975511328,24.99725035504497],[121.43005591490127,24.997613245037442],[121.4309720935662,24.997794989004387],[121.4317184859153,24.997415102642535],[121.4318808824586,24.996397571125414],[121.43132417987225,24.995345543205186],[121.43154561300558,24.995041429661306],[121.4323256533234,24.994859485703547],[121.43273967018436,24.994473417561522],[121.43271781962969,24.99254616891317],[121.43336325450991,24.991621114805277],[121.43350653231948,24.990990416410774],[121.4336230173929,24.989703062516565],[121.43306409861982,24.988020682127615],[121.43341374443202,24.986995621480332],[121.43277889409568,24.986441415951095],[121.43127144815226,24.98673737400334],[121.43022766970606,24.985677242048066],[121.42867900004114,24.98513770907571],[121.42789198587245,24.984518283843325],[121.42792503088583,24.983635650086935],[121.42737318181865,24.982887874253816],[121.42617215098758,24.98267766808714],[121.42560368823013,24.982182479169392],[121.42499508702812,24.9820679221484],[121.42266785298929,24.982536987887944],[121.42229122749752,24.983079628137634],[121.4223122039864,24.983898985305927],[121.4219023808761,24.984220160929677],[121.42067867832114,24.98438293020632],[121.41974656660197,24.983954926811084],[121.41883786039025,24.984148525298842],[121.41808766232306,24.98384433196056],[121.4171303694481,24.98392179859766],[121.4161797233855,24.98473959630941],[121.41613646435634,24.986098950369794],[121.41682563743115,24.98714208814831],[121.41590033380163,24.988920790029034]]],[[[121.43719877979488,25.003338934106054],[121.43790629809196,25.004164094678526],[121.43884817511695,25.004811304339118],[121.43887906236105,25.005641671999456],[121.43825654226809,25.0066359148547],[121.43807814261255,25.00740713449122],[121.43892907683825,25.0099058984185],[121.43948976800263,25.010115595053616],[121.44038287750806,25.00987307948972],[121.44112759766374,25.010101701695348],[121.44239146664553,25.009510641990623],[121.44313573236954,25.009560379682103],[121.44426791636928,25.010842798802788],[121.44556456765481,25.010913308570867],[121.44641853822024,25.011417766317603],[121.44678880570592,25.012153292906536],[121.44733871413054,25.012354094067934],[121.4482164266296,25.012007310736216],[121.44847316157474,25.011019702087133],[121.44911350025635,25.010410234549557],[121.44911149171828,25.009857950356604],[121.44865560189359,25.009261576956828],[121.44876175013374,25.008819151114484],[121.44933874347232,25.008394876825772],[121.4496963228096,25.007773299478522],[121.45094368754678,25.007427547550073],[121.45137162212934,25.00587799215636],[121.45258394468239,25.005456672123092],[121.45291399219484,25.004986597200695],[121.45365103698296,25.004553358238002],[121.45381003362873,25.003950486278583],[121.45363101296176,25.003477281500622],[121.45293481816617,25.00293167076435],[121.45265023386602,25.001771452900304],[121.4509833880053,25.001482125898896],[121.44967254979919,24.99956984272489],[121.44813370614082,24.999704455060808],[121.44771682307265,24.998692965307075],[121.44736615942772,24.998422547355986],[121.44558538503877,24.99842416128053],[121.44526200410446,24.998876450075745],[121.44524995680277,24.999705551777073],[121.44463392640569,25.000505894081982],[121.4441697853389,25.00066902253407],[121.44338971259698,25.000125303368222],[121.44363950331234,24.999048040850948],[121.44340575837502,24.998538487028654],[121.44145652182823,24.99799760403245],[121.4399550153946,24.998182387195193],[121.43946631424497,24.998487448966447],[121.43910614923921,24.999856158858485],[121.43775689232125,25.00070600323738],[121.43709427388981,25.001752708521792],[121.43719877979488,25.003338934106054]]],[[[121.45495784282606,25.01108616364502],[121.45459860903509,25.01248038010081],[121.45532806227305,25.0132985305324],[121.45578298398074,25.0134180984874],[121.45694889269791,25.013184836752558],[121.45765809295227,25.013622812350402],[121.45771491093991,25.01413088082246],[121.45696870447225,25.015131125865885],[121.45739814215639,25.01625311791087],[121.45727678721794,25.017256693396764],[121.45769365253251,25.017640273307986],[121.45864912005752,25.017890627923304],[121.45910452295308,25.018626672926768],[121.45999578248907,25.01894897713482],[121.46051056598999,25.01959154524076],[121.46120099605209,25.019819791952983],[121.46222965610679,25.019550561498818],[121.46293057488465,25.020058283830643],[121.46399038640506,25.02037338681707],[121.46557415539598,25.019843808032167],[121.46699789929917,25.020098130231],[121.46777121231987,25.01966678135229],[121.46835272007036,25.01885743509306],[121.46825547102812,25.017880154614055],[121.46876583321693,25.017057528855535],[121.46864553150866,25.016516231362708],[121.46788375163803,25.01582552846537],[121.46788637443285,25.01522447357161],[121.46950358037837,25.012922408919632],[121.47020355389454,25.01246261446895],[121.47053241739644,25.01128937291815],[121.47140644811434,25.010690609306895],[121.47168880035176,25.009824762499697],[121.47122415730942,25.009292899431145],[121.46968548656687,25.008875832150906],[121.469228091524,25.007944191712564],[121.46771000558832,25.007028782852903],[121.46696729984144,25.007097799662315],[121.4663003167889,25.007832109704008],[121.46473737516384,25.008045010707733],[121.46397390375974,25.007200746829923],[121.46305988163184,25.006926027749376],[121.46239289758705,25.00627371721475],[121.46167454695575,25.00618696289057],[121.46097223445311,25.006537973545612],[121.46028517150825,25.00653923774864],[121.45981407564996,25.006269334535595],[121.45935600310231,25.005607615649584],[121.45876386449399,25.005491859780435],[121.45752710302793,25.005749666890036],[121.45701558489043,25.006137016103878],[121.45673984406149,25.007497033854587],[121.45699148554543,25.008280408237923],[121.45660099555414,25.009511797516957],[121.4567296745488,25.01055409467226],[121.4563541871956,25.010866317210258],[121.45495784282606,25.01108616364502]]],[[[121.64066754962413,25.060664898410042],[121.64125673953669,25.062129043831984],[121.64185879023839,25.062767630302666],[121.64200250813671,25.063607829783365],[121.64336962266249,25.06449185338246],[121.64411255574706,25.064421951055234],[121.64458542719608,25.063764557985817],[121.64550976224562,25.06315326510052],[121.64664136691394,25.063613273464203],[121.64899824576507,25.06367543264306],[121.6496805575066,25.06402374597533],[121.64965130505965,25.064625026873234],[121.64872132297822,25.065257585048865],[121.64712291319728,25.067382319292847],[121.64628161741115,25.067684457584217],[121.64599153491913,25.068009555690004],[121.64606829522411,25.06868624776459],[121.64700403120437,25.069419160123942],[121.64774699144328,25.069349239102124],[121.64843381955536,25.068451456492912],[121.6493828074615,25.06841339154238],[121.6496951651543,25.06865642809568],[121.65001323049822,25.069505926779826],[121.65042348143336,25.069694657421795],[121.65166974595033,25.069706664441416],[121.65229068734291,25.071015311018673],[121.65323522755268,25.07138966331709],[121.65397613896741,25.070989258516402],[121.6544846981537,25.06986274025182],[121.65630075750094,25.069413037693728],[121.65794981130244,25.069983556224464],[121.65860677010846,25.070726445554477],[121.65912852186732,25.072034904846017],[121.65977443334033,25.072352076754093],[121.66079973585256,25.071705162082075],[121.66275779052388,25.0714600076604],[121.66336459883269,25.07106599695569],[121.664748571888,25.0708619788462],[121.66517521688097,25.070469551985394],[121.66542772471615,25.067013721647],[121.6640866422982,25.064986729102152],[121.66451806274422,25.06406986233017],[121.66447916637483,25.063652749100704],[121.66358995884687,25.062548955696936],[121.66330579044008,25.061394077365158],[121.66229235453648,25.061020332191465],[121.66171227109525,25.060555412052558],[121.66061914894746,25.06058466525043],[121.65966075699814,25.05978953461478],[121.6585324564589,25.060109096224835],[121.65732562597555,25.059608050607466],[121.65608078793869,25.06007855727101],[121.65470974124388,25.059708849983],[121.65377084258006,25.060299244225277],[121.65318542802565,25.061207818127833],[121.65214828046669,25.061028635590123],[121.65118815104944,25.061272444966768],[121.65059231966426,25.060765955176677],[121.64973106436966,25.059140257087524],[121.64792770554709,25.058928234780257],[121.647476602309,25.05905970336841],[121.64669754882362,25.059780427661465],[121.645622018968,25.05940143449696],[121.64363213899813,25.059637551562744],[121.64281712562263,25.06019481249722],[121.64134477821673,25.0598385463818],[121.64086495720548,25.06013358424425],[121.64066754962413,25.060664898410042]]],[[[121.66681462481422,25.078176719643917],[121.66730009943453,25.078634990496564],[121.66788290567357,25.078733300431335],[121.6683854334243,25.07842421236379],[121.66850079234669,25.077882032639227],[121.66798204994109,25.077295315993833],[121.6673866974529,25.07719029906675],[121.66687675476655,25.077510781356427],[121.66681462481422,25.078176719643917]]]]},"properties":{"city":"newtaipei","minutes":15,"minutes_label":"15分鐘"}},{"type":"Feature","geometry":{"type":"MultiPolygon","coordinates":[[[[121.35001510463553,24.955531903573036],[121.35075374941218,24.956685765882025],[121.3522009628609,24.956754557201105],[121.35272444218121,24.95767365267065],[121.35404701274928,24.95796103781594],[121.35470206066468,24.959190393299753],[121.35544064601513,24.959392720355222],[121.35632328967525,24.95901544314786],[121.35665505333519,24.958568282794776],[121.35653879640479,24.958014022425445],[121.35582351829518,24.957329249116746],[121.35588422869513,24.956691639089417],[121.35634710765606,24.956209172778028],[121.35680127499188,24.956187742171114],[121.35746717977163,24.956565929660307],[121.3584512201257,24.95773750744931],[121.3590433725636,24.957740544972786],[121.35974130793943,24.95731431540902],[121.36014495724851,24.955388723924887],[121.36001132640091,24.954617088195523],[121.36062132898701,24.952830399891685],[121.36003235618074,24.952157439576705],[121.35966985341022,24.95092958898632],[121.35936491015507,24.950599663183045],[121.35789128764485,24.95021837701391],[121.3557514486166,24.950172822971766],[121.35502543646852,24.949600333139017],[121.3537106766111,24.94920457672237],[121.35321451130442,24.94952074007863],[121.35252325657461,24.95164236407092],[121.35186229046586,24.952298968374077],[121.35202882728537,24.953558496938133],[121.3512085798636,24.9543573212691],[121.35021775902716,24.95474146295805],[121.35001510463553,24.955531903573036]]],[[[121.3322311185756,24.97349120490462],[121.33210573667675,24.97404381273417],[121.33262730356846,24.974757720871555],[121.33265044282324,24.975563683329355],[121.33338304499065,24.97600750741529],[121.3345737021332,24.975246257127907],[121.33500505172206,24.974243612117746],[121.335833385937,24.9740671006209],[121.33721982237043,24.973257109011108],[121.33803371288336,24.972022617830554],[121.33767867881498,24.97078261499342],[121.3390713983758,24.969011873414598],[121.33888074925834,24.968089268670422],[121.3384507177735,24.96788099529094],[121.33787116204016,24.967992003655876],[121.33677759366232,24.969387828255524],[121.33637830406948,24.96956779883955],[121.33591190251931,24.969409156994146],[121.3351707899025,24.96839163182338],[121.334728631675,24.96827847478019],[121.33419470704192,24.96848148123842],[121.33373937046231,24.96934778318009],[121.33218088124761,24.97118528616837],[121.3322483512191,24.97185082612351],[121.33296761384531,24.9722921321056],[121.33314270281056,24.972674779487903],[121.33296967584732,24.97305820559985],[121.3322311185756,24.97349120490462]]],[[[121.38745525088586,24.972726320196422],[121.38689375179833,24.97315615680547],[121.38696902548503,24.97383301367707],[121.38807481001521,24.97437948360697],[121.38834141708301,24.97561161170719],[121.38969071084273,24.97588247430033],[121.39003431989596,24.976827627114925],[121.39053908884358,24.977133142600263],[121.39112057562797,24.977030680232808],[121.39228344144348,24.976241073055835],[121.39340909502064,24.976770963222883],[121.39404388850018,24.976658171673833],[121.39478855583621,24.975957972269562],[121.39489354965282,24.97499716962152],[121.39527164982064,24.974635610132978],[121.3957237388291,24.974659919652385],[121.39729121430875,24.975525854908142],[121.3978707486782,24.975414615562975],[121.39820589456421,24.97495450280513],[121.39808594496006,24.97441314056929],[121.39689960088798,24.97334705905396],[121.39492071992929,24.97255409527899],[121.39369203585376,24.972386371830435],[121.3929016284745,24.971447798970374],[121.39147650957403,24.97167266591273],[121.38979100955751,24.970524857785918],[121.38920955210021,24.970627314691576],[121.38890656055818,24.970958766521065],[121.38916832684644,24.972067629560307],[121.38901632666345,24.972458387999275],[121.38745525088586,24.972726320196422]]],[[[121.40791484091461,24.98011446692244],[121.4079167417673,24.980690711452997],[121.40849873645952,24.98114930394133],[121.40911779369121,24.981141938652044],[121.40958283839092,24.98067293378005],[121.4095747542732,24.980108684041728],[121.40899356053419,24.979650695631236],[121.40838763287854,24.979652359287183],[121.40791484091461,24.98011446692244]]],[[[121.41832351115589,24.991470492295846],[121.41872632912826,24.993190252808436],[121.419369108174,24.99367801911873],[121.41967646782602,24.994509237612238],[121.42125867374548,24.995117536608728],[121.42184055793166,24.99589563475178],[121.42543669806132,24.996488403238402],[121.42592318449394,24.995820335416308],[121.42550426936002,24.99492809849894],[121.42554296056063,24.994270558870777],[121.42645917323628,24.993445948770923],[121.42705515383841,24.993482287338725],[121.4276264015997,24.994308323668818],[121.42864941774884,24.994763766660665],[121.42958655353544,24.994909871911947],[121.43010373100346,24.99459959645534],[121.43057220304246,24.99369134658252],[121.4302729566203,24.99246323780438],[121.4309203179751,24.991119017554137],[121.43086782151656,24.990666840226368],[121.4302415772199,24.989696295718645],[121.4307807326604,24.988882027912567],[121.43077880799625,24.98832974075843],[121.43017856467725,24.987828254790536],[121.42842618452872,24.9874861971863],[121.42743427721965,24.98681946008019],[121.42624445400821,24.986586103451437],[121.42582091200921,24.985674819158792],[121.42530563521233,24.985358904365206],[121.42359811461097,24.985440694628906],[121.42324939963522,24.985713160651354],[121.42297253581505,24.986488039116725],[121.42228111033359,24.986696998920053],[121.4217612392562,24.986574565093083],[121.42060077247733,24.985691201179986],[121.41998165541062,24.985687284598193],[121.41946804907727,24.986230808391532],[121.41878619525045,24.988773610360802],[121.41882084684967,24.990610923920016],[121.41832351115589,24.991470492295846]]],[[[121.43871691170742,25.004110121681293],[121.43894489633045,25.004677299791492],[121.43885848757617,25.006050069960967],[121.43908949768459,25.006440865069596],[121.43999202121982,25.00671627854909],[121.44055725520379,25.007156288029623],[121.44186905506743,25.007242725293878],[121.44295966064732,25.008020569585955],[121.44373837298207,25.0080579612595],[121.44436556725393,25.008464172298318],[121.44517899373136,25.00857120401298],[121.44582440701492,25.009671035929763],[121.44639490832284,25.00989049440007],[121.44695408176112,25.009677462553483],[121.44771301359394,25.008658737851473],[121.44756547621384,25.00766585411682],[121.4477313752492,25.00732300749728],[121.44838587512494,25.006983157417128],[121.44889078921584,25.006302813848848],[121.45009885204853,25.006183299717957],[121.45057893413993,25.005888871659984],[121.45110383476748,25.00408190067282],[121.45076536325132,25.003095746896754],[121.4483817135907,25.00191134008085],[121.44768753590887,25.00069529232147],[121.44652210116321,25.000733734408563],[121.44570019675459,25.00044860468583],[121.44406839436051,25.00065764294604],[121.44347244240033,25.000265251890124],[121.44313916435368,24.999630488020543],[121.44257851510828,24.99942080428],[121.44203012067803,24.999624889542176],[121.4416552020279,25.000286797929792],[121.44082412054598,25.00075538746149],[121.44032436851104,25.00149732449631],[121.44008528033932,25.002396923875434],[121.43880415511205,25.003487133268102],[121.43871691170742,25.004110121681293]]],[[[121.45797094171655,25.01177821657521],[121.4576464172095,25.013019629202514],[121.45777745325641,25.013558439353325],[121.45835223050452,25.01394529920689],[121.45945134928148,25.01417687094354],[121.45975719348137,25.014471029615777],[121.45939125210353,25.0162924129957],[121.45961463167127,25.01680538778614],[121.46076472947449,25.01750083021554],[121.46292565365921,25.01767000092663],[121.46348785024557,25.0183338533281],[121.46403781247635,25.01853459178793],[121.46524274515836,25.018137061930727],[121.46723697675083,25.017869411630237],[121.46832955127795,25.01706839162428],[121.46845436289442,25.016515679483337],[121.46788375163803,25.01582552846537],[121.46786891923858,25.01527170608408],[121.46931968974178,25.013375131015046],[121.46935936283039,25.012626290129933],[121.46978678241507,25.011838300494436],[121.46955290520333,25.01132879052281],[121.46874595147156,25.010948578973075],[121.46790738120606,25.010115395819724],[121.4675570050041,25.00939319788604],[121.46583521894007,25.008375886567233],[121.46521603258783,25.008383489655547],[121.46447690049385,25.008988486338275],[121.46306885323239,25.00921092159059],[121.46203773685006,25.008763206391475],[121.46143983598746,25.008245073912597],[121.45940751576615,25.008048706792856],[121.45867273558066,25.008508906436756],[121.45882197596832,25.010801383379146],[121.45797094171655,25.01177821657521]]],[[[121.6447019972536,25.062704357319653],[121.64512455664268,25.06309984925549],[121.64662724011016,25.06361011566097],[121.64894047709086,25.06366788529773],[121.64952572254303,25.063860377733704],[121.64971075814502,25.06453368708616],[121.64863309519004,25.06535749932038],[121.64798654082414,25.066330465371973],[121.64798944620023,25.06688272693131],[121.64843396333536,25.06727576655804],[121.6493466533515,25.0672528139167],[121.6500110711676,25.06766456940566],[121.65094918977917,25.067749152736592],[121.65166315906787,25.06839166906208],[121.65306962763144,25.06834062654062],[121.65348858825777,25.068139357873086],[121.65371713170487,25.06761488396643],[121.6533631115499,25.066575315738863],[121.6536671478245,25.066266793680423],[121.65420563993038,25.066183302900278],[121.65465620869793,25.066401585728173],[121.65501946195548,25.067243744740885],[121.65594774592044,25.067500613401354],[121.65673229757813,25.068116030070406],[121.65694328915974,25.069419364273102],[121.6578766743406,25.069919046885374],[121.65889783324324,25.069794585139864],[121.66015894234154,25.070017328668758],[121.66091656526744,25.069544952075052],[121.66191007257981,25.069535661944073],[121.66286020140417,25.068700863808992],[121.66301519193159,25.067405455960927],[121.66233922551983,25.066722573655525],[121.66230741643521,25.065767406912023],[121.66159078974742,25.065032128992232],[121.661609407123,25.06389811047073],[121.66074748144644,25.06276231397939],[121.65936107138127,25.06271456972188],[121.65855843904879,25.06344051199065],[121.65804200183473,25.063522906469544],[121.6570572923764,25.06308177562436],[121.65682282533582,25.062133184465214],[121.65629150334543,25.061681422434958],[121.65569886884029,25.0616795769742],[121.65514655191467,25.062110710830908],[121.65469665852584,25.062173526712446],[121.6539958950882,25.06168443361043],[121.6523170258804,25.061044978712196],[121.65107214478975,25.061243750138452],[121.65037903340128,25.060477074036953],[121.64982859418214,25.060277035183663],[121.64683894485026,25.06093357614772],[121.64565523391991,25.060807200866442],[121.64469427303551,25.062117348308213],[121.6447019972536,25.062704357319653]]],[[[121.66676880631302,25.07804156238665],[121.66710573248626,25.07849825827515],[121.6677284137779,25.07874786048825],[121.66828749648103,25.078533998822202],[121.66851678019805,25.078022733524513],[121.66828195702729,25.077513558260204],[121.66754118744768,25.077175739402048],[121.666892780304,25.07748870315937],[121.66676880631302,25.07804156238665]]]]},"properties":{"city":"newtaipei","minutes":10,"minutes_label":"10分鐘"}},{"type":"Feature","geometry":{"type":"MultiPolygon","coordinates":[[[[121.35265226641263,24.955860000167032],[121.35288309010146,24.95685328624719],[121.35336489108468,24.957145122672888],[121.35505478410552,24.957034822867936],[121.35572752974251,24.956784124466804],[121.35639861108307,24.95606912052817],[121.35751689826023,24.956186122517707],[121.358061473866,24.955974109190315],[121.35827621612628,24.955322556148012],[121.35738260969464,24.95340191358973],[121.35738159980934,24.952537660937637],[121.35716391368167,24.95216870535582],[121.35627933453652,24.951548930687206],[121.3556907210981,24.951483047753246],[121.35481372129681,24.952085174624813],[121.35382597302477,24.952120337045386],[121.35298895706457,24.95271577328341],[121.3527741912162,24.953367319188878],[121.3533597271628,24.954291438044255],[121.3531779941544,24.955191361250282],[121.35265226641263,24.955860000167032]]],[[[121.33462592371565,24.972537028875347],[121.33478485879485,24.973684593709514],[121.33534886660496,24.9741117022636],[121.335833385937,24.9740671006209],[121.33723056847474,24.973248186590236],[121.3380485393322,24.9718818046685],[121.33712567749212,24.97011957993475],[121.33626254374252,24.96996510589132],[121.33543696244122,24.971000650173714],[121.33419994833812,24.971263803825078],[121.33398861887574,24.971928167218366],[121.33462592371565,24.972537028875347]]],[[[121.38999509599024,24.97234366163149],[121.38956390950977,24.97364281147644],[121.38978173024373,24.974011717057465],[121.3906878708767,24.974328880923547],[121.39146008136933,24.97492854997022],[121.39226256516591,24.974822776151537],[121.39328509494594,24.974180445699997],[121.39500369258234,24.974522270707883],[121.39568118410801,24.974282498488833],[121.39600677607751,24.973817202449304],[121.39588474635363,24.973288950207376],[121.39508319737526,24.972632704674627],[121.39369203585376,24.972386371830435],[121.39318244215762,24.971617764059776],[121.39275230909594,24.971409648813015],[121.38999509599024,24.97234366163149]]],[[[121.40790866524823,24.980126461528872],[121.4079167417673,24.980690711452997],[121.40851243812064,24.981153730061177],[121.40911779369121,24.981141938652044],[121.40958769430692,24.9806604451447],[121.40951494729653,24.980007434631712],[121.40897985902389,24.979646269552884],[121.40837451075134,24.97965806031045],[121.40790866524823,24.980126461528872]]],[[[121.42104544624125,24.990959642432404],[121.42183384278539,24.99256076638697],[121.42272808089118,24.993427488105386],[121.42420216306424,24.993866573238414],[121.42568693005181,24.99397687604851],[121.42620411366069,24.993666614030154],[121.42651605627344,24.99285767345475],[121.42758211053504,24.992279308033712],[121.42828282997587,24.990741290301067],[121.4279541009585,24.990277807992154],[121.42710052985959,24.990043246452835],[121.42547425361714,24.988705491411185],[121.42415358030644,24.98887073786185],[121.42345831191435,24.988265561612632],[121.42287799156765,24.98815752063218],[121.42133978004412,24.98960102908216],[121.42104544624125,24.990959642432404]]],[[[121.44152902166614,25.004617384120692],[121.44188232417385,25.00520309211981],[121.4429386505239,25.005357423629178],[121.44356832221679,25.006257039033237],[121.44460234385623,25.006427090464236],[121.44512331474434,25.007244221327944],[121.44582406214596,25.007441553689343],[121.44641882733819,25.006993758578865],[121.44647196711807,25.005623572604616],[121.44752723914526,25.005386355183692],[121.44788907739924,25.00510812844952],[121.44809908918656,25.003756286030825],[121.44701574489378,25.002336494304426],[121.44507548719452,25.002389950321703],[121.44437156676872,25.00133858347829],[121.44367085635784,25.001141243602103],[121.44314625284954,25.001462952677638],[121.44299164633316,25.00222201643274],[121.44240709671696,25.003208636441236],[121.4416369451072,25.003730346128258],[121.44152902166614,25.004617384120692]]],[[[121.46045608517439,25.012859567786425],[121.46028180996302,25.014583707939863],[121.46121098142135,25.01534642028041],[121.4624092723879,25.015304588257266],[121.46336164655403,25.015735733034116],[121.46469349048688,25.015899687239905],[121.46703782463642,25.014859900522307],[121.4673868348399,25.014272048848387],[121.46686781846464,25.012909839216206],[121.4657521603325,25.012239965983714],[121.46515798643928,25.011232242431532],[121.46364204672604,25.011262791247777],[121.46198592542018,25.010861012336424],[121.46147265797691,25.010981833093062],[121.46117593738988,25.011301432279925],[121.46111292850205,25.01211201849323],[121.46045608517439,25.012859567786425]]],[[[121.64816325865696,25.062797823918775],[121.64852085018798,25.063476521294376],[121.64939458041066,25.063763787743145],[121.65011444844671,25.06434046136586],[121.65024636038,25.065386337810004],[121.65069087903717,25.06577937072167],[121.65190429607105,25.06592942089768],[121.6532241346993,25.065247938646024],[121.65442130984678,25.065503517973163],[121.65525849618915,25.064809506195623],[121.65524444162364,25.06425779191676],[121.65452477563198,25.0635273172579],[121.65457361630887,25.062600744866184],[121.65393779781877,25.06198002376809],[121.65287193123592,25.062107132890795],[121.65182418636644,25.061760371567985],[121.6507833927965,25.062356514245582],[121.64879652522869,25.062100575240922],[121.64838223830856,25.062309683241995],[121.64816325865696,25.062797823918775]]],[[[121.6582857956281,25.06705407260631],[121.65865174784817,25.068194608202486],[121.65974675640132,25.068447383601413],[121.66127742883099,25.06953848129224],[121.66191007257981,25.069535661944073],[121.66258464708429,25.068912169809582],[121.66251395099371,25.068223483454833],[121.66074857360837,25.06673099249674],[121.66003918294288,25.06528562522137],[121.65968787220692,25.06501572236478],[121.65894420664166,25.065073229488146],[121.6578786632438,25.065922441168784],[121.65780410424269,25.066587321973202],[121.6582857956281,25.06705407260631]]],[[[121.6667672814581,25.0777600233771],[121.66688851526006,25.078301138998665],[121.66743864302252,25.078698700561656],[121.66803131001899,25.07869157059625],[121.66846280399352,25.078286637830484],[121.66838862102664,25.077633787693728],[121.66783095463889,25.077224899211636],[121.66711412284813,25.077292455896607],[121.6667672814581,25.0777600233771]]]]},"properties":{"city":"newtaipei","minutes":5,"minutes_label":"5分鐘"}}]}