{"type":"FeatureCollection","features":[{"type":"Feature","geometry":{"type":"MultiPolygon","coordinates":[[[[121.3665326291737,24.951377535024925],[121.36563535868332,24.9494175739959],[121.36433596010237,24.94765485401893],[121.36268437703738,24.94615710575634],[121.36074407848596,24.944981876491976],[121.35858961982393,24.944174320194477],[121.35630377908679,24.943765463709852],[121.35397437838245,24.94377101549478],[121.35169091220288,24.944190762506963],[121.34954111170988,24.945008578345092],[121.34760757649514,24.946193042332784],[121.34596460276414,24.947698645853276],[121.34467532946468,24.94946753974971],[121.34378931183558,24.951431755862586],[121.34334061563092,24.953515817571084],[121.34334650546897,24.955639639235173],[121.34352054348274,24.95669092851041],[121.3442024552762,24.95872173692745],[121.34530588622042,24.960592236784404],[121.34678844459394,24.96223053704455],[121.3485931606361,24.963573668532124],[121.35065067523175,24.96457000535851],[121.35288190608624,24.965181250415295],[121.35520108881776,24.965383908397907],[121.35751907579495,24.9651701895557],[121.35974676549516,24.964548309309766],[121.36179853006725,24.9635421721843],[121.3635955088543,24.962190452251924],[121.36506864086685,24.960545105571157],[121.36616131938109,24.958669371986723],[121.36683156655258,24.956635343320173],[121.36705364459183,24.9545211916381],[121.36699327394584,24.953459424443583],[121.3665326291737,24.951377535024925]]],[[[121.34794478288427,24.969508937697245],[121.34704766996961,24.967548867646407],[121.3457483401616,24.965785988972584],[121.34409673445178,24.964288038434894],[121.34215632272871,24.963112571081783],[121.34000166472792,24.962304750017307],[121.33771554614407,24.961895612244728],[121.33538579974964,24.9619008770122],[121.3331019332986,24.96232034229119],[121.33095169330606,24.96313789249561],[121.32901769622278,24.964322117151955],[121.32737425597566,24.96582751684267],[121.32608452941963,24.967596250252644],[121.32519808920138,24.969560355404013],[121.32474901731612,24.97164435995771],[121.32475459283226,24.973768180488417],[121.32492850058168,24.974819490308544],[121.32561021191749,24.97685038105928],[121.32671352861836,24.978721015392637],[121.32819606338312,24.980359497105812],[121.33000084738313,24.98170285004451],[121.3320585189077,24.982699439798196],[121.33428998963623,24.9833109595224],[121.33660948596142,24.983513903338928],[121.33892784818248,24.983300470495138],[121.34115596033006,24.9826788654072],[121.34320817828825,24.981672982016523],[121.34500562394679,24.980321484643103],[121.34647921834984,24.97867632079799],[121.34757233698816,24.976800723311367],[121.3482429850989,24.97476677879082],[121.34846540949198,24.972652656087526],[121.3484051873027,24.971590882267748],[121.34794478288427,24.969508937697245]]],[[[121.40300529770181,24.96759496064326],[121.40170517713064,24.965832579708007],[121.40005290224144,24.964335257802237],[121.39811196857576,24.96316052581676],[121.39595695586888,24.962353518614872],[121.39367066340232,24.961945241958322],[121.39134093060703,24.96195138204825],[121.38905726471486,24.962371703266776],[121.38690740455833,24.963190057179496],[121.38497395203622,24.964375002461097],[121.38333120020691,24.965881012019178],[121.38204227953307,24.96765022110145],[121.38115673174991,24.96961464943121],[121.38070860460131,24.971698812215116],[121.38071514087372,24.97382261990191],[121.38117611249251,24.975904455420906],[121.38157215053819,24.976904483215396],[121.38267630859833,24.978774693252717],[121.38415957795016,24.980412609215914],[121.3859649614731,24.981755276682936],[121.38802307435526,24.9827510875954],[121.39025481126247,24.98336176506667],[121.3925743883237,24.983563835626654],[121.39489264272363,24.983349532129417],[121.39721693824151,24.982685187313958],[121.39787203862645,24.98461568157794],[121.39837387173972,24.98557545123587],[121.3996741570543,24.987337854608185],[121.40132673893413,24.988835172325274],[121.40326810913437,24.99000985293875],[121.40542365261572,24.99081674468564],[121.40771051636914,24.991224832085187],[121.41004079595169,24.991218428926476],[121.4125603708659,24.990720261781828],[121.41276837561144,24.993376364236756],[121.4134516308397,24.99540682936422],[121.41395362922324,24.996366543001873],[121.41525425051017,24.99812880341014],[121.41604034985183,24.998914376189948],[121.41784634714394,25.000256645762967],[121.41884885109422,25.0008004132098],[121.42100468214629,25.00160707431645],[121.42213724318988,25.001862197597955],[121.42329179388717,25.002014918373696],[121.42562227232484,25.00200826853282],[121.42677575042582,25.001848962051536],[121.4290037343923,25.001226044354745],[121.43105552519614,25.00021895688322],[121.43285226121299,24.998866410278513],[121.43363294621477,24.998076368861295],[121.43492143223206,24.996306725651888],[121.43580630548853,24.994341993014302],[121.43625357751405,24.992257681586057],[121.43624608146077,24.99013389390282],[121.43578412853051,24.988052245553853],[121.43488549249392,24.986092728800497],[121.43358472343175,24.984330639177212],[121.43279860828744,24.98354515779841],[121.43099269857302,24.982203065616957],[121.42999029463756,24.981659377343618],[121.42783475699711,24.980852840443365],[121.42554802405321,24.980445060084687],[121.42438280916284,24.98039621865458],[121.42206466824449,24.980610980204467],[121.42069863149442,24.98095004673211],[121.42049048173509,24.978293954556634],[121.41980721037001,24.976263517362288],[121.41870251800846,24.974393588897623],[121.41800481762664,24.973541587654843],[121.41635224386772,24.97204445201118],[121.41541328555921,24.971413733225052],[121.41335514790008,24.970418299889428],[121.41112353667305,24.969807966182238],[121.40996930090313,24.969655146266497],[121.4076394276025,24.96966154315778],[121.40648622217961,24.969820698449453],[121.4041622195161,24.970485184520943],[121.40350709934657,24.968554715550212],[121.40300529770181,24.96759496064326]]],[[[121.45613476579949,25.001010687424635],[121.45523571146855,24.999051302790335],[121.45393451576372,24.99728940005209],[121.452281191283,24.99579267841515],[121.45033927384377,24.99461864568786],[121.44818338091754,24.993812409865495],[121.44589634554298,24.993404947088116],[121.44356603564239,24.993411912316603],[121.44128198058712,24.993833038269067],[121.4391319341522,24.99465214563335],[121.4371985054099,24.995837764171952],[121.43555598654491,24.99734434095044],[121.43426749912666,24.999113989433063],[121.43338256831021,25.00107871245317],[121.4329352181989,25.00316301387061],[121.43294266177637,25.00528679876991],[121.43311753613928,25.00633796598598],[121.43380119941284,25.008368328745966],[121.43430340907564,25.00932796924845],[121.43560445727519,25.01109004298838],[121.43725779059615,25.01258694689151],[121.43819717440775,25.013217518681955],[121.44025622503052,25.014212590485588],[121.44248877856161,25.014822470970678],[121.44364347328249,25.014975031510414],[121.44597418997517,25.014968059462507],[121.44712776000905,25.01480859411773],[121.44935586902848,25.014185370820798],[121.45202235603239,25.0127597106604],[121.45188074820051,25.01437660535443],[121.45211693680963,25.016489460571236],[121.45280097003572,25.018519728122428],[121.4533033689124,25.01947930053363],[121.45460479491567,25.021241200380747],[121.45539129072294,25.022026557292456],[121.45719805008078,25.023368334320033],[121.4582009122795,25.023911829832077],[121.460357397009,25.02471790881847],[121.46149024717319,25.024972727524908],[121.46381070531409,25.025173673921813],[121.46497596023211,25.025117865976085],[121.46726050513885,25.024696370820227],[121.46835778834381,25.024334743939733],[121.4704096297742,25.02332711570311],[121.471344424499,25.02269082060039],[121.47298683183382,25.02118385509106],[121.47427498351917,25.019413881005306],[121.47515938597354,25.0174489268884],[121.47560606887107,25.01536451187236],[121.47559788804695,25.013240742445948],[121.47513518104654,25.01115923346244],[121.47423575062778,25.009199971791595],[121.4729341773874,25.00743824313335],[121.47128048841658,25.005941739992533],[121.46933823351822,25.00476796177614],[121.4682818589603,25.004316723054814],[121.46604937547053,25.00370722803047],[121.4637293183171,25.003506310233266],[121.46141082319366,25.00372168919679],[121.45918296597043,25.004345090446503],[121.45651674357723,25.0057708742665],[121.45659711260612,25.00309226351459],[121.45613476579949,25.001010687424635]]],[[[121.65888958247226,25.055023302270936],[121.65682814457821,25.054031308537922],[121.65459388622422,25.053424682619646],[121.65227264899995,25.05322673151409],[121.65110724522883,25.053284011312776],[121.64882286216607,25.05370832974408],[121.64772587737902,25.054071283096828],[121.64567503136762,25.055081338967927],[121.64474091780298,25.055718716361323],[121.6431001992383,25.05722754407773],[121.64181411875663,25.058998936553873],[121.640932109261,25.06096482955735],[121.64065387496386,25.061997321336797],[121.64043633231134,25.064111776685348],[121.64049912480858,25.065173377268067],[121.64096483414768,25.067254302749344],[121.64136327131331,25.06825358606006],[121.64247217276676,25.0701217638531],[121.64317196084069,25.070972664494434],[121.64482858368665,25.07246718862322],[121.6457694640912,25.073096416393277],[121.64783113947935,25.074088556500584],[121.6489320759816,25.07444191187597],[121.65203848515908,25.07487917721419],[121.65362896779988,25.0763076215794],[121.65570963766301,25.077536592869343],[121.65592484325309,25.080155474183904],[121.6566125890483,25.08218471958403],[121.65711682998328,25.08314356143033],[121.65842182303903,25.084903596195076],[121.65921000944093,25.085687836527228],[121.66101988273415,25.087027065953155],[121.66308191196384,25.088018985110523],[121.66418301506694,25.088372223258737],[121.66647246763384,25.088776276196505],[121.66880449177334,25.08876578281646],[121.6699584246895,25.088604581209292],[121.67218666034428,25.08797801776298],[121.67423782111484,25.086967593278665],[121.67603306976099,25.085612146787685],[121.6775034121014,25.083963777665854],[121.67859234899547,25.082085841909844],[121.67925804676528,25.080050515863874],[121.67947494277342,25.077936021255937],[121.67923472477077,25.07582361837656],[121.67854664683789,25.073794483072717],[121.67743717031063,25.071926587604803],[121.67594894401294,25.070291705172313],[121.6741391634229,25.068952653076707],[121.6729994415391,25.068352991714217],[121.67278390036793,25.065734139348145],[121.67209598853512,25.06370496800774],[121.67098670336999,25.061837017873454],[121.66949868634194,25.060202064252636],[121.66768912489177,25.058862927188194],[121.66562755417776,25.057871058887894],[121.66339318568271,25.057264567977597],[121.66142071349786,25.057080809463073],[121.6598303971223,25.055652443647073],[121.65888958247226,25.055023302270936]]]]},"properties":{"city":"newtaipei","minutes":15}},{"type":"Feature","geometry":{"type":"MultiPolygon","coordinates":[[[[121.36274515199817,24.952435119070625],[121.36214700297425,24.951128463659664],[121.36128075376045,24.949953298106905],[121.36017969758534,24.948954779063918],[121.35888614723831,24.948171274460083],[121.35744980904126,24.94763288974404],[121.35592587328554,24.947360311586188],[121.35437289442339,24.947364013380902],[121.35285054230532,24.947643853007946],[121.3514173106616,24.948189078273092],[121.35012827065265,24.948978739822177],[121.3490329555998,24.949982495703967],[121.34817345802092,24.951161776740367],[121.34758281201252,24.95247126801875],[121.34728372314666,24.95386064967988],[121.34740374169382,24.955977386487927],[121.34785838662127,24.95733124704847],[121.34859403166662,24.958578229820283],[121.34958241196121,24.95967041005412],[121.35078554643617,24.96056581133655],[121.352157197134,24.96123001941142],[121.35364464643779,24.96163750538398],[121.3551907238705,24.961772607353602],[121.35673600443943,24.961630132664197],[121.35822109384445,24.96121555757146],[121.35958891249633,24.96054481663591],[121.36078689033823,24.95964368995946],[121.36176898792894,24.95854681187564],[121.36249746599023,24.95729633927984],[121.36294433537307,24.955940330880264],[121.36309243177278,24.954530899758282],[121.36274515199817,24.952435119070625]]],[[[121.34415658778163,24.970566054310705],[121.34355854386818,24.969259326228844],[121.34269234055745,24.96808405487457],[121.34159126932639,24.967085400964535],[121.34029764355222,24.966301737607097],[121.33886117246008,24.965763176345405],[121.33733705144796,24.965490410626582],[121.33578384208155,24.96549392104476],[121.33426122305941,24.965773572826993],[121.33282769835604,24.966318620992684],[121.33153835038024,24.967108122991128],[121.33044272427601,24.968111743003377],[121.3295829245055,24.969290917076563],[121.32899199677348,24.970600334414943],[121.32869265747921,24.971989678008544],[121.32881237970693,24.97410642780189],[121.32926689105525,24.975460343268395],[121.33000245999678,24.976707415694587],[121.33099082460066,24.97779971688661],[121.33219400441213,24.97869526578032],[121.33356575973845,24.97935964244173],[121.33505336894406,24.9797673114902],[121.33659965540375,24.97990260398147],[121.33814518608392,24.97976031993002],[121.3396305570612,24.979345928259125],[121.34099867791211,24.978675356476685],[121.3421969669532,24.977774378183362],[121.34317937277302,24.976677622012808],[121.34390814424115,24.975427240180544],[121.34435528093104,24.974071287913986],[121.3445036082688,24.97266187614548],[121.34415658778163,24.970566054310705]]],[[[121.40011559454274,24.97061321770496],[121.39951696252994,24.969306721355576],[121.39865023192934,24.968131781791186],[121.39754871445523,24.967133546969777],[121.39625474060564,24.966350373894528],[121.39481803295625,24.96581235527576],[121.39329379597596,24.96554016372258],[121.39174059567664,24.96554425778436],[121.39021811040861,24.965824480280734],[121.3887848390172,24.966370064318873],[121.38749585419662,24.967160046770022],[121.38640068716104,24.968164073359862],[121.38554142475898,24.96934356451084],[121.38495109207035,24.970653197233634],[121.38465238264686,24.972042646225745],[121.38477306191501,24.974159340186176],[121.38522818369107,24.975513077864807],[121.38596431343555,24.976759867374557],[121.38695316764283,24.977851791381973],[121.38815674701532,24.978746883313804],[121.38952879647786,24.97941074080124],[121.39101658306816,24.979817848427373],[121.39256292332875,24.979952558841234],[121.39410838215325,24.979809694447514],[121.39559355838537,24.97939474649297],[121.39696136910139,24.9787236638811],[121.39815924455965,24.977822239855424],[121.39914114927012,24.976725120182895],[121.39986935138724,24.975474471043825],[121.40031587238752,24.974118357925907],[121.4004635613731,24.972708897924775],[121.40011559454274,24.97061321770496]]],[[[121.41615155703869,24.97765576721964],[121.41541511977225,24.976409131030515],[121.41442602887041,24.9753173988913],[121.41322229634049,24.974422520909943],[121.41185017874011,24.97375888226258],[121.41036239990018,24.973351982472447],[121.40881612567273,24.973217456046044],[121.40727076839597,24.97336047201641],[121.40578570525045,24.973775535412965],[121.40441799795363,24.974446698269944],[121.40322020119234,24.975348172089088],[121.4022383438187,24.976445318281794],[121.40151016026245,24.977695978619273],[121.40106364008363,24.979052094667235],[121.40091595145623,24.980461554074925],[121.40126396203564,24.982557229143442],[121.40186267863935,24.98386371511687],[121.40272955197858,24.985038631742448],[121.4038312723446,24.98603682331753],[121.40512550103985,24.986819925292636],[121.40656249746026,24.987357839301374],[121.4080870312262,24.98762989046324],[121.4096405057838,24.987625622387245],[121.41116321169632,24.987345199251706],[121.41259662281055,24.986799399470794],[121.41388564681874,24.98600920119503],[121.41498074350967,24.985004975618956],[121.4158398291408,24.983825319175278],[121.41642989366018,24.982515569593826],[121.41672826863508,24.981126062959394],[121.41672349725725,24.979710198845982],[121.41615155703869,24.97765576721964]]],[[[121.4317318283489,24.98844500205174],[121.43099516922855,24.987198447684705],[121.43000585459382,24.986106823614037],[121.4288019050434,24.985212075791292],[121.42742958546596,24.9845485843897],[121.42594162744454,24.984141843275452],[121.42439520370766,24.984007480861003],[121.42284973233193,24.98415065988203],[121.4213645948783,24.984565879108352],[121.41999685591944,24.985237184592044],[121.41879907136224,24.986138782358978],[121.41781726959641,24.987236029060654],[121.41708918292355,24.98848676260679],[121.41664279719036,24.989842921748203],[121.4164952754134,24.991252392474294],[121.41684358273578,24.99334802431742],[121.417442517066,24.994654442944018],[121.41830961436463,24.995829264241056],[121.41941155631129,24.99682733616493],[121.42070599568531,24.997610298762055],[121.42214318377683,24.99814805902254],[121.42366788283066,24.998419947977055],[121.42522148993253,24.99841551547289],[121.4267442905463,24.998134932013283],[121.428177754877,24.997588982180034],[121.42946678857322,24.996798649895933],[121.43056185105654,24.995794311509748],[121.43142085990685,24.994614567791633],[121.43201080803237,24.993304759825065],[121.43230903148309,24.99191522593584],[121.43230407928215,24.990499366740572],[121.4317318283489,24.98844500205174]]],[[[121.45234657700757,25.002070554000294],[121.45174723869947,25.000764282712858],[121.45087979126451,24.999589661886215],[121.44977757394668,24.998591827215733],[121.44848294411214,24.997809120320568],[121.44704564951476,24.99727161599782],[121.44552091714881,24.996999967102273],[121.44396733203769,24.997004611345535],[121.4424445873027,24.997285370424382],[121.44101119175473,24.997831456846605],[121.43972222286587,24.99862188819603],[121.43862721125589,24.999626292961125],[121.43776823782682,25.000806077037748],[121.43717831658441,25.00211590617778],[121.43688012529951,25.00350544752076],[121.43700173738517,25.00562207821331],[121.43745754995383,25.006975641517247],[121.43819439492394,25.008222158101677],[121.43918396129163,25.009313721104895],[121.44038822236885,25.010208377816546],[121.4417608968536,25.010871742590723],[121.44324922773288,25.011278318951135],[121.44479601060367,25.011412479976332],[121.44634179332839,25.01126906920234],[121.44782716229183,25.010853598894187],[121.44919502716425,25.01018203804958],[121.45039281613526,25.009280198306858],[121.4513744970611,25.008182741419063],[121.45210234672537,25.006931846527845],[121.4525484001806,25.0055755885591],[121.4526955245253,25.0041660901617],[121.45234657700757,25.002070554000294]]],[[[121.47134685396327,25.012219584689678],[121.47074726491715,25.010913395348528],[121.46987956576201,25.00973889055443],[121.46877710540855,25.008741201538946],[121.46748225055302,25.007958664321734],[121.46604475758573,25.007421347180177],[121.46451986111359,25.00714989577955],[121.46296615245762,25.00715474024786],[121.46144332948153,25.007435694594733],[121.46000990400151,25.00798196383154],[121.4587209546428,25.008772558523304],[121.45762601128153,25.009777100886097],[121.45676715220645,25.01095699153002],[121.45617738703984,25.01226689211073],[121.45587938756526,25.013656467018574],[121.45600133795575,25.01577307461755],[121.45645739715606,25.01712657441694],[121.45719449465709,25.01837299163453],[121.45818430974549,25.019464423221372],[121.45938880616657,25.02035892151392],[121.46076169356377,25.02102210695363],[121.46225020673091,25.02142848995831],[121.46379713424982,25.021562451042065],[121.4653430184169,25.021418841431394],[121.46682844171508,25.021003181040133],[121.46819631172735,25.020331446178083],[121.46939405645075,25.019429455176798],[121.47037564545028,25.018331875605544],[121.47110335905268,25.017080891321232],[121.47154923755038,25.015724580682704],[121.47169615477527,25.014315068357902],[121.47134685396327,25.012219584689678]]],[[[121.65843478598929,25.059451251160585],[121.65733037795826,25.058455003263305],[121.65603383397539,25.057674145162693],[121.65459497524517,25.057138680627748],[121.65306908877417,25.056869184174072],[121.6515148038681,25.0568760108661],[121.64999184050934,25.057158898610904],[121.64789324551384,25.058074262480517],[121.64669646808994,25.058977671016073],[121.64571615769498,25.06007638711376],[121.64473134466859,25.06199665166962],[121.6444353694601,25.063386559973114],[121.64444277613289,25.064802355805742],[121.64501893230768,25.066855812653525],[121.64575822395373,25.06810124702119],[121.64675009002772,25.06919137833527],[121.64862578778373,25.070445764730827],[121.65006477883061,25.070981283547276],[121.65159083505796,25.071250806971143],[121.65403562381951,25.071108389836933],[121.65502490654288,25.07250886091651],[121.65675672041165,25.07392455908101],[121.65813123293279,25.074585885895317],[121.66032920494526,25.075082725888116],[121.65998024295892,25.07592745880478],[121.65968441095337,25.077317392115006],[121.65969199767979,25.078733180983207],[121.66000272191222,25.080120417181128],[121.66060465210843,25.081425787993183],[121.66147466349825,25.082599125299165],[121.66320669450889,25.08401474187653],[121.6653154048618,25.084911491105373],[121.66684166407174,25.085180853001336],[121.66916556844082,25.08506639432704],[121.67135290062028,25.084342488460113],[121.67321526353186,25.08307148797742],[121.67419550207853,25.081972594935266],[121.67492148646475,25.08072065401907],[121.67536532354008,25.079363780316882],[121.67550996567242,25.077954120075994],[121.6753498645419,25.076545846394144],[121.67489118280706,25.07519307728013],[121.6741515557459,25.073947796106008],[121.67258022108172,25.07238450268583],[121.67057832758655,25.071303935118724],[121.66838038526781,25.07080724572372],[121.66872927604297,25.069962494346143],[121.66902498988784,25.068572544107205],[121.66889931488147,25.066456193673314],[121.66810457576979,25.064464197172615],[121.6667092404216,25.062768093730764],[121.66550285583044,25.06187531599975],[121.66339454282135,25.060978558591486],[121.66109123973213,25.060677839284956],[121.65942402168525,25.060851695289244],[121.65843478598929,25.059451251160585]]]]},"properties":{"city":"newtaipei","minutes":10}},{"type":"Feature","geometry":{"type":"MultiPolygon","coordinates":[[[[121.3589576089356,24.953492607400307],[121.35822543372991,24.952251680107167],[121.35702812108376,24.95136064896615],[121.35554794692536,24.950955157016455],[121.35401023823188,24.95109693217375],[121.35264907848102,24.951764392383343],[121.35167168153353,24.952855930163444],[121.35122685127686,24.95420537715779],[121.3512868938724,24.955263743647816],[121.3518820695916,24.956564150885484],[121.35297782621682,24.95755792182139],[121.35440734440498,24.95809375524486],[121.35595297917865,24.958090069478246],[121.35737940248123,24.957547425903318],[121.3584694409747,24.956548443345287],[121.35905714651597,24.95524521643702],[121.35913121690137,24.954540502545647],[121.3589576089356,24.953492607400307]]],[[[121.34036832681555,24.971623075082935],[121.33963622717386,24.970382058556954],[121.33843886931673,24.969490880583248],[121.33695853606869,24.969085206545227],[121.33542057862073,24.96922679206473],[121.33405911829941,24.969894083945903],[121.33308141469976,24.970985500332002],[121.332636318381,24.97233489135759],[121.33269621285253,24.973393264362407],[121.33329128378911,24.974693743890374],[121.33438705527708,24.97568764909436],[121.33581670572791,24.976223658315376],[121.33736257002731,24.97622016309759],[121.33878928515665,24.97567769580001],[121.33987963332446,24.97467884840684],[121.34046761922514,24.97337569498053],[121.34054180509733,24.972670990783037],[121.34036832681555,24.971623075082935]]],[[[121.39632783032691,24.971671656711276],[121.39559517288937,24.970430921895087],[121.39439741775449,24.969540198625673],[121.39291690817727,24.969135083070025],[121.39137902216451,24.969277245859946],[121.39001787017797,24.969945045955082],[121.38904066491547,24.97103682415001],[121.38859618112028,24.972386375488973],[121.38865655410228,24.973444720506816],[121.38925221056789,24.974744969616985],[121.39034842651695,24.97573845774837],[121.39177831264327,24.9762739267378],[121.39332416791629,24.976269850403654],[121.39475063069195,24.975726849615178],[121.39584052163475,24.974727597604176],[121.39642791510008,24.973424230032208],[121.3965017818077,24.972719501671595],[121.39632783032691,24.971671656711276]]],[[[121.41249582024592,24.979047928104592],[121.41163307227531,24.9778787253471],[121.41034512944694,24.977099448968463],[121.40882806168023,24.976828728901577],[121.40731281091321,24.97710777680559],[121.40603004275584,24.97789411373074],[121.40517504003964,24.979068035066575],[121.4048779768732,24.980450829764987],[121.40505201411094,24.981498662441297],[121.40578483295687,24.982739346866477],[121.40698279798761,24.983629974309654],[121.40846352576776,24.98403494643463],[121.41000157273929,24.983892605371544],[121.41136276643739,24.983224623226324],[121.4123398671151,24.98213270154494],[121.41278412417677,24.98078308388547],[121.41278176105898,24.980075151475532],[121.41249582024592,24.979047928104592]]],[[[121.42807595595579,24.98983754551834],[121.42721298517002,24.988668437687355],[121.42592483280183,24.987889300012064],[121.4244076006533,24.987618741309543],[121.4228922556724,24.987897948681518],[121.42160947780779,24.988684418912733],[121.42075455137822,24.989858427106235],[121.4204576388962,24.991241248990136],[121.42063182451629,24.992289060032704],[121.42136486419096,24.993529663097767],[121.42256304531314,24.994420161022052],[121.42404395153287,24.994824975185605],[121.425582112109,24.994682471773853],[121.42694333727358,24.994014347620737],[121.42792038249533,24.992922325901368],[121.42836450563789,24.991572665405556],[121.42836205212144,24.990864735441395],[121.42807595595579,24.98983754551834]]],[[[121.44855832173641,25.003130324863417],[121.44782495268022,25.001889861875437],[121.44662651950497,25.000999571761348],[121.44514546863655,25.00059498473978],[121.44360726043449,25.000737691002836],[121.44224605438934,25.001405966810804],[121.44126907145211,25.002498080566376],[121.44082505257374,25.00384777623215],[121.44088589201156,25.004906089547994],[121.44148225145781,25.006206114926684],[121.44257916422558,25.007199204918113],[121.44400963487497,25.007734161960222],[121.44555587332961,25.00772953782904],[121.44698245957765,25.007186036828845],[121.4480721954984,25.006186408379445],[121.4486591790973,25.004882845463804],[121.44873276353259,25.004178097864106],[121.44855832173641,25.003130324863417]]],[[[121.46755846027642,25.01327984020687],[121.46682483996985,25.012039476183222],[121.46562617272104,25.011149343733088],[121.46414494057187,25.010744949071068],[121.46260663146172,25.010887853113587],[121.46124542023693,25.011556302025095],[121.4602685286463,25.012648537865694],[121.45982468375365,25.013998286012757],[121.4598856923587,25.015056587757147],[121.46048230137366,25.016356531671352],[121.46157945613228,25.017349476736122],[121.4630101243358,25.01788424744933],[121.46455648581203,25.01787942396089],[121.46598310180993,25.017335740939203],[121.46707276968515,25.016335975527703],[121.46765959782037,25.01503234156443],[121.4677330787117,25.01432758698602],[121.46755846027642,25.01327984020687]]],[[[121.65611825337437,25.062995041422376],[121.65538245033234,25.061755656151426],[121.65418196425667,25.060867083839568],[121.65269955390505,25.06046459319356],[121.65116088644811,25.060609455364375],[121.64980019127407,25.06127961854677],[121.64882461168844,25.06237306390962],[121.64838267519825,25.063723332682443],[121.64844533402625,25.064781520679357],[121.64904416636321,25.06608065906346],[121.65014326066398,25.067072170075043],[121.65157528917416,25.067605096515585],[121.65312222446686,25.067598299392788],[121.65454854038386,25.067052813979775],[121.65563708005669,25.066051691927132],[121.65622212380458,25.064747353627208],[121.65629454852996,25.064042529423553],[121.65611825337437,25.062995041422376]]],[[[121.66478541435356,25.0665017445524],[121.66391967831305,25.06533407231935],[121.66262926422843,25.064557034591473],[121.66111061799211,25.064288920527535],[121.65959492167832,25.06457054520302],[121.65831290873824,25.06535903755955],[121.65745974721509,25.066534364941727],[121.65716533116597,25.06791760220354],[121.65734164326834,25.06896508794714],[121.65807751063637,25.070204461035683],[121.65927811670903,25.071092998314164],[121.6607606757256,25.071495419658994],[121.66229946513418,25.071350455667638],[121.66366019940176,25.070680177948923],[121.66463570887528,25.069586637657675],[121.66507748545617,25.068236324766694],[121.66507366287732,25.067528430138506],[121.66478541435356,25.0665017445524]]],[[[121.67123563385837,25.076591582928295],[121.67036976426559,25.07542395262185],[121.66907920355665,25.074646975035428],[121.66756041993654,25.074378930169992],[121.66604461638295,25.074660622569056],[121.66476254266622,25.07544917086977],[121.6639093760841,25.076624533905164],[121.66361501147357,25.078007781103157],[121.66379139482481,25.07905525635306],[121.66452738914822,25.08029459322755],[121.66572814068657,25.08118307416008],[121.6672108415251,25.08158542760229],[121.66874974750883,25.081440394490958],[121.6701105553483,25.080770056963193],[121.67108608418927,25.079676475285055],[121.67152782299277,25.078326145733055],[121.67152396157242,25.077618253000733],[121.67123563385837,25.076591582928295]]]]},"properties":{"city":"newtaipei","minutes":5}}]}